<?xml version="1.0"?><gpx version="1.0" creator="cycle.travel"  xmlns:xsi="http://www.w3.org/2001/XMLSchema-instance"  xmlns="http://www.topografix.com/GPX/1/0"  xsi:schemaLocation="http://www.topografix.com/GPX/1/0 http://www.topografix.com/GPX/1/0/gpx.xsd">  <trk>    <name>Petersfield - P</name>    <trkseg>      <trkpt lat="51.00253" lon="-0.93980"><ele>60</ele></trkpt>      <trkpt lat="51.00257" lon="-0.93999"><ele>60</ele></trkpt>      <trkpt lat="51.00317" lon="-0.93954"><ele>61</ele></trkpt>      <trkpt lat="51.00348" lon="-0.94014"><ele>61</ele></trkpt>      <trkpt lat="51.00352" lon="-0.94042"><ele>61</ele></trkpt>      <trkpt lat="51.00353" lon="-0.94139"><ele>61</ele></trkpt>      <trkpt lat="51.00300" lon="-0.94363"><ele>60</ele></trkpt>      <trkpt lat="51.00261" lon="-0.94342"><ele>60</ele></trkpt>      <trkpt lat="51.00190" lon="-0.94278"><ele>60</ele></trkpt>      <trkpt lat="51.00139" lon="-0.94266"><ele>60</ele></trkpt>      <trkpt lat="51.00100" lon="-0.94299"><ele>60</ele></trkpt>      <trkpt lat="51.00080" lon="-0.94277"><ele>60</ele></trkpt>      <trkpt lat="51.00033" lon="-0.94272"><ele>61</ele></trkpt>      <trkpt lat="51.00021" lon="-0.94280"><ele>61</ele></trkpt>      <trkpt lat="51.00013" lon="-0.94271"><ele>61</ele></trkpt>      <trkpt lat="50.99900" lon="-0.94264"><ele>62</ele></trkpt>      <trkpt lat="50.99895" lon="-0.93993"><ele>63</ele></trkpt>      <trkpt lat="50.99881" lon="-0.93945"><ele>64</ele></trkpt>      <trkpt lat="50.99753" lon="-0.94114"><ele>69</ele></trkpt>      <trkpt lat="50.99697" lon="-0.94244"><ele>71</ele></trkpt>      <trkpt lat="50.99691" lon="-0.94298"><ele>71</ele></trkpt>      <trkpt lat="50.99680" lon="-0.94302"><ele>72</ele></trkpt>      <trkpt lat="50.99680" lon="-0.94325"><ele>72</ele></trkpt>      <trkpt lat="50.99667" lon="-0.94335"><ele>72</ele></trkpt>      <trkpt lat="50.99625" lon="-0.94428"><ele>74</ele></trkpt>      <trkpt lat="50.99559" lon="-0.94540"><ele>75</ele></trkpt>      <trkpt lat="50.99492" lon="-0.94620"><ele>75</ele></trkpt>      <trkpt lat="50.99385" lon="-0.94717"><ele>75</ele></trkpt>      <trkpt lat="50.99280" lon="-0.94807"><ele>75</ele></trkpt>      <trkpt lat="50.99207" lon="-0.94907"><ele>75</ele></trkpt>      <trkpt lat="50.99155" lon="-0.94999"><ele>75</ele></trkpt>      <trkpt lat="50.99114" lon="-0.95091"><ele>76</ele></trkpt>      <trkpt lat="50.99123" lon="-0.95102"><ele>76</ele></trkpt>      <trkpt lat="50.98984" lon="-0.95409"><ele>81</ele></trkpt>      <trkpt lat="50.98865" lon="-0.95549"><ele>84</ele></trkpt>      <trkpt lat="50.98802" lon="-0.95593"><ele>85</ele></trkpt>      <trkpt lat="50.98736" lon="-0.95622"><ele>85</ele></trkpt>      <trkpt lat="50.98510" lon="-0.95756"><ele>86</ele></trkpt>      <trkpt lat="50.98485" lon="-0.95793"><ele>86</ele></trkpt>      <trkpt lat="50.98418" lon="-0.95999"><ele>87</ele></trkpt>      <trkpt lat="50.98545" lon="-0.96242"><ele>88</ele></trkpt>      <trkpt lat="50.98590" lon="-0.96167"><ele>89</ele></trkpt>      <trkpt lat="50.98616" lon="-0.96212"><ele>90</ele></trkpt>      <trkpt lat="50.98657" lon="-0.96347"><ele>92</ele></trkpt>      <trkpt lat="50.98662" lon="-0.96423"><ele>92</ele></trkpt>      <trkpt lat="50.98642" lon="-0.96657"><ele>93</ele></trkpt>      <trkpt lat="50.98643" lon="-0.96719"><ele>94</ele></trkpt>      <trkpt lat="50.98659" lon="-0.96812"><ele>97</ele></trkpt>      <trkpt lat="50.98701" lon="-0.96933"><ele>100</ele></trkpt>      <trkpt lat="50.98743" lon="-0.97121"><ele>106</ele></trkpt>      <trkpt lat="50.98775" lon="-0.97173"><ele>106</ele></trkpt>      <trkpt lat="50.98814" lon="-0.97305"><ele>107</ele></trkpt>      <trkpt lat="50.98880" lon="-0.97484"><ele>105</ele></trkpt>      <trkpt lat="50.98905" lon="-0.97534"><ele>105</ele></trkpt>      <trkpt lat="50.98947" lon="-0.97869"><ele>106</ele></trkpt>      <trkpt lat="50.98957" lon="-0.98170"><ele>105</ele></trkpt>      <trkpt lat="50.98940" lon="-0.98690"><ele>102</ele></trkpt>      <trkpt lat="50.98958" lon="-0.98863"><ele>101</ele></trkpt>      <trkpt lat="50.98959" lon="-0.98929"><ele>100</ele></trkpt>      <trkpt lat="50.98973" lon="-0.99046"><ele>97</ele></trkpt>      <trkpt lat="50.98937" lon="-0.99196"><ele>101</ele></trkpt>      <trkpt lat="50.98937" lon="-0.99232"><ele>103</ele></trkpt>      <trkpt lat="50.99047" lon="-0.99561"><ele>112</ele></trkpt>      <trkpt lat="50.99068" lon="-0.99860"><ele>121</ele></trkpt>      <trkpt lat="50.99034" lon="-1.00086"><ele>128</ele></trkpt>      <trkpt lat="50.98954" lon="-1.00273"><ele>131</ele></trkpt>      <trkpt lat="50.98932" lon="-1.00389"><ele>130</ele></trkpt>      <trkpt lat="50.98920" lon="-1.00537"><ele>128</ele></trkpt>      <trkpt lat="50.98895" lon="-1.00657"><ele>126</ele></trkpt>      <trkpt lat="50.98783" lon="-1.00951"><ele>122</ele></trkpt>      <trkpt lat="50.98765" lon="-1.01015"><ele>122</ele></trkpt>      <trkpt lat="50.98755" lon="-1.01132"><ele>122</ele></trkpt>      <trkpt lat="50.98728" lon="-1.01233"><ele>122</ele></trkpt>      <trkpt lat="50.98714" lon="-1.01504"><ele>119</ele></trkpt>      <trkpt lat="50.98699" lon="-1.01539"><ele>119</ele></trkpt>      <trkpt lat="50.98586" lon="-1.01568"><ele>115</ele></trkpt>      <trkpt lat="50.98533" lon="-1.01561"><ele>115</ele></trkpt>      <trkpt lat="50.98514" lon="-1.01603"><ele>115</ele></trkpt>      <trkpt lat="50.98460" lon="-1.01599"><ele>115</ele></trkpt>      <trkpt lat="50.98441" lon="-1.01624"><ele>115</ele></trkpt>      <trkpt lat="50.98415" lon="-1.01762"><ele>117</ele></trkpt>      <trkpt lat="50.98401" lon="-1.01903"><ele>118</ele></trkpt>      <trkpt lat="50.98395" lon="-1.02031"><ele>118</ele></trkpt>      <trkpt lat="50.98402" lon="-1.02364"><ele>115</ele></trkpt>      <trkpt lat="50.98438" lon="-1.02517"><ele>115</ele></trkpt>      <trkpt lat="50.98461" lon="-1.02555"><ele>115</ele></trkpt>      <trkpt lat="50.98282" lon="-1.02670"><ele>117</ele></trkpt>      <trkpt lat="50.98111" lon="-1.02891"><ele>118</ele></trkpt>      <trkpt lat="50.98041" lon="-1.02961"><ele>120</ele></trkpt>      <trkpt lat="50.97980" lon="-1.02997"><ele>121</ele></trkpt>      <trkpt lat="50.97909" lon="-1.03024"><ele>122</ele></trkpt>      <trkpt lat="50.97776" lon="-1.03107"><ele>123</ele></trkpt>      <trkpt lat="50.97692" lon="-1.03126"><ele>125</ele></trkpt>      <trkpt lat="50.97612" lon="-1.03124"><ele>127</ele></trkpt>      <trkpt lat="50.97464" lon="-1.03082"><ele>131</ele></trkpt>      <trkpt lat="50.97331" lon="-1.03057"><ele>138</ele></trkpt>      <trkpt lat="50.97176" lon="-1.02947"><ele>149</ele></trkpt>      <trkpt lat="50.97089" lon="-1.02945"><ele>154</ele></trkpt>      <trkpt lat="50.96833" lon="-1.03016"><ele>166</ele></trkpt>      <trkpt lat="50.96714" lon="-1.03008"><ele>176</ele></trkpt>      <trkpt lat="50.96645" lon="-1.02985"><ele>182</ele></trkpt>      <trkpt lat="50.96610" lon="-1.02933"><ele>187</ele></trkpt>      <trkpt lat="50.96563" lon="-1.02839"><ele>194</ele></trkpt>      <trkpt lat="50.96574" lon="-1.02990"><ele>195</ele></trkpt>      <trkpt lat="50.96579" lon="-1.03030"><ele>194</ele></trkpt>      <trkpt lat="50.96659" lon="-1.03122"><ele>196</ele></trkpt>      <trkpt lat="50.96752" lon="-1.03199"><ele>199</ele></trkpt>      <trkpt lat="50.96797" lon="-1.03260"><ele>203</ele></trkpt>      <trkpt lat="50.96808" lon="-1.03310"><ele>205</ele></trkpt>      <trkpt lat="50.96820" lon="-1.03503"><ele>210</ele></trkpt>      <trkpt lat="50.96798" lon="-1.03941"><ele>208</ele></trkpt>      <trkpt lat="50.96787" lon="-1.03995"><ele>207</ele></trkpt>      <trkpt lat="50.96798" lon="-1.04156"><ele>206</ele></trkpt>      <trkpt lat="50.96826" lon="-1.04364"><ele>203</ele></trkpt>      <trkpt lat="50.96871" lon="-1.04588"><ele>199</ele></trkpt>      <trkpt lat="50.96900" lon="-1.04783"><ele>194</ele></trkpt>      <trkpt lat="50.96946" lon="-1.05165"><ele>184</ele></trkpt>      <trkpt lat="50.96968" lon="-1.05388"><ele>185</ele></trkpt>      <trkpt lat="50.97104" lon="-1.06005"><ele>188</ele></trkpt>      <trkpt lat="50.97168" lon="-1.06193"><ele>186</ele></trkpt>      <trkpt lat="50.97291" lon="-1.06694"><ele>191</ele></trkpt>      <trkpt lat="50.97323" lon="-1.06822"><ele>189</ele></trkpt>      <trkpt lat="50.97314" lon="-1.06842"><ele>189</ele></trkpt>      <trkpt lat="50.97155" lon="-1.06798"><ele>185</ele></trkpt>      <trkpt lat="50.97019" lon="-1.07481"><ele>172</ele></trkpt>      <trkpt lat="50.96760" lon="-1.08511"><ele>139</ele></trkpt>      <trkpt lat="50.96513" lon="-1.09668"><ele>140</ele></trkpt>      <trkpt lat="50.96563" lon="-1.09909"><ele>139</ele></trkpt>      <trkpt lat="50.96588" lon="-1.10114"><ele>137</ele></trkpt>      <trkpt lat="50.96604" lon="-1.10386"><ele>136</ele></trkpt>      <trkpt lat="50.96607" lon="-1.10527"><ele>137</ele></trkpt>      <trkpt lat="50.96572" lon="-1.10753"><ele>137</ele></trkpt>      <trkpt lat="50.96517" lon="-1.11424"><ele>118</ele></trkpt>      <trkpt lat="50.96508" lon="-1.11787"><ele>105</ele></trkpt>      <trkpt lat="50.96521" lon="-1.12045"><ele>93</ele></trkpt>      <trkpt lat="50.96515" lon="-1.12200"><ele>86</ele></trkpt>      <trkpt lat="50.96474" lon="-1.12358"><ele>80</ele></trkpt>      <trkpt lat="50.96424" lon="-1.12639"><ele>70</ele></trkpt>      <trkpt lat="50.96408" lon="-1.12671"><ele>68</ele></trkpt>      <trkpt lat="50.96396" lon="-1.12793"><ele>65</ele></trkpt>      <trkpt lat="50.96406" lon="-1.12846"><ele>64</ele></trkpt>      <trkpt lat="50.96389" lon="-1.12868"><ele>64</ele></trkpt>      <trkpt lat="50.96382" lon="-1.12936"><ele>64</ele></trkpt>      <trkpt lat="50.96309" lon="-1.12998"><ele>64</ele></trkpt>      <trkpt lat="50.96288" lon="-1.13002"><ele>64</ele></trkpt>      <trkpt lat="50.96262" lon="-1.12989"><ele>64</ele></trkpt>      <trkpt lat="50.96136" lon="-1.13044"><ele>63</ele></trkpt>      <trkpt lat="50.95503" lon="-1.13186"><ele>56</ele></trkpt>      <trkpt lat="50.95494" lon="-1.13188"><ele>55</ele></trkpt>      <trkpt lat="50.95304" lon="-1.13245"><ele>53</ele></trkpt>      <trkpt lat="50.95198" lon="-1.13298"><ele>52</ele></trkpt>      <trkpt lat="50.94794" lon="-1.13572"><ele>50</ele></trkpt>      <trkpt lat="50.94659" lon="-1.13651"><ele>50</ele></trkpt>      <trkpt lat="50.94599" lon="-1.13668"><ele>49</ele></trkpt>      <trkpt lat="50.94498" lon="-1.13683"><ele>48</ele></trkpt>      <trkpt lat="50.94423" lon="-1.13681"><ele>47</ele></trkpt>      <trkpt lat="50.94293" lon="-1.13638"><ele>47</ele></trkpt>      <trkpt lat="50.94150" lon="-1.13588"><ele>46</ele></trkpt>      <trkpt lat="50.94057" lon="-1.13570"><ele>46</ele></trkpt>      <trkpt lat="50.93827" lon="-1.13582"><ele>47</ele></trkpt>      <trkpt lat="50.93571" lon="-1.13618"><ele>47</ele></trkpt>      <trkpt lat="50.93450" lon="-1.13670"><ele>47</ele></trkpt>      <trkpt lat="50.93371" lon="-1.13730"><ele>46</ele></trkpt>      <trkpt lat="50.93218" lon="-1.13906"><ele>47</ele></trkpt>      <trkpt lat="50.92620" lon="-1.14803"><ele>50</ele></trkpt>      <trkpt lat="50.92466" lon="-1.15090"><ele>47</ele></trkpt>      <trkpt lat="50.92370" lon="-1.15338"><ele>44</ele></trkpt>      <trkpt lat="50.92129" lon="-1.16135"><ele>36</ele></trkpt>      <trkpt lat="50.92043" lon="-1.16351"><ele>37</ele></trkpt>      <trkpt lat="50.91965" lon="-1.16523"><ele>35</ele></trkpt>      <trkpt lat="50.91899" lon="-1.16641"><ele>34</ele></trkpt>      <trkpt lat="50.91789" lon="-1.16817"><ele>33</ele></trkpt>      <trkpt lat="50.91403" lon="-1.17334"><ele>31</ele></trkpt>      <trkpt lat="50.91112" lon="-1.17736"><ele>35</ele></trkpt>      <trkpt lat="50.90908" lon="-1.17997"><ele>33</ele></trkpt>      <trkpt lat="50.90843" lon="-1.18049"><ele>34</ele></trkpt>      <trkpt lat="50.90751" lon="-1.18099"><ele>35</ele></trkpt>      <trkpt lat="50.90365" lon="-1.18262"><ele>28</ele></trkpt>      <trkpt lat="50.90152" lon="-1.18340"><ele>25</ele></trkpt>      <trkpt lat="50.90166" lon="-1.18359"><ele>25</ele></trkpt>      <trkpt lat="50.90144" lon="-1.18416"><ele>25</ele></trkpt>      <trkpt lat="50.90149" lon="-1.18461"><ele>25</ele></trkpt>      <trkpt lat="50.90145" lon="-1.18477"><ele>26</ele></trkpt>      <trkpt lat="50.90190" lon="-1.18525"><ele>28</ele></trkpt>      <trkpt lat="50.90179" lon="-1.18559"><ele>28</ele></trkpt>      <trkpt lat="50.90157" lon="-1.18586"><ele>28</ele></trkpt>      <trkpt lat="50.90087" lon="-1.18620"><ele>27</ele></trkpt>      <trkpt lat="50.90041" lon="-1.18658"><ele>26</ele></trkpt>      <trkpt lat="50.89928" lon="-1.18828"><ele>24</ele></trkpt>      <trkpt lat="50.89880" lon="-1.18786"><ele>22</ele></trkpt>      <trkpt lat="50.89810" lon="-1.18765"><ele>19</ele></trkpt>      <trkpt lat="50.89732" lon="-1.18685"><ele>22</ele></trkpt>      <trkpt lat="50.89646" lon="-1.18828"><ele>22</ele></trkpt>      <trkpt lat="50.89528" lon="-1.18917"><ele>21</ele></trkpt>      <trkpt lat="50.89435" lon="-1.19080"><ele>21</ele></trkpt>      <trkpt lat="50.89393" lon="-1.19189"><ele>20</ele></trkpt>      <trkpt lat="50.89283" lon="-1.19375"><ele>21</ele></trkpt>      <trkpt lat="50.89186" lon="-1.19481"><ele>21</ele></trkpt>      <trkpt lat="50.89060" lon="-1.19738"><ele>23</ele></trkpt>      <trkpt lat="50.88964" lon="-1.19876"><ele>27</ele></trkpt>      <trkpt lat="50.88889" lon="-1.20051"><ele>25</ele></trkpt>      <trkpt lat="50.88863" lon="-1.20155"><ele>24</ele></trkpt>      <trkpt lat="50.88803" lon="-1.20276"><ele>22</ele></trkpt>      <trkpt lat="50.88764" lon="-1.20396"><ele>22</ele></trkpt>      <trkpt lat="50.88633" lon="-1.20448"><ele>28</ele></trkpt>      <trkpt lat="50.88590" lon="-1.20445"><ele>32</ele></trkpt>      <trkpt lat="50.88474" lon="-1.20332"><ele>33</ele></trkpt>      <trkpt lat="50.88441" lon="-1.20321"><ele>33</ele></trkpt>      <trkpt lat="50.88392" lon="-1.20334"><ele>36</ele></trkpt>      <trkpt lat="50.88365" lon="-1.20353"><ele>38</ele></trkpt>      <trkpt lat="50.88316" lon="-1.20466"><ele>39</ele></trkpt>      <trkpt lat="50.88260" lon="-1.20511"><ele>39</ele></trkpt>      <trkpt lat="50.88265" lon="-1.20551"><ele>39</ele></trkpt>      <trkpt lat="50.88252" lon="-1.20614"><ele>38</ele></trkpt>      <trkpt lat="50.88214" lon="-1.20663"><ele>36</ele></trkpt>      <trkpt lat="50.88153" lon="-1.20703"><ele>34</ele></trkpt>      <trkpt lat="50.88101" lon="-1.20716"><ele>32</ele></trkpt>      <trkpt lat="50.87918" lon="-1.20695"><ele>28</ele></trkpt>      <trkpt lat="50.87902" lon="-1.20704"><ele>28</ele></trkpt>      <trkpt lat="50.87897" lon="-1.20754"><ele>28</ele></trkpt>      <trkpt lat="50.87886" lon="-1.20771"><ele>30</ele></trkpt>      <trkpt lat="50.87753" lon="-1.20753"><ele>30</ele></trkpt>      <trkpt lat="50.87727" lon="-1.20763"><ele>29</ele></trkpt>      <trkpt lat="50.87681" lon="-1.20836"><ele>25</ele></trkpt>      <trkpt lat="50.87608" lon="-1.20921"><ele>20</ele></trkpt>      <trkpt lat="50.87559" lon="-1.21013"><ele>20</ele></trkpt>      <trkpt lat="50.87510" lon="-1.21070"><ele>18</ele></trkpt>      <trkpt lat="50.87456" lon="-1.21117"><ele>16</ele></trkpt>      <trkpt lat="50.87406" lon="-1.21142"><ele>14</ele></trkpt>      <trkpt lat="50.87444" lon="-1.21363"><ele>11</ele></trkpt>      <trkpt lat="50.87476" lon="-1.21476"><ele>8</ele></trkpt>      <trkpt lat="50.87501" lon="-1.21547"><ele>8</ele></trkpt>      <trkpt lat="50.87545" lon="-1.21633"><ele>10</ele></trkpt>      <trkpt lat="50.87568" lon="-1.21663"><ele>11</ele></trkpt>      <trkpt lat="50.87541" lon="-1.21970"><ele>20</ele></trkpt>      <trkpt lat="50.87500" lon="-1.22112"><ele>23</ele></trkpt>      <trkpt lat="50.87460" lon="-1.22208"><ele>24</ele></trkpt>      <trkpt lat="50.87396" lon="-1.22303"><ele>24</ele></trkpt>      <trkpt lat="50.87120" lon="-1.22516"><ele>19</ele></trkpt>      <trkpt lat="50.87054" lon="-1.22624"><ele>21</ele></trkpt>      <trkpt lat="50.87228" lon="-1.22941"><ele>33</ele></trkpt>      <trkpt lat="50.87378" lon="-1.23214"><ele>37</ele></trkpt>      <trkpt lat="50.87261" lon="-1.23403"><ele>39</ele></trkpt>      <trkpt lat="50.87160" lon="-1.23537"><ele>39</ele></trkpt>      <trkpt lat="50.87144" lon="-1.23570"><ele>39</ele></trkpt>      <trkpt lat="50.87199" lon="-1.23709"><ele>41</ele></trkpt>      <trkpt lat="50.87215" lon="-1.23884"><ele>44</ele></trkpt>      <trkpt lat="50.87178" lon="-1.23918"><ele>44</ele></trkpt>      <trkpt lat="50.87132" lon="-1.23914"><ele>44</ele></trkpt>      <trkpt lat="50.86920" lon="-1.23965"><ele>41</ele></trkpt>      <trkpt lat="50.86871" lon="-1.23958"><ele>41</ele></trkpt>      <trkpt lat="50.86651" lon="-1.23862"><ele>37</ele></trkpt>      <trkpt lat="50.86590" lon="-1.23859"><ele>36</ele></trkpt>      <trkpt lat="50.86517" lon="-1.23888"><ele>33</ele></trkpt>      <trkpt lat="50.86427" lon="-1.23951"><ele>34</ele></trkpt>      <trkpt lat="50.86408" lon="-1.23948"><ele>34</ele></trkpt>      <trkpt lat="50.86370" lon="-1.23901"><ele>34</ele></trkpt>      <trkpt lat="50.86321" lon="-1.23889"><ele>31</ele></trkpt>      <trkpt lat="50.85884" lon="-1.24067"><ele>35</ele></trkpt>      <trkpt lat="50.85790" lon="-1.24114"><ele>34</ele></trkpt>      <trkpt lat="50.85769" lon="-1.24126"><ele>34</ele></trkpt>      <trkpt lat="50.85772" lon="-1.24135"><ele>34</ele></trkpt>      <trkpt lat="50.85704" lon="-1.24180"><ele>35</ele></trkpt>      <trkpt lat="50.85658" lon="-1.24226"><ele>35</ele></trkpt>      <trkpt lat="50.85583" lon="-1.24358"><ele>35</ele></trkpt>      <trkpt lat="50.85576" lon="-1.24393"><ele>35</ele></trkpt>      <trkpt lat="50.85579" lon="-1.24420"><ele>35</ele></trkpt>      <trkpt lat="50.85573" lon="-1.24429"><ele>35</ele></trkpt>      <trkpt lat="50.85569" lon="-1.24454"><ele>35</ele></trkpt>      <trkpt lat="50.85564" lon="-1.24468"><ele>35</ele></trkpt>      <trkpt lat="50.85524" lon="-1.24472"><ele>34</ele></trkpt>      <trkpt lat="50.85514" lon="-1.24463"><ele>34</ele></trkpt>      <trkpt lat="50.85503" lon="-1.24470"><ele>34</ele></trkpt>      <trkpt lat="50.85483" lon="-1.24430"><ele>34</ele></trkpt>      <trkpt lat="50.85478" lon="-1.24442"><ele>34</ele></trkpt>      <trkpt lat="50.85408" lon="-1.24476"><ele>34</ele></trkpt>      <trkpt lat="50.85363" lon="-1.24473"><ele>34</ele></trkpt>      <trkpt lat="50.85320" lon="-1.24455"><ele>33</ele></trkpt>      <trkpt lat="50.85064" lon="-1.24250"><ele>31</ele></trkpt>      <trkpt lat="50.85018" lon="-1.24222"><ele>32</ele></trkpt>      <trkpt lat="50.84926" lon="-1.24186"><ele>32</ele></trkpt>      <trkpt lat="50.84810" lon="-1.24148"><ele>31</ele></trkpt>      <trkpt lat="50.84789" lon="-1.24150"><ele>30</ele></trkpt>      <trkpt lat="50.84745" lon="-1.24078"><ele>27</ele></trkpt>      <trkpt lat="50.84723" lon="-1.23994"><ele>23</ele></trkpt>      <trkpt lat="50.84628" lon="-1.24015"><ele>21</ele></trkpt>      <trkpt lat="50.84530" lon="-1.24057"><ele>18</ele></trkpt>      <trkpt lat="50.84422" lon="-1.24063"><ele>18</ele></trkpt>      <trkpt lat="50.84237" lon="-1.24181"><ele>16</ele></trkpt>      <trkpt lat="50.84004" lon="-1.24263"><ele>14</ele></trkpt>      <trkpt lat="50.83959" lon="-1.24296"><ele>13</ele></trkpt>      <trkpt lat="50.83829" lon="-1.24427"><ele>13</ele></trkpt>      <trkpt lat="50.83624" lon="-1.24530"><ele>12</ele></trkpt>      <trkpt lat="50.83563" lon="-1.24543"><ele>11</ele></trkpt>      <trkpt lat="50.83500" lon="-1.24505"><ele>11</ele></trkpt>      <trkpt lat="50.83344" lon="-1.24470"><ele>9</ele></trkpt>      <trkpt lat="50.83320" lon="-1.24476"><ele>9</ele></trkpt>      <trkpt lat="50.83306" lon="-1.24497"><ele>9</ele></trkpt>      <trkpt lat="50.83288" lon="-1.24565"><ele>8</ele></trkpt>      <trkpt lat="50.83282" lon="-1.24633"><ele>9</ele></trkpt>      <trkpt lat="50.83284" lon="-1.24796"><ele>10</ele></trkpt>      <trkpt lat="50.83286" lon="-1.24890"><ele>10</ele></trkpt>      <trkpt lat="50.83275" lon="-1.24931"><ele>10</ele></trkpt>      <trkpt lat="50.83143" lon="-1.24984"><ele>10</ele></trkpt>      <trkpt lat="50.83083" lon="-1.24990"><ele>10</ele></trkpt>      <trkpt lat="50.82979" lon="-1.24967"><ele>9</ele></trkpt>      <trkpt lat="50.82817" lon="-1.24886"><ele>10</ele></trkpt>      <trkpt lat="50.82746" lon="-1.24875"><ele>10</ele></trkpt>      <trkpt lat="50.82589" lon="-1.24791"><ele>10</ele></trkpt>      <trkpt lat="50.82441" lon="-1.24772"><ele>10</ele></trkpt>      <trkpt lat="50.82377" lon="-1.24786"><ele>8</ele></trkpt>      <trkpt lat="50.82315" lon="-1.24816"><ele>7</ele></trkpt>      <trkpt lat="50.82287" lon="-1.24812"><ele>6</ele></trkpt>      <trkpt lat="50.82247" lon="-1.24757"><ele>3</ele></trkpt>      <trkpt lat="50.82212" lon="-1.24642"><ele>2</ele></trkpt>      <trkpt lat="50.82187" lon="-1.24620"><ele>1</ele></trkpt>      <trkpt lat="50.82168" lon="-1.24659"><ele>1</ele></trkpt>      <trkpt lat="50.82151" lon="-1.24654"><ele>1</ele></trkpt>      <trkpt lat="50.82022" lon="-1.24867"><ele>1</ele></trkpt>      <trkpt lat="50.81976" lon="-1.24903"><ele>1</ele></trkpt>      <trkpt lat="50.81927" lon="-1.24916"><ele>2</ele></trkpt>      <trkpt lat="50.81743" lon="-1.24630"><ele>1</ele></trkpt>      <trkpt lat="50.81728" lon="-1.24594"><ele>1</ele></trkpt>      <trkpt lat="50.81719" lon="-1.24513"><ele>2</ele></trkpt>      <trkpt lat="50.81721" lon="-1.24457"><ele>2</ele></trkpt>      <trkpt lat="50.81731" lon="-1.24416"><ele>2</ele></trkpt>      <trkpt lat="50.81748" lon="-1.24400"><ele>2</ele></trkpt>      <trkpt lat="50.81792" lon="-1.24391"><ele>2</ele></trkpt>      <trkpt lat="50.81824" lon="-1.24338"><ele>1</ele></trkpt>      <trkpt lat="50.81837" lon="-1.24273"><ele>1</ele></trkpt>      <trkpt lat="50.81810" lon="-1.24195"><ele>2</ele></trkpt>      <trkpt lat="50.81807" lon="-1.24159"><ele>3</ele></trkpt>      <trkpt lat="50.81815" lon="-1.24136"><ele>3</ele></trkpt>      <trkpt lat="50.81833" lon="-1.24113"><ele>4</ele></trkpt>      <trkpt lat="50.81848" lon="-1.24065"><ele>6</ele></trkpt>      <trkpt lat="50.81846" lon="-1.23905"><ele>8</ele></trkpt>      <trkpt lat="50.81828" lon="-1.23805"><ele>8</ele></trkpt>      <trkpt lat="50.81741" lon="-1.23578"><ele>8</ele></trkpt>      <trkpt lat="50.81728" lon="-1.23516"><ele>8</ele></trkpt>      <trkpt lat="50.81726" lon="-1.23443"><ele>9</ele></trkpt>      <trkpt lat="50.81669" lon="-1.23292"><ele>9</ele></trkpt>      <trkpt lat="50.81622" lon="-1.23110"><ele>10</ele></trkpt>      <trkpt lat="50.81582" lon="-1.22694"><ele>7</ele></trkpt>      <trkpt lat="50.81568" lon="-1.22687"><ele>7</ele></trkpt>      <trkpt lat="50.81524" lon="-1.22704"><ele>6</ele></trkpt>      <trkpt lat="50.81469" lon="-1.22702"><ele>6</ele></trkpt>      <trkpt lat="50.81430" lon="-1.22666"><ele>6</ele></trkpt>      <trkpt lat="50.81405" lon="-1.22609"><ele>6</ele></trkpt>      <trkpt lat="50.81389" lon="-1.22494"><ele>6</ele></trkpt>      <trkpt lat="50.81399" lon="-1.22341"><ele>6</ele></trkpt>      <trkpt lat="50.81392" lon="-1.22281"><ele>6</ele></trkpt>      <trkpt lat="50.81352" lon="-1.22132"><ele>6</ele></trkpt>      <trkpt lat="50.81275" lon="-1.21995"><ele>6</ele></trkpt>      <trkpt lat="50.81216" lon="-1.21961"><ele>5</ele></trkpt>      <trkpt lat="50.81149" lon="-1.21886"><ele>5</ele></trkpt>      <trkpt lat="50.81103" lon="-1.21776"><ele>5</ele></trkpt>      <trkpt lat="50.81092" lon="-1.21729"><ele>5</ele></trkpt>      <trkpt lat="50.81080" lon="-1.21725"><ele>5</ele></trkpt>      <trkpt lat="50.81080" lon="-1.21706"><ele>5</ele></trkpt>      <trkpt lat="50.81033" lon="-1.21535"><ele>5</ele></trkpt>      <trkpt lat="50.80999" lon="-1.21449"><ele>5</ele></trkpt>      <trkpt lat="50.80990" lon="-1.21461"><ele>5</ele></trkpt>      <trkpt lat="50.80955" lon="-1.21402"><ele>5</ele></trkpt>      <trkpt lat="50.80974" lon="-1.21382"><ele>4</ele></trkpt>      <trkpt lat="50.80786" lon="-1.21099"><ele>4</ele></trkpt>      <trkpt lat="50.80747" lon="-1.21020"><ele>4</ele></trkpt>      <trkpt lat="50.80233" lon="-1.20439"><ele>4</ele></trkpt>      <trkpt lat="50.80199" lon="-1.20405"><ele>4</ele></trkpt>      <trkpt lat="50.79926" lon="-1.20088"><ele>4</ele></trkpt>      <trkpt lat="50.79604" lon="-1.19717"><ele>4</ele></trkpt>      <trkpt lat="50.79561" lon="-1.19692"><ele>4</ele></trkpt>      <trkpt lat="50.79456" lon="-1.19647"><ele>4</ele></trkpt>      <trkpt lat="50.79402" lon="-1.19566"><ele>4</ele></trkpt>      <trkpt lat="50.79386" lon="-1.19446"><ele>4</ele></trkpt>      <trkpt lat="50.79375" lon="-1.19415"><ele>3</ele></trkpt>      <trkpt lat="50.79250" lon="-1.18422"><ele>3</ele></trkpt>      <trkpt lat="50.79226" lon="-1.18225"><ele>3</ele></trkpt>      <trkpt lat="50.79100" lon="-1.17713"><ele>3</ele></trkpt>      <trkpt lat="50.79093" lon="-1.17650"><ele>3</ele></trkpt>      <trkpt lat="50.79090" lon="-1.17611"><ele>3</ele></trkpt>      <trkpt lat="50.79129" lon="-1.17290"><ele>3</ele></trkpt>      <trkpt lat="50.79126" lon="-1.17254"><ele>3</ele></trkpt>      <trkpt lat="50.79129" lon="-1.17229"><ele>3</ele></trkpt>      <trkpt lat="50.79136" lon="-1.17224"><ele>3</ele></trkpt>      <trkpt lat="50.79162" lon="-1.17087"><ele>2</ele></trkpt>      <trkpt lat="50.79306" lon="-1.16593"><ele>2</ele></trkpt>      <trkpt lat="50.79410" lon="-1.16379"><ele>2</ele></trkpt>      <trkpt lat="50.79406" lon="-1.16319"><ele>2</ele></trkpt>      <trkpt lat="50.79419" lon="-1.16298"><ele>2</ele></trkpt>      <trkpt lat="50.79434" lon="-1.16297"><ele>2</ele></trkpt>      <trkpt lat="50.79407" lon="-1.16046"><ele>2</ele></trkpt>      <trkpt lat="50.79414" lon="-1.15874"><ele>2</ele></trkpt>      <trkpt lat="50.79364" lon="-1.15621"><ele>2</ele></trkpt>      <trkpt lat="50.79327" lon="-1.15260"><ele>2</ele></trkpt>      <trkpt lat="50.79307" lon="-1.15134"><ele>2</ele></trkpt>      <trkpt lat="50.79295" lon="-1.14927"><ele>2</ele></trkpt>      <trkpt lat="50.79257" lon="-1.14778"><ele>2</ele></trkpt>      <trkpt lat="50.79221" lon="-1.14568"><ele>2</ele></trkpt>      <trkpt lat="50.79234" lon="-1.14418"><ele>2</ele></trkpt>      <trkpt lat="50.79237" lon="-1.14170"><ele>2</ele></trkpt>      <trkpt lat="50.79253" lon="-1.14042"><ele>2</ele></trkpt>      <trkpt lat="50.79250" lon="-1.14002"><ele>2</ele></trkpt>      <trkpt lat="50.79238" lon="-1.13982"><ele>2</ele></trkpt>      <trkpt lat="50.79185" lon="-1.13983"><ele>3</ele></trkpt>      <trkpt lat="50.79170" lon="-1.13977"><ele>3</ele></trkpt>      <trkpt lat="50.79162" lon="-1.13950"><ele>3</ele></trkpt>      <trkpt lat="50.79198" lon="-1.13571"><ele>3</ele></trkpt>      <trkpt lat="50.79226" lon="-1.13435"><ele>3</ele></trkpt>      <trkpt lat="50.79309" lon="-1.13194"><ele>3</ele></trkpt>      <trkpt lat="50.79354" lon="-1.13029"><ele>3</ele></trkpt>      <trkpt lat="50.79398" lon="-1.12647"><ele>3</ele></trkpt>      <trkpt lat="50.79395" lon="-1.12617"><ele>3</ele></trkpt>      <trkpt lat="50.79406" lon="-1.12495"><ele>3</ele></trkpt>      <trkpt lat="50.79444" lon="-1.12267"><ele>3</ele></trkpt>      <trkpt lat="50.79444" lon="-1.12190"><ele>3</ele></trkpt>      <trkpt lat="50.79409" lon="-1.11913"><ele>3</ele></trkpt>      <trkpt lat="50.79416" lon="-1.11875"><ele>3</ele></trkpt>      <trkpt lat="50.79429" lon="-1.11854"><ele>3</ele></trkpt>      <trkpt lat="50.79463" lon="-1.11820"><ele>3</ele></trkpt>      <trkpt lat="50.79489" lon="-1.11809"><ele>3</ele></trkpt>      <trkpt lat="50.79485" lon="-1.11778"><ele>3</ele></trkpt>      <trkpt lat="50.79479" lon="-1.11692"><ele>3</ele></trkpt>      <trkpt lat="50.79474" lon="-1.11612"><ele>3</ele></trkpt>      <trkpt lat="50.79496" lon="-1.11608"><ele>3</ele></trkpt>      <trkpt lat="50.79495" lon="-1.11600"><ele>4</ele></trkpt>      <trkpt lat="50.79701" lon="-1.10931"><ele>4</ele></trkpt>      <trkpt lat="50.79700" lon="-1.10874"><ele>4</ele></trkpt>      <trkpt lat="50.79714" lon="-1.10798"><ele>4</ele></trkpt>      <trkpt lat="50.79725" lon="-1.10792"><ele>4</ele></trkpt>      <trkpt lat="50.79745" lon="-1.10748"><ele>4</ele></trkpt>      <trkpt lat="50.79805" lon="-1.10680"><ele>4</ele></trkpt>      <trkpt lat="50.79816" lon="-1.10655"><ele>4</ele></trkpt>      <trkpt lat="50.79882" lon="-1.10714"><ele>4</ele></trkpt>      <trkpt lat="50.79910" lon="-1.10686"><ele>4</ele></trkpt>      <trkpt lat="50.79949" lon="-1.10621"><ele>4</ele></trkpt>      <trkpt lat="50.79970" lon="-1.10517"><ele>4</ele></trkpt>      <trkpt lat="50.79983" lon="-1.09847"><ele>4</ele></trkpt>      <trkpt lat="50.80002" lon="-1.09562"><ele>4</ele></trkpt>      <trkpt lat="50.80003" lon="-1.09544"><ele>4</ele></trkpt>      <trkpt lat="50.80025" lon="-1.09268"><ele>4</ele></trkpt>      <trkpt lat="50.80133" lon="-1.09335"><ele>4</ele></trkpt>      <trkpt lat="50.80164" lon="-1.09386"><ele>4</ele></trkpt>      <trkpt lat="50.80213" lon="-1.09426"><ele>4</ele></trkpt>      <trkpt lat="50.80158" lon="-1.09366"><ele>4</ele></trkpt>      <trkpt lat="50.80173" lon="-1.09344"><ele>4</ele></trkpt>      <trkpt lat="50.80185" lon="-1.09342"><ele>5</ele></trkpt>      <trkpt lat="50.80203" lon="-1.09306"><ele>5</ele></trkpt>      <trkpt lat="50.80250" lon="-1.09262"><ele>5</ele></trkpt>      <trkpt lat="50.80273" lon="-1.09226"><ele>5</ele></trkpt>      <trkpt lat="50.80325" lon="-1.09090"><ele>5</ele></trkpt>      <trkpt lat="50.80411" lon="-1.09051"><ele>5</ele></trkpt>      <trkpt lat="50.80463" lon="-1.08964"><ele>5</ele></trkpt>      <trkpt lat="50.80483" lon="-1.08939"><ele>5</ele></trkpt>      <trkpt lat="50.80503" lon="-1.08931"><ele>5</ele></trkpt>      <trkpt lat="50.80507" lon="-1.08886"><ele>5</ele></trkpt>      <trkpt lat="50.80546" lon="-1.08799"><ele>5</ele></trkpt>      <trkpt lat="50.80563" lon="-1.08787"><ele>5</ele></trkpt>      <trkpt lat="50.80607" lon="-1.08785"><ele>5</ele></trkpt>      <trkpt lat="50.80692" lon="-1.08821"><ele>5</ele></trkpt>      <trkpt lat="50.80796" lon="-1.08812"><ele>5</ele></trkpt>      <trkpt lat="50.80821" lon="-1.08783"><ele>5</ele></trkpt>      <trkpt lat="50.80830" lon="-1.08794"><ele>5</ele></trkpt>      <trkpt lat="50.80850" lon="-1.08770"><ele>5</ele></trkpt>      <trkpt lat="50.80992" lon="-1.08697"><ele>5</ele></trkpt>      <trkpt lat="50.81125" lon="-1.08661"><ele>5</ele></trkpt>      <trkpt lat="50.81152" lon="-1.08689"><ele>6</ele></trkpt>      <trkpt lat="50.81152" lon="-1.08708"><ele>6</ele></trkpt>      <trkpt lat="50.81170" lon="-1.08667"><ele>6</ele></trkpt>    </trkseg>  </trk></gpx>