<?xml version="1.0"?><gpx version="1.0" creator="cycle.travel"  xmlns:xsi="http://www.w3.org/2001/XMLSchema-instance"  xmlns="http://www.topografix.com/GPX/1/0"  xsi:schemaLocation="http://www.topografix.com/GPX/1/0 http://www.topografix.com/GPX/1/0/gpx.xsd">  <trk>    <name>Place Jean de C</name>    <trkseg>      <trkpt lat="48.64952" lon="-2.02609"><ele>13</ele></trkpt>      <trkpt lat="48.64925" lon="-2.02598"><ele>13</ele></trkpt>      <trkpt lat="48.64890" lon="-2.02605"><ele>13</ele></trkpt>      <trkpt lat="48.64887" lon="-2.02562"><ele>13</ele></trkpt>      <trkpt lat="48.64933" lon="-2.02507"><ele>11</ele></trkpt>      <trkpt lat="48.64898" lon="-2.02385"><ele>8</ele></trkpt>      <trkpt lat="48.64895" lon="-2.02346"><ele>8</ele></trkpt>      <trkpt lat="48.64844" lon="-2.02355"><ele>8</ele></trkpt>      <trkpt lat="48.64644" lon="-2.02341"><ele>8</ele></trkpt>      <trkpt lat="48.64637" lon="-2.02358"><ele>8</ele></trkpt>      <trkpt lat="48.64634" lon="-2.02379"><ele>8</ele></trkpt>      <trkpt lat="48.64617" lon="-2.02389"><ele>8</ele></trkpt>      <trkpt lat="48.64606" lon="-2.02376"><ele>8</ele></trkpt>      <trkpt lat="48.64606" lon="-2.02351"><ele>8</ele></trkpt>      <trkpt lat="48.64599" lon="-2.02344"><ele>8</ele></trkpt>      <trkpt lat="48.64569" lon="-2.02327"><ele>7</ele></trkpt>      <trkpt lat="48.64480" lon="-2.02306"><ele>7</ele></trkpt>      <trkpt lat="48.64349" lon="-2.02225"><ele>5</ele></trkpt>      <trkpt lat="48.64343" lon="-2.02193"><ele>6</ele></trkpt>      <trkpt lat="48.64280" lon="-2.02101"><ele>6</ele></trkpt>      <trkpt lat="48.64276" lon="-2.02071"><ele>7</ele></trkpt>      <trkpt lat="48.64255" lon="-2.02046"><ele>7</ele></trkpt>      <trkpt lat="48.64225" lon="-2.02054"><ele>8</ele></trkpt>      <trkpt lat="48.64213" lon="-2.02080"><ele>8</ele></trkpt>      <trkpt lat="48.64189" lon="-2.02074"><ele>8</ele></trkpt>      <trkpt lat="48.64182" lon="-2.02057"><ele>8</ele></trkpt>      <trkpt lat="48.64187" lon="-2.02029"><ele>9</ele></trkpt>      <trkpt lat="48.64095" lon="-2.01896"><ele>11</ele></trkpt>      <trkpt lat="48.64079" lon="-2.01872"><ele>11</ele></trkpt>      <trkpt lat="48.64020" lon="-2.01832"><ele>11</ele></trkpt>      <trkpt lat="48.64007" lon="-2.01868"><ele>12</ele></trkpt>      <trkpt lat="48.63890" lon="-2.01847"><ele>12</ele></trkpt>      <trkpt lat="48.63840" lon="-2.01850"><ele>12</ele></trkpt>      <trkpt lat="48.63772" lon="-2.01900"><ele>12</ele></trkpt>      <trkpt lat="48.63707" lon="-2.01962"><ele>12</ele></trkpt>      <trkpt lat="48.63674" lon="-2.02015"><ele>12</ele></trkpt>      <trkpt lat="48.63668" lon="-2.02010"><ele>13</ele></trkpt>      <trkpt lat="48.63574" lon="-2.01932"><ele>17</ele></trkpt>      <trkpt lat="48.63498" lon="-2.01900"><ele>19</ele></trkpt>      <trkpt lat="48.63451" lon="-2.01907"><ele>20</ele></trkpt>      <trkpt lat="48.63439" lon="-2.01894"><ele>21</ele></trkpt>      <trkpt lat="48.63438" lon="-2.01859"><ele>21</ele></trkpt>      <trkpt lat="48.63402" lon="-2.01621"><ele>27</ele></trkpt>      <trkpt lat="48.63377" lon="-2.01381"><ele>30</ele></trkpt>      <trkpt lat="48.63372" lon="-2.01303"><ele>31</ele></trkpt>      <trkpt lat="48.63328" lon="-2.01231"><ele>33</ele></trkpt>      <trkpt lat="48.63317" lon="-2.01233"><ele>33</ele></trkpt>      <trkpt lat="48.63194" lon="-2.01163"><ele>37</ele></trkpt>      <trkpt lat="48.63138" lon="-2.01083"><ele>38</ele></trkpt>      <trkpt lat="48.62992" lon="-2.01097"><ele>33</ele></trkpt>      <trkpt lat="48.62978" lon="-2.01116"><ele>32</ele></trkpt>      <trkpt lat="48.62751" lon="-2.01248"><ele>23</ele></trkpt>      <trkpt lat="48.62571" lon="-2.01268"><ele>27</ele></trkpt>      <trkpt lat="48.62557" lon="-2.01259"><ele>27</ele></trkpt>      <trkpt lat="48.62541" lon="-2.01215"><ele>25</ele></trkpt>      <trkpt lat="48.62488" lon="-2.01210"><ele>22</ele></trkpt>      <trkpt lat="48.62467" lon="-2.01271"><ele>19</ele></trkpt>      <trkpt lat="48.62441" lon="-2.01279"><ele>18</ele></trkpt>      <trkpt lat="48.62374" lon="-2.01232"><ele>18</ele></trkpt>      <trkpt lat="48.62378" lon="-2.01126"><ele>19</ele></trkpt>      <trkpt lat="48.62322" lon="-2.01056"><ele>23</ele></trkpt>      <trkpt lat="48.62174" lon="-2.01000"><ele>30</ele></trkpt>      <trkpt lat="48.62063" lon="-2.00923"><ele>37</ele></trkpt>      <trkpt lat="48.62147" lon="-2.00485"><ele>40</ele></trkpt>      <trkpt lat="48.62166" lon="-2.00432"><ele>39</ele></trkpt>      <trkpt lat="48.62154" lon="-2.00416"><ele>39</ele></trkpt>      <trkpt lat="48.62010" lon="-2.00404"><ele>39</ele></trkpt>      <trkpt lat="48.61972" lon="-2.00410"><ele>39</ele></trkpt>      <trkpt lat="48.61927" lon="-2.00431"><ele>38</ele></trkpt>      <trkpt lat="48.61869" lon="-2.00475"><ele>38</ele></trkpt>      <trkpt lat="48.61867" lon="-2.00468"><ele>38</ele></trkpt>      <trkpt lat="48.61863" lon="-2.00460"><ele>38</ele></trkpt>      <trkpt lat="48.61806" lon="-2.00528"><ele>37</ele></trkpt>      <trkpt lat="48.61728" lon="-2.00598"><ele>35</ele></trkpt>      <trkpt lat="48.61726" lon="-2.00569"><ele>36</ele></trkpt>      <trkpt lat="48.61739" lon="-2.00553"><ele>37</ele></trkpt>      <trkpt lat="48.61745" lon="-2.00530"><ele>37</ele></trkpt>      <trkpt lat="48.61745" lon="-2.00253"><ele>30</ele></trkpt>      <trkpt lat="48.61738" lon="-2.00216"><ele>29</ele></trkpt>      <trkpt lat="48.61522" lon="-1.99905"><ele>15</ele></trkpt>      <trkpt lat="48.61493" lon="-1.99864"><ele>13</ele></trkpt>      <trkpt lat="48.61459" lon="-1.99844"><ele>13</ele></trkpt>      <trkpt lat="48.61131" lon="-1.99885"><ele>27</ele></trkpt>      <trkpt lat="48.61094" lon="-1.99898"><ele>28</ele></trkpt>      <trkpt lat="48.61016" lon="-1.99948"><ele>30</ele></trkpt>      <trkpt lat="48.60947" lon="-1.99971"><ele>31</ele></trkpt>      <trkpt lat="48.60896" lon="-1.99969"><ele>32</ele></trkpt>      <trkpt lat="48.60777" lon="-1.99922"><ele>33</ele></trkpt>      <trkpt lat="48.60755" lon="-1.99883"><ele>33</ele></trkpt>      <trkpt lat="48.60690" lon="-1.99667"><ele>33</ele></trkpt>      <trkpt lat="48.60677" lon="-1.99648"><ele>32</ele></trkpt>      <trkpt lat="48.60574" lon="-1.99582"><ele>25</ele></trkpt>      <trkpt lat="48.60518" lon="-1.99501"><ele>18</ele></trkpt>      <trkpt lat="48.60432" lon="-1.99443"><ele>22</ele></trkpt>      <trkpt lat="48.60264" lon="-1.99214"><ele>28</ele></trkpt>      <trkpt lat="48.60216" lon="-1.99126"><ele>31</ele></trkpt>      <trkpt lat="48.60191" lon="-1.99063"><ele>33</ele></trkpt>      <trkpt lat="48.60148" lon="-1.98890"><ele>38</ele></trkpt>      <trkpt lat="48.60052" lon="-1.98614"><ele>41</ele></trkpt>      <trkpt lat="48.60019" lon="-1.98425"><ele>45</ele></trkpt>      <trkpt lat="48.59980" lon="-1.98339"><ele>47</ele></trkpt>      <trkpt lat="48.59938" lon="-1.98345"><ele>47</ele></trkpt>      <trkpt lat="48.59858" lon="-1.98322"><ele>46</ele></trkpt>      <trkpt lat="48.59823" lon="-1.98351"><ele>45</ele></trkpt>      <trkpt lat="48.59770" lon="-1.98421"><ele>44</ele></trkpt>      <trkpt lat="48.59745" lon="-1.98436"><ele>44</ele></trkpt>      <trkpt lat="48.59737" lon="-1.98423"><ele>44</ele></trkpt>      <trkpt lat="48.59733" lon="-1.98337"><ele>44</ele></trkpt>      <trkpt lat="48.59731" lon="-1.98147"><ele>47</ele></trkpt>      <trkpt lat="48.59738" lon="-1.98077"><ele>48</ele></trkpt>      <trkpt lat="48.59766" lon="-1.97926"><ele>47</ele></trkpt>      <trkpt lat="48.59803" lon="-1.97802"><ele>47</ele></trkpt>      <trkpt lat="48.59818" lon="-1.97643"><ele>46</ele></trkpt>      <trkpt lat="48.59847" lon="-1.97537"><ele>46</ele></trkpt>      <trkpt lat="48.59860" lon="-1.97528"><ele>46</ele></trkpt>      <trkpt lat="48.59858" lon="-1.97499"><ele>45</ele></trkpt>      <trkpt lat="48.59896" lon="-1.97315"><ele>42</ele></trkpt>      <trkpt lat="48.59898" lon="-1.97264"><ele>42</ele></trkpt>      <trkpt lat="48.59876" lon="-1.97239"><ele>42</ele></trkpt>      <trkpt lat="48.59760" lon="-1.97194"><ele>42</ele></trkpt>      <trkpt lat="48.59746" lon="-1.97180"><ele>42</ele></trkpt>      <trkpt lat="48.59305" lon="-1.96240"><ele>12</ele></trkpt>      <trkpt lat="48.59285" lon="-1.96198"><ele>12</ele></trkpt>      <trkpt lat="48.59244" lon="-1.96091"><ele>12</ele></trkpt>      <trkpt lat="48.59222" lon="-1.96054"><ele>12</ele></trkpt>      <trkpt lat="48.58989" lon="-1.95841"><ele>12</ele></trkpt>      <trkpt lat="48.58934" lon="-1.95837"><ele>12</ele></trkpt>      <trkpt lat="48.58887" lon="-1.95856"><ele>12</ele></trkpt>      <trkpt lat="48.58682" lon="-1.96099"><ele>12</ele></trkpt>      <trkpt lat="48.58559" lon="-1.96373"><ele>12</ele></trkpt>      <trkpt lat="48.58506" lon="-1.96415"><ele>12</ele></trkpt>      <trkpt lat="48.58473" lon="-1.96416"><ele>12</ele></trkpt>      <trkpt lat="48.58437" lon="-1.96401"><ele>12</ele></trkpt>      <trkpt lat="48.58216" lon="-1.96166"><ele>12</ele></trkpt>      <trkpt lat="48.58180" lon="-1.96111"><ele>12</ele></trkpt>      <trkpt lat="48.58068" lon="-1.95633"><ele>12</ele></trkpt>      <trkpt lat="48.58015" lon="-1.95438"><ele>12</ele></trkpt>      <trkpt lat="48.57985" lon="-1.95397"><ele>12</ele></trkpt>      <trkpt lat="48.57922" lon="-1.95349"><ele>12</ele></trkpt>      <trkpt lat="48.57884" lon="-1.95367"><ele>11</ele></trkpt>      <trkpt lat="48.57717" lon="-1.95392"><ele>11</ele></trkpt>      <trkpt lat="48.57512" lon="-1.95453"><ele>11</ele></trkpt>      <trkpt lat="48.57478" lon="-1.95479"><ele>11</ele></trkpt>      <trkpt lat="48.57466" lon="-1.95517"><ele>11</ele></trkpt>      <trkpt lat="48.57426" lon="-1.96172"><ele>11</ele></trkpt>      <trkpt lat="48.57412" lon="-1.96260"><ele>11</ele></trkpt>      <trkpt lat="48.57353" lon="-1.96417"><ele>11</ele></trkpt>      <trkpt lat="48.57278" lon="-1.96627"><ele>11</ele></trkpt>      <trkpt lat="48.57263" lon="-1.96753"><ele>11</ele></trkpt>      <trkpt lat="48.57225" lon="-1.96936"><ele>11</ele></trkpt>      <trkpt lat="48.57173" lon="-1.96926"><ele>11</ele></trkpt>      <trkpt lat="48.57124" lon="-1.96870"><ele>11</ele></trkpt>      <trkpt lat="48.57099" lon="-1.96816"><ele>11</ele></trkpt>      <trkpt lat="48.57054" lon="-1.96662"><ele>11</ele></trkpt>      <trkpt lat="48.56956" lon="-1.96399"><ele>11</ele></trkpt>      <trkpt lat="48.56851" lon="-1.96244"><ele>11</ele></trkpt>      <trkpt lat="48.56773" lon="-1.95941"><ele>11</ele></trkpt>      <trkpt lat="48.56716" lon="-1.95766"><ele>11</ele></trkpt>      <trkpt lat="48.56615" lon="-1.95437"><ele>11</ele></trkpt>      <trkpt lat="48.56577" lon="-1.95378"><ele>11</ele></trkpt>      <trkpt lat="48.56538" lon="-1.95358"><ele>11</ele></trkpt>      <trkpt lat="48.56354" lon="-1.95339"><ele>11</ele></trkpt>      <trkpt lat="48.56241" lon="-1.95289"><ele>11</ele></trkpt>      <trkpt lat="48.56187" lon="-1.95294"><ele>11</ele></trkpt>      <trkpt lat="48.56020" lon="-1.95343"><ele>11</ele></trkpt>      <trkpt lat="48.56011" lon="-1.95342"><ele>11</ele></trkpt>      <trkpt lat="48.55998" lon="-1.95318"><ele>11</ele></trkpt>      <trkpt lat="48.55962" lon="-1.95224"><ele>11</ele></trkpt>      <trkpt lat="48.55713" lon="-1.95343"><ele>18</ele></trkpt>      <trkpt lat="48.55673" lon="-1.95350"><ele>20</ele></trkpt>      <trkpt lat="48.55550" lon="-1.95344"><ele>27</ele></trkpt>      <trkpt lat="48.55532" lon="-1.95350"><ele>28</ele></trkpt>      <trkpt lat="48.55467" lon="-1.95412"><ele>32</ele></trkpt>      <trkpt lat="48.55437" lon="-1.95359"><ele>35</ele></trkpt>      <trkpt lat="48.55424" lon="-1.95353"><ele>36</ele></trkpt>      <trkpt lat="48.55373" lon="-1.95387"><ele>38</ele></trkpt>      <trkpt lat="48.55300" lon="-1.95470"><ele>37</ele></trkpt>      <trkpt lat="48.55232" lon="-1.95525"><ele>40</ele></trkpt>      <trkpt lat="48.55186" lon="-1.95525"><ele>41</ele></trkpt>      <trkpt lat="48.55136" lon="-1.95509"><ele>42</ele></trkpt>      <trkpt lat="48.55044" lon="-1.95451"><ele>46</ele></trkpt>      <trkpt lat="48.54970" lon="-1.95376"><ele>42</ele></trkpt>      <trkpt lat="48.54753" lon="-1.95255"><ele>40</ele></trkpt>      <trkpt lat="48.54729" lon="-1.95329"><ele>39</ele></trkpt>      <trkpt lat="48.54611" lon="-1.95477"><ele>41</ele></trkpt>      <trkpt lat="48.54452" lon="-1.95680"><ele>44</ele></trkpt>      <trkpt lat="48.54412" lon="-1.95711"><ele>44</ele></trkpt>      <trkpt lat="48.54308" lon="-1.95752"><ele>44</ele></trkpt>      <trkpt lat="48.54263" lon="-1.95797"><ele>43</ele></trkpt>      <trkpt lat="48.54197" lon="-1.95928"><ele>42</ele></trkpt>      <trkpt lat="48.54103" lon="-1.96206"><ele>40</ele></trkpt>      <trkpt lat="48.54061" lon="-1.96265"><ele>39</ele></trkpt>      <trkpt lat="48.54053" lon="-1.96294"><ele>39</ele></trkpt>      <trkpt lat="48.54041" lon="-1.96295"><ele>39</ele></trkpt>      <trkpt lat="48.54031" lon="-1.96279"><ele>39</ele></trkpt>      <trkpt lat="48.53982" lon="-1.96292"><ele>36</ele></trkpt>      <trkpt lat="48.53886" lon="-1.96304"><ele>38</ele></trkpt>      <trkpt lat="48.53879" lon="-1.96327"><ele>38</ele></trkpt>      <trkpt lat="48.53865" lon="-1.96331"><ele>38</ele></trkpt>      <trkpt lat="48.53852" lon="-1.96315"><ele>37</ele></trkpt>      <trkpt lat="48.53836" lon="-1.96341"><ele>36</ele></trkpt>      <trkpt lat="48.53813" lon="-1.96423"><ele>34</ele></trkpt>      <trkpt lat="48.53781" lon="-1.96626"><ele>29</ele></trkpt>      <trkpt lat="48.53763" lon="-1.96693"><ele>30</ele></trkpt>      <trkpt lat="48.53678" lon="-1.96802"><ele>27</ele></trkpt>      <trkpt lat="48.53650" lon="-1.96872"><ele>26</ele></trkpt>      <trkpt lat="48.53585" lon="-1.96937"><ele>26</ele></trkpt>      <trkpt lat="48.53456" lon="-1.97293"><ele>31</ele></trkpt>      <trkpt lat="48.53393" lon="-1.97498"><ele>33</ele></trkpt>      <trkpt lat="48.53383" lon="-1.97497"><ele>33</ele></trkpt>      <trkpt lat="48.53362" lon="-1.97520"><ele>34</ele></trkpt>      <trkpt lat="48.53297" lon="-1.97603"><ele>38</ele></trkpt>      <trkpt lat="48.53273" lon="-1.97678"><ele>42</ele></trkpt>      <trkpt lat="48.53281" lon="-1.97756"><ele>44</ele></trkpt>      <trkpt lat="48.53293" lon="-1.97784"><ele>45</ele></trkpt>      <trkpt lat="48.53327" lon="-1.97823"><ele>48</ele></trkpt>      <trkpt lat="48.53292" lon="-1.97926"><ele>49</ele></trkpt>      <trkpt lat="48.53250" lon="-1.97999"><ele>52</ele></trkpt>      <trkpt lat="48.53253" lon="-1.98104"><ele>56</ele></trkpt>      <trkpt lat="48.53269" lon="-1.98172"><ele>58</ele></trkpt>      <trkpt lat="48.53335" lon="-1.98277"><ele>62</ele></trkpt>      <trkpt lat="48.53383" lon="-1.98477"><ele>63</ele></trkpt>      <trkpt lat="48.53314" lon="-1.98514"><ele>63</ele></trkpt>      <trkpt lat="48.53039" lon="-1.98608"><ele>51</ele></trkpt>      <trkpt lat="48.52981" lon="-1.98644"><ele>48</ele></trkpt>      <trkpt lat="48.52894" lon="-1.98830"><ele>49</ele></trkpt>      <trkpt lat="48.52811" lon="-1.98980"><ele>45</ele></trkpt>      <trkpt lat="48.52795" lon="-1.99051"><ele>41</ele></trkpt>      <trkpt lat="48.52774" lon="-1.99098"><ele>38</ele></trkpt>      <trkpt lat="48.52751" lon="-1.99114"><ele>36</ele></trkpt>      <trkpt lat="48.52701" lon="-1.99106"><ele>31</ele></trkpt>      <trkpt lat="48.52671" lon="-1.99118"><ele>28</ele></trkpt>      <trkpt lat="48.52579" lon="-1.99256"><ele>18</ele></trkpt>      <trkpt lat="48.52539" lon="-1.99268"><ele>15</ele></trkpt>      <trkpt lat="48.52499" lon="-1.99346"><ele>14</ele></trkpt>      <trkpt lat="48.52485" lon="-1.99408"><ele>13</ele></trkpt>      <trkpt lat="48.52412" lon="-1.99547"><ele>15</ele></trkpt>      <trkpt lat="48.52357" lon="-1.99696"><ele>13</ele></trkpt>      <trkpt lat="48.52311" lon="-1.99910"><ele>11</ele></trkpt>      <trkpt lat="48.52245" lon="-1.99978"><ele>11</ele></trkpt>      <trkpt lat="48.52178" lon="-1.99896"><ele>12</ele></trkpt>      <trkpt lat="48.52030" lon="-1.99804"><ele>15</ele></trkpt>      <trkpt lat="48.51817" lon="-1.99783"><ele>21</ele></trkpt>      <trkpt lat="48.51626" lon="-1.99706"><ele>32</ele></trkpt>      <trkpt lat="48.51532" lon="-1.99641"><ele>38</ele></trkpt>      <trkpt lat="48.51491" lon="-1.99640"><ele>39</ele></trkpt>      <trkpt lat="48.51368" lon="-1.99680"><ele>42</ele></trkpt>      <trkpt lat="48.51150" lon="-1.99699"><ele>43</ele></trkpt>      <trkpt lat="48.51126" lon="-1.99710"><ele>43</ele></trkpt>      <trkpt lat="48.51063" lon="-1.99777"><ele>44</ele></trkpt>      <trkpt lat="48.51003" lon="-1.99792"><ele>45</ele></trkpt>      <trkpt lat="48.50934" lon="-1.99859"><ele>46</ele></trkpt>      <trkpt lat="48.50851" lon="-1.99892"><ele>47</ele></trkpt>      <trkpt lat="48.50823" lon="-1.99888"><ele>47</ele></trkpt>      <trkpt lat="48.50665" lon="-1.99774"><ele>46</ele></trkpt>      <trkpt lat="48.50513" lon="-1.99754"><ele>48</ele></trkpt>      <trkpt lat="48.50331" lon="-1.99767"><ele>37</ele></trkpt>      <trkpt lat="48.50221" lon="-1.99806"><ele>26</ele></trkpt>      <trkpt lat="48.50007" lon="-2.00006"><ele>32</ele></trkpt>      <trkpt lat="48.49824" lon="-2.00108"><ele>37</ele></trkpt>      <trkpt lat="48.49702" lon="-2.00215"><ele>40</ele></trkpt>      <trkpt lat="48.49601" lon="-2.00316"><ele>42</ele></trkpt>      <trkpt lat="48.49597" lon="-2.00038"><ele>34</ele></trkpt>      <trkpt lat="48.49593" lon="-2.00016"><ele>33</ele></trkpt>      <trkpt lat="48.49565" lon="-1.99982"><ele>31</ele></trkpt>      <trkpt lat="48.49545" lon="-1.99979"><ele>29</ele></trkpt>      <trkpt lat="48.49527" lon="-1.99991"><ele>28</ele></trkpt>      <trkpt lat="48.49421" lon="-2.00164"><ele>19</ele></trkpt>      <trkpt lat="48.49334" lon="-2.00226"><ele>15</ele></trkpt>      <trkpt lat="48.49261" lon="-2.00228"><ele>12</ele></trkpt>      <trkpt lat="48.49251" lon="-2.00289"><ele>11</ele></trkpt>      <trkpt lat="48.49222" lon="-2.00323"><ele>10</ele></trkpt>      <trkpt lat="48.49201" lon="-2.00333"><ele>10</ele></trkpt>      <trkpt lat="48.49148" lon="-2.00354"><ele>9</ele></trkpt>      <trkpt lat="48.49142" lon="-2.00385"><ele>9</ele></trkpt>      <trkpt lat="48.49120" lon="-2.00418"><ele>9</ele></trkpt>      <trkpt lat="48.48981" lon="-2.00536"><ele>9</ele></trkpt>      <trkpt lat="48.48933" lon="-2.00544"><ele>9</ele></trkpt>      <trkpt lat="48.48876" lon="-2.00507"><ele>9</ele></trkpt>      <trkpt lat="48.48796" lon="-2.00483"><ele>9</ele></trkpt>      <trkpt lat="48.48762" lon="-2.00449"><ele>9</ele></trkpt>      <trkpt lat="48.48710" lon="-2.00374"><ele>9</ele></trkpt>      <trkpt lat="48.48695" lon="-2.00321"><ele>9</ele></trkpt>      <trkpt lat="48.48686" lon="-2.00204"><ele>9</ele></trkpt>      <trkpt lat="48.48658" lon="-2.00121"><ele>9</ele></trkpt>      <trkpt lat="48.48558" lon="-1.99935"><ele>9</ele></trkpt>      <trkpt lat="48.48531" lon="-1.99905"><ele>9</ele></trkpt>      <trkpt lat="48.48502" lon="-1.99889"><ele>9</ele></trkpt>      <trkpt lat="48.48456" lon="-1.99899"><ele>9</ele></trkpt>      <trkpt lat="48.48422" lon="-1.99930"><ele>9</ele></trkpt>      <trkpt lat="48.48389" lon="-1.99996"><ele>8</ele></trkpt>      <trkpt lat="48.48319" lon="-2.00186"><ele>8</ele></trkpt>      <trkpt lat="48.48295" lon="-2.00260"><ele>8</ele></trkpt>      <trkpt lat="48.48263" lon="-2.00491"><ele>8</ele></trkpt>      <trkpt lat="48.48265" lon="-2.00546"><ele>8</ele></trkpt>      <trkpt lat="48.48253" lon="-2.00583"><ele>8</ele></trkpt>      <trkpt lat="48.48219" lon="-2.00618"><ele>8</ele></trkpt>      <trkpt lat="48.48157" lon="-2.00655"><ele>8</ele></trkpt>      <trkpt lat="48.48050" lon="-2.00672"><ele>8</ele></trkpt>      <trkpt lat="48.47962" lon="-2.00707"><ele>8</ele></trkpt>      <trkpt lat="48.47868" lon="-2.00715"><ele>8</ele></trkpt>      <trkpt lat="48.47829" lon="-2.00710"><ele>8</ele></trkpt>      <trkpt lat="48.47722" lon="-2.00669"><ele>8</ele></trkpt>      <trkpt lat="48.47661" lon="-2.00672"><ele>8</ele></trkpt>      <trkpt lat="48.47597" lon="-2.00712"><ele>8</ele></trkpt>      <trkpt lat="48.47516" lon="-2.00794"><ele>8</ele></trkpt>      <trkpt lat="48.47358" lon="-2.00822"><ele>8</ele></trkpt>      <trkpt lat="48.47269" lon="-2.00894"><ele>8</ele></trkpt>      <trkpt lat="48.47117" lon="-2.01053"><ele>8</ele></trkpt>      <trkpt lat="48.47100" lon="-2.01087"><ele>8</ele></trkpt>      <trkpt lat="48.47067" lon="-2.01221"><ele>8</ele></trkpt>      <trkpt lat="48.46998" lon="-2.01972"><ele>8</ele></trkpt>      <trkpt lat="48.46993" lon="-2.02155"><ele>8</ele></trkpt>      <trkpt lat="48.46982" lon="-2.02211"><ele>8</ele></trkpt>      <trkpt lat="48.46894" lon="-2.02486"><ele>8</ele></trkpt>      <trkpt lat="48.46860" lon="-2.02564"><ele>8</ele></trkpt>      <trkpt lat="48.46766" lon="-2.02696"><ele>8</ele></trkpt>      <trkpt lat="48.46733" lon="-2.02728"><ele>8</ele></trkpt>      <trkpt lat="48.46674" lon="-2.02742"><ele>8</ele></trkpt>      <trkpt lat="48.46473" lon="-2.02712"><ele>8</ele></trkpt>      <trkpt lat="48.46415" lon="-2.02744"><ele>8</ele></trkpt>      <trkpt lat="48.46380" lon="-2.02789"><ele>8</ele></trkpt>      <trkpt lat="48.46302" lon="-2.02882"><ele>8</ele></trkpt>      <trkpt lat="48.46280" lon="-2.02900"><ele>8</ele></trkpt>      <trkpt lat="48.46218" lon="-2.02920"><ele>8</ele></trkpt>      <trkpt lat="48.46180" lon="-2.02953"><ele>8</ele></trkpt>      <trkpt lat="48.46171" lon="-2.02980"><ele>8</ele></trkpt>      <trkpt lat="48.46139" lon="-2.03250"><ele>8</ele></trkpt>      <trkpt lat="48.46151" lon="-2.03268"><ele>7</ele></trkpt>      <trkpt lat="48.46038" lon="-2.03453"><ele>7</ele></trkpt>      <trkpt lat="48.45870" lon="-2.03680"><ele>5</ele></trkpt>      <trkpt lat="48.45805" lon="-2.03748"><ele>5</ele></trkpt>      <trkpt lat="48.45772" lon="-2.03774"><ele>5</ele></trkpt>      <trkpt lat="48.45681" lon="-2.03794"><ele>5</ele></trkpt>      <trkpt lat="48.45630" lon="-2.03840"><ele>5</ele></trkpt>      <trkpt lat="48.45622" lon="-2.03824"><ele>5</ele></trkpt>      <trkpt lat="48.45598" lon="-2.03779"><ele>5</ele></trkpt>      <trkpt lat="48.45537" lon="-2.03848"><ele>5</ele></trkpt>      <trkpt lat="48.45504" lon="-2.03843"><ele>5</ele></trkpt>      <trkpt lat="48.45476" lon="-2.03816"><ele>5</ele></trkpt>      <trkpt lat="48.45472" lon="-2.03799"><ele>5</ele></trkpt>      <trkpt lat="48.45456" lon="-2.03781"><ele>5</ele></trkpt>      <trkpt lat="48.45435" lon="-2.03614"><ele>5</ele></trkpt>      <trkpt lat="48.45417" lon="-2.03568"><ele>5</ele></trkpt>      <trkpt lat="48.45375" lon="-2.03506"><ele>5</ele></trkpt>      <trkpt lat="48.45326" lon="-2.03474"><ele>6</ele></trkpt>      <trkpt lat="48.45275" lon="-2.03460"><ele>6</ele></trkpt>      <trkpt lat="48.45231" lon="-2.03474"><ele>6</ele></trkpt>      <trkpt lat="48.45178" lon="-2.03533"><ele>6</ele></trkpt>      <trkpt lat="48.45149" lon="-2.03628"><ele>6</ele></trkpt>      <trkpt lat="48.45128" lon="-2.03755"><ele>6</ele></trkpt>      <trkpt lat="48.45036" lon="-2.03970"><ele>6</ele></trkpt>      <trkpt lat="48.44986" lon="-2.04037"><ele>6</ele></trkpt>      <trkpt lat="48.44963" lon="-2.04038"><ele>6</ele></trkpt>      <trkpt lat="48.44947" lon="-2.04025"><ele>6</ele></trkpt>      <trkpt lat="48.44887" lon="-2.03825"><ele>6</ele></trkpt>      <trkpt lat="48.44874" lon="-2.03805"><ele>6</ele></trkpt>      <trkpt lat="48.44827" lon="-2.03776"><ele>6</ele></trkpt>      <trkpt lat="48.44767" lon="-2.03796"><ele>6</ele></trkpt>      <trkpt lat="48.44613" lon="-2.03912"><ele>6</ele></trkpt>      <trkpt lat="48.44534" lon="-2.03944"><ele>7</ele></trkpt>      <trkpt lat="48.44497" lon="-2.03944"><ele>7</ele></trkpt>      <trkpt lat="48.44478" lon="-2.03938"><ele>7</ele></trkpt>      <trkpt lat="48.44441" lon="-2.03920"><ele>7</ele></trkpt>      <trkpt lat="48.44402" lon="-2.03879"><ele>7</ele></trkpt>      <trkpt lat="48.44288" lon="-2.03673"><ele>7</ele></trkpt>      <trkpt lat="48.44259" lon="-2.03650"><ele>7</ele></trkpt>      <trkpt lat="48.44201" lon="-2.03660"><ele>7</ele></trkpt>      <trkpt lat="48.44113" lon="-2.03697"><ele>7</ele></trkpt>      <trkpt lat="48.44138" lon="-2.03732"><ele>7</ele></trkpt>      <trkpt lat="48.44141" lon="-2.03755"><ele>7</ele></trkpt>      <trkpt lat="48.44108" lon="-2.03790"><ele>7</ele></trkpt>      <trkpt lat="48.44099" lon="-2.03788"><ele>7</ele></trkpt>      <trkpt lat="48.44022" lon="-2.03900"><ele>7</ele></trkpt>      <trkpt lat="48.43974" lon="-2.03921"><ele>7</ele></trkpt>      <trkpt lat="48.43881" lon="-2.03917"><ele>8</ele></trkpt>      <trkpt lat="48.43857" lon="-2.03931"><ele>8</ele></trkpt>      <trkpt lat="48.43813" lon="-2.04001"><ele>8</ele></trkpt>      <trkpt lat="48.43789" lon="-2.04015"><ele>8</ele></trkpt>      <trkpt lat="48.43713" lon="-2.04005"><ele>8</ele></trkpt>      <trkpt lat="48.43666" lon="-2.03970"><ele>8</ele></trkpt>      <trkpt lat="48.43582" lon="-2.03876"><ele>8</ele></trkpt>      <trkpt lat="48.43511" lon="-2.03735"><ele>8</ele></trkpt>      <trkpt lat="48.43449" lon="-2.03639"><ele>8</ele></trkpt>      <trkpt lat="48.43412" lon="-2.03599"><ele>8</ele></trkpt>      <trkpt lat="48.43323" lon="-2.03562"><ele>8</ele></trkpt>      <trkpt lat="48.43189" lon="-2.03507"><ele>8</ele></trkpt>      <trkpt lat="48.43048" lon="-2.03519"><ele>8</ele></trkpt>      <trkpt lat="48.42965" lon="-2.03465"><ele>8</ele></trkpt>      <trkpt lat="48.42850" lon="-2.03356"><ele>8</ele></trkpt>      <trkpt lat="48.42785" lon="-2.03257"><ele>8</ele></trkpt>      <trkpt lat="48.42706" lon="-2.03108"><ele>9</ele></trkpt>      <trkpt lat="48.42691" lon="-2.03046"><ele>9</ele></trkpt>      <trkpt lat="48.42681" lon="-2.02954"><ele>9</ele></trkpt>      <trkpt lat="48.42702" lon="-2.02802"><ele>9</ele></trkpt>      <trkpt lat="48.42716" lon="-2.02728"><ele>9</ele></trkpt>      <trkpt lat="48.42775" lon="-2.02368"><ele>9</ele></trkpt>      <trkpt lat="48.42780" lon="-2.02335"><ele>9</ele></trkpt>      <trkpt lat="48.42909" lon="-2.01548"><ele>9</ele></trkpt>      <trkpt lat="48.42911" lon="-2.01474"><ele>9</ele></trkpt>      <trkpt lat="48.42883" lon="-2.01395"><ele>9</ele></trkpt>      <trkpt lat="48.42865" lon="-2.01372"><ele>9</ele></trkpt>      <trkpt lat="48.42822" lon="-2.01359"><ele>9</ele></trkpt>      <trkpt lat="48.42675" lon="-2.01395"><ele>9</ele></trkpt>      <trkpt lat="48.42596" lon="-2.01479"><ele>9</ele></trkpt>      <trkpt lat="48.42560" lon="-2.01523"><ele>9</ele></trkpt>      <trkpt lat="48.42526" lon="-2.01544"><ele>10</ele></trkpt>      <trkpt lat="48.42348" lon="-2.01590"><ele>10</ele></trkpt>      <trkpt lat="48.42325" lon="-2.01584"><ele>10</ele></trkpt>      <trkpt lat="48.42169" lon="-2.01468"><ele>10</ele></trkpt>      <trkpt lat="48.42074" lon="-2.01502"><ele>10</ele></trkpt>      <trkpt lat="48.41997" lon="-2.01487"><ele>10</ele></trkpt>      <trkpt lat="48.41948" lon="-2.01458"><ele>10</ele></trkpt>      <trkpt lat="48.41817" lon="-2.01451"><ele>12</ele></trkpt>      <trkpt lat="48.41750" lon="-2.01437"><ele>13</ele></trkpt>      <trkpt lat="48.41680" lon="-2.01403"><ele>11</ele></trkpt>      <trkpt lat="48.41562" lon="-2.01414"><ele>11</ele></trkpt>      <trkpt lat="48.41514" lon="-2.01410"><ele>11</ele></trkpt>      <trkpt lat="48.41425" lon="-2.01385"><ele>10</ele></trkpt>      <trkpt lat="48.41291" lon="-2.01268"><ele>10</ele></trkpt>      <trkpt lat="48.41192" lon="-2.01257"><ele>10</ele></trkpt>      <trkpt lat="48.41019" lon="-2.01218"><ele>10</ele></trkpt>      <trkpt lat="48.40991" lon="-2.01185"><ele>10</ele></trkpt>      <trkpt lat="48.40956" lon="-2.01072"><ele>10</ele></trkpt>      <trkpt lat="48.40915" lon="-2.01022"><ele>10</ele></trkpt>      <trkpt lat="48.40841" lon="-2.00995"><ele>10</ele></trkpt>      <trkpt lat="48.40757" lon="-2.00931"><ele>10</ele></trkpt>      <trkpt lat="48.40675" lon="-2.00892"><ele>10</ele></trkpt>      <trkpt lat="48.40256" lon="-2.00703"><ele>11</ele></trkpt>      <trkpt lat="48.40195" lon="-2.00678"><ele>11</ele></trkpt>      <trkpt lat="48.40150" lon="-2.00987"><ele>15</ele></trkpt>      <trkpt lat="48.40119" lon="-2.01001"><ele>15</ele></trkpt>      <trkpt lat="48.40076" lon="-2.00995"><ele>17</ele></trkpt>      <trkpt lat="48.40040" lon="-2.00968"><ele>18</ele></trkpt>      <trkpt lat="48.39983" lon="-2.00891"><ele>19</ele></trkpt>      <trkpt lat="48.39905" lon="-2.00847"><ele>20</ele></trkpt>      <trkpt lat="48.39695" lon="-2.00700"><ele>21</ele></trkpt>      <trkpt lat="48.39550" lon="-2.00660"><ele>22</ele></trkpt>      <trkpt lat="48.39467" lon="-2.00580"><ele>22</ele></trkpt>      <trkpt lat="48.39293" lon="-2.00605"><ele>22</ele></trkpt>      <trkpt lat="48.39169" lon="-2.00571"><ele>23</ele></trkpt>      <trkpt lat="48.39041" lon="-2.00518"><ele>23</ele></trkpt>      <trkpt lat="48.38988" lon="-2.00509"><ele>23</ele></trkpt>      <trkpt lat="48.38795" lon="-2.00535"><ele>24</ele></trkpt>      <trkpt lat="48.38735" lon="-2.00527"><ele>24</ele></trkpt>      <trkpt lat="48.38660" lon="-2.00491"><ele>23</ele></trkpt>      <trkpt lat="48.38551" lon="-2.00468"><ele>18</ele></trkpt>      <trkpt lat="48.38480" lon="-2.00469"><ele>18</ele></trkpt>      <trkpt lat="48.38371" lon="-2.00510"><ele>18</ele></trkpt>      <trkpt lat="48.38283" lon="-2.00529"><ele>18</ele></trkpt>      <trkpt lat="48.38260" lon="-2.00468"><ele>17</ele></trkpt>      <trkpt lat="48.38231" lon="-2.00425"><ele>18</ele></trkpt>      <trkpt lat="48.38205" lon="-2.00333"><ele>18</ele></trkpt>      <trkpt lat="48.38143" lon="-2.00337"><ele>18</ele></trkpt>      <trkpt lat="48.38048" lon="-2.00298"><ele>18</ele></trkpt>      <trkpt lat="48.37972" lon="-2.00287"><ele>19</ele></trkpt>      <trkpt lat="48.37950" lon="-2.00270"><ele>19</ele></trkpt>      <trkpt lat="48.37872" lon="-2.00431"><ele>19</ele></trkpt>      <trkpt lat="48.37793" lon="-2.00420"><ele>20</ele></trkpt>      <trkpt lat="48.37641" lon="-2.00476"><ele>20</ele></trkpt>      <trkpt lat="48.37612" lon="-2.00503"><ele>20</ele></trkpt>      <trkpt lat="48.37595" lon="-2.00545"><ele>20</ele></trkpt>      <trkpt lat="48.37559" lon="-2.00578"><ele>21</ele></trkpt>      <trkpt lat="48.37484" lon="-2.00603"><ele>21</ele></trkpt>      <trkpt lat="48.37432" lon="-2.00639"><ele>21</ele></trkpt>      <trkpt lat="48.37410" lon="-2.00725"><ele>21</ele></trkpt>      <trkpt lat="48.37321" lon="-2.00850"><ele>22</ele></trkpt>      <trkpt lat="48.37250" lon="-2.00791"><ele>22</ele></trkpt>      <trkpt lat="48.37179" lon="-2.00757"><ele>22</ele></trkpt>      <trkpt lat="48.37173" lon="-2.00763"><ele>23</ele></trkpt>      <trkpt lat="48.37124" lon="-2.01001"><ele>23</ele></trkpt>      <trkpt lat="48.37021" lon="-2.01370"><ele>23</ele></trkpt>      <trkpt lat="48.36946" lon="-2.01581"><ele>23</ele></trkpt>      <trkpt lat="48.36955" lon="-2.01699"><ele>24</ele></trkpt>      <trkpt lat="48.36888" lon="-2.01884"><ele>24</ele></trkpt>      <trkpt lat="48.36881" lon="-2.01983"><ele>24</ele></trkpt>      <trkpt lat="48.36882" lon="-2.02027"><ele>24</ele></trkpt>      <trkpt lat="48.36934" lon="-2.02215"><ele>25</ele></trkpt>      <trkpt lat="48.36183" lon="-2.02077"><ele>25</ele></trkpt>      <trkpt lat="48.36003" lon="-2.02029"><ele>25</ele></trkpt>      <trkpt lat="48.35939" lon="-2.02000"><ele>26</ele></trkpt>      <trkpt lat="48.35733" lon="-2.01862"><ele>26</ele></trkpt>      <trkpt lat="48.34849" lon="-2.01225"><ele>26</ele></trkpt>      <trkpt lat="48.33772" lon="-2.00463"><ele>26</ele></trkpt>      <trkpt lat="48.33612" lon="-2.00293"><ele>27</ele></trkpt>      <trkpt lat="48.33471" lon="-2.00110"><ele>30</ele></trkpt>      <trkpt lat="48.33392" lon="-1.99977"><ele>32</ele></trkpt>      <trkpt lat="48.33268" lon="-1.99796"><ele>34</ele></trkpt>      <trkpt lat="48.33188" lon="-1.99727"><ele>36</ele></trkpt>      <trkpt lat="48.33146" lon="-1.99707"><ele>36</ele></trkpt>      <trkpt lat="48.33067" lon="-1.99691"><ele>38</ele></trkpt>      <trkpt lat="48.32841" lon="-1.99737"><ele>44</ele></trkpt>      <trkpt lat="48.32762" lon="-1.99766"><ele>46</ele></trkpt>      <trkpt lat="48.32696" lon="-1.99815"><ele>48</ele></trkpt>      <trkpt lat="48.32621" lon="-1.99909"><ele>51</ele></trkpt>      <trkpt lat="48.32519" lon="-2.00123"><ele>55</ele></trkpt>      <trkpt lat="48.32377" lon="-2.00508"><ele>55</ele></trkpt>      <trkpt lat="48.32327" lon="-2.00582"><ele>55</ele></trkpt>      <trkpt lat="48.32279" lon="-2.00630"><ele>55</ele></trkpt>      <trkpt lat="48.32208" lon="-2.00665"><ele>55</ele></trkpt>      <trkpt lat="48.32144" lon="-2.00669"><ele>55</ele></trkpt>      <trkpt lat="48.32085" lon="-2.00655"><ele>55</ele></trkpt>      <trkpt lat="48.31890" lon="-2.00519"><ele>56</ele></trkpt>      <trkpt lat="48.31804" lon="-2.00501"><ele>56</ele></trkpt>      <trkpt lat="48.31758" lon="-2.00512"><ele>56</ele></trkpt>      <trkpt lat="48.31703" lon="-2.00546"><ele>56</ele></trkpt>      <trkpt lat="48.31582" lon="-2.00718"><ele>56</ele></trkpt>      <trkpt lat="48.31522" lon="-2.00786"><ele>56</ele></trkpt>      <trkpt lat="48.31469" lon="-2.00831"><ele>56</ele></trkpt>      <trkpt lat="48.31376" lon="-2.00863"><ele>57</ele></trkpt>      <trkpt lat="48.31291" lon="-2.00861"><ele>57</ele></trkpt>      <trkpt lat="48.31195" lon="-2.00840"><ele>57</ele></trkpt>      <trkpt lat="48.31115" lon="-2.00843"><ele>57</ele></trkpt>      <trkpt lat="48.31065" lon="-2.00869"><ele>57</ele></trkpt>      <trkpt lat="48.30880" lon="-2.01068"><ele>57</ele></trkpt>      <trkpt lat="48.30798" lon="-2.01123"><ele>58</ele></trkpt>      <trkpt lat="48.30686" lon="-2.01146"><ele>58</ele></trkpt>      <trkpt lat="48.30644" lon="-2.01180"><ele>58</ele></trkpt>      <trkpt lat="48.30549" lon="-2.01196"><ele>58</ele></trkpt>      <trkpt lat="48.30533" lon="-2.01182"><ele>58</ele></trkpt>      <trkpt lat="48.30417" lon="-2.01219"><ele>58</ele></trkpt>      <trkpt lat="48.30330" lon="-2.01302"><ele>58</ele></trkpt>      <trkpt lat="48.30297" lon="-2.01363"><ele>59</ele></trkpt>      <trkpt lat="48.30267" lon="-2.01442"><ele>59</ele></trkpt>      <trkpt lat="48.30253" lon="-2.01481"><ele>59</ele></trkpt>      <trkpt lat="48.30087" lon="-2.01937"><ele>59</ele></trkpt>      <trkpt lat="48.30013" lon="-2.02032"><ele>59</ele></trkpt>      <trkpt lat="48.29943" lon="-2.02085"><ele>59</ele></trkpt>      <trkpt lat="48.29774" lon="-2.02163"><ele>59</ele></trkpt>      <trkpt lat="48.29596" lon="-2.02384"><ele>65</ele></trkpt>      <trkpt lat="48.29520" lon="-2.02458"><ele>67</ele></trkpt>      <trkpt lat="48.29412" lon="-2.02491"><ele>71</ele></trkpt>      <trkpt lat="48.29287" lon="-2.02429"><ele>73</ele></trkpt>      <trkpt lat="48.29161" lon="-2.02338"><ele>75</ele></trkpt>      <trkpt lat="48.28983" lon="-2.02284"><ele>78</ele></trkpt>      <trkpt lat="48.28865" lon="-2.02266"><ele>80</ele></trkpt>      <trkpt lat="48.28766" lon="-2.02277"><ele>80</ele></trkpt>      <trkpt lat="48.28769" lon="-2.02265"><ele>81</ele></trkpt>      <trkpt lat="48.28618" lon="-2.02283"><ele>82</ele></trkpt>      <trkpt lat="48.28568" lon="-2.02299"><ele>83</ele></trkpt>      <trkpt lat="48.28463" lon="-2.02385"><ele>84</ele></trkpt>      <trkpt lat="48.28289" lon="-2.02507"><ele>86</ele></trkpt>      <trkpt lat="48.28207" lon="-2.02586"><ele>87</ele></trkpt>      <trkpt lat="48.28094" lon="-2.02650"><ele>91</ele></trkpt>      <trkpt lat="48.28081" lon="-2.02671"><ele>92</ele></trkpt>      <trkpt lat="48.28071" lon="-2.02742"><ele>93</ele></trkpt>      <trkpt lat="48.28052" lon="-2.02762"><ele>93</ele></trkpt>      <trkpt lat="48.27930" lon="-2.02732"><ele>96</ele></trkpt>      <trkpt lat="48.27768" lon="-2.02631"><ele>97</ele></trkpt>      <trkpt lat="48.27614" lon="-2.02467"><ele>94</ele></trkpt>      <trkpt lat="48.27510" lon="-2.02436"><ele>92</ele></trkpt>      <trkpt lat="48.27418" lon="-2.02422"><ele>91</ele></trkpt>      <trkpt lat="48.27320" lon="-2.02349"><ele>89</ele></trkpt>      <trkpt lat="48.27175" lon="-2.02341"><ele>88</ele></trkpt>      <trkpt lat="48.26993" lon="-2.02434"><ele>87</ele></trkpt>      <trkpt lat="48.26946" lon="-2.02443"><ele>87</ele></trkpt>      <trkpt lat="48.26844" lon="-2.02426"><ele>85</ele></trkpt>      <trkpt lat="48.26728" lon="-2.02399"><ele>80</ele></trkpt>      <trkpt lat="48.26532" lon="-2.02314"><ele>67</ele></trkpt>      <trkpt lat="48.26413" lon="-2.02304"><ele>67</ele></trkpt>      <trkpt lat="48.26373" lon="-2.02331"><ele>69</ele></trkpt>      <trkpt lat="48.26352" lon="-2.02379"><ele>72</ele></trkpt>      <trkpt lat="48.26332" lon="-2.02522"><ele>79</ele></trkpt>      <trkpt lat="48.26323" lon="-2.02742"><ele>88</ele></trkpt>      <trkpt lat="48.26316" lon="-2.02872"><ele>89</ele></trkpt>      <trkpt lat="48.26293" lon="-2.02972"><ele>91</ele></trkpt>      <trkpt lat="48.26235" lon="-2.03101"><ele>94</ele></trkpt>      <trkpt lat="48.26148" lon="-2.03199"><ele>97</ele></trkpt>      <trkpt lat="48.26062" lon="-2.03325"><ele>99</ele></trkpt>      <trkpt lat="48.26027" lon="-2.03336"><ele>100</ele></trkpt>      <trkpt lat="48.25925" lon="-2.03288"><ele>100</ele></trkpt>      <trkpt lat="48.25758" lon="-2.03271"><ele>100</ele></trkpt>      <trkpt lat="48.25715" lon="-2.03294"><ele>100</ele></trkpt>      <trkpt lat="48.25679" lon="-2.03341"><ele>99</ele></trkpt>      <trkpt lat="48.26012" lon="-2.04423"><ele>86</ele></trkpt>      <trkpt lat="48.26026" lon="-2.04511"><ele>84</ele></trkpt>      <trkpt lat="48.26038" lon="-2.04833"><ele>76</ele></trkpt>      <trkpt lat="48.26048" lon="-2.05035"><ele>68</ele></trkpt>      <trkpt lat="48.26056" lon="-2.05087"><ele>66</ele></trkpt>      <trkpt lat="48.26401" lon="-2.05917"><ele>87</ele></trkpt>      <trkpt lat="48.26428" lon="-2.06004"><ele>87</ele></trkpt>      <trkpt lat="48.26477" lon="-2.06345"><ele>85</ele></trkpt>      <trkpt lat="48.26474" lon="-2.06379"><ele>86</ele></trkpt>      <trkpt lat="48.26439" lon="-2.06544"><ele>89</ele></trkpt>      <trkpt lat="48.26421" lon="-2.06581"><ele>89</ele></trkpt>      <trkpt lat="48.26308" lon="-2.06739"><ele>93</ele></trkpt>      <trkpt lat="48.25861" lon="-2.07035"><ele>102</ele></trkpt>      <trkpt lat="48.25595" lon="-2.07104"><ele>103</ele></trkpt>      <trkpt lat="48.25458" lon="-2.07140"><ele>103</ele></trkpt>      <trkpt lat="48.25233" lon="-2.07362"><ele>104</ele></trkpt>      <trkpt lat="48.25101" lon="-2.07373"><ele>102</ele></trkpt>      <trkpt lat="48.25069" lon="-2.07386"><ele>101</ele></trkpt>      <trkpt lat="48.24932" lon="-2.07522"><ele>98</ele></trkpt>      <trkpt lat="48.24911" lon="-2.07555"><ele>98</ele></trkpt>      <trkpt lat="48.24840" lon="-2.07753"><ele>101</ele></trkpt>      <trkpt lat="48.24783" lon="-2.07834"><ele>103</ele></trkpt>      <trkpt lat="48.24653" lon="-2.07952"><ele>104</ele></trkpt>      <trkpt lat="48.24500" lon="-2.08011"><ele>106</ele></trkpt>      <trkpt lat="48.24404" lon="-2.08187"><ele>108</ele></trkpt>      <trkpt lat="48.24366" lon="-2.08289"><ele>106</ele></trkpt>      <trkpt lat="48.24340" lon="-2.08307"><ele>105</ele></trkpt>      <trkpt lat="48.24270" lon="-2.08321"><ele>101</ele></trkpt>      <trkpt lat="48.24217" lon="-2.08319"><ele>99</ele></trkpt>      <trkpt lat="48.24100" lon="-2.08498"><ele>98</ele></trkpt>      <trkpt lat="48.24040" lon="-2.08576"><ele>99</ele></trkpt>      <trkpt lat="48.23661" lon="-2.08973"><ele>108</ele></trkpt>      <trkpt lat="48.23644" lon="-2.09040"><ele>109</ele></trkpt>      <trkpt lat="48.23632" lon="-2.09359"><ele>106</ele></trkpt>      <trkpt lat="48.23613" lon="-2.09405"><ele>106</ele></trkpt>      <trkpt lat="48.23534" lon="-2.09499"><ele>106</ele></trkpt>      <trkpt lat="48.23502" lon="-2.09538"><ele>106</ele></trkpt>      <trkpt lat="48.23604" lon="-2.09732"><ele>108</ele></trkpt>      <trkpt lat="48.23649" lon="-2.09838"><ele>109</ele></trkpt>      <trkpt lat="48.23655" lon="-2.09869"><ele>110</ele></trkpt>      <trkpt lat="48.23676" lon="-2.10426"><ele>111</ele></trkpt>      <trkpt lat="48.23692" lon="-2.10472"><ele>111</ele></trkpt>      <trkpt lat="48.23796" lon="-2.10670"><ele>110</ele></trkpt>      <trkpt lat="48.23705" lon="-2.10794"><ele>109</ele></trkpt>      <trkpt lat="48.23686" lon="-2.10844"><ele>109</ele></trkpt>      <trkpt lat="48.23649" lon="-2.10896"><ele>108</ele></trkpt>      <trkpt lat="48.23601" lon="-2.10921"><ele>108</ele></trkpt>      <trkpt lat="48.23515" lon="-2.10922"><ele>108</ele></trkpt>      <trkpt lat="48.23454" lon="-2.10976"><ele>108</ele></trkpt>      <trkpt lat="48.23338" lon="-2.11142"><ele>106</ele></trkpt>      <trkpt lat="48.23325" lon="-2.11178"><ele>106</ele></trkpt>      <trkpt lat="48.23319" lon="-2.11457"><ele>105</ele></trkpt>      <trkpt lat="48.23271" lon="-2.11635"><ele>104</ele></trkpt>      <trkpt lat="48.23178" lon="-2.12091"><ele>102</ele></trkpt>      <trkpt lat="48.23163" lon="-2.12122"><ele>102</ele></trkpt>      <trkpt lat="48.23133" lon="-2.12153"><ele>103</ele></trkpt>      <trkpt lat="48.23176" lon="-2.12282"><ele>98</ele></trkpt>      <trkpt lat="48.23171" lon="-2.12294"><ele>98</ele></trkpt>      <trkpt lat="48.23094" lon="-2.12349"><ele>100</ele></trkpt>      <trkpt lat="48.23035" lon="-2.12368"><ele>102</ele></trkpt>      <trkpt lat="48.22944" lon="-2.12457"><ele>104</ele></trkpt>      <trkpt lat="48.22864" lon="-2.12583"><ele>103</ele></trkpt>      <trkpt lat="48.22803" lon="-2.12644"><ele>102</ele></trkpt>      <trkpt lat="48.22753" lon="-2.12740"><ele>102</ele></trkpt>      <trkpt lat="48.22723" lon="-2.12836"><ele>102</ele></trkpt>      <trkpt lat="48.22699" lon="-2.12985"><ele>102</ele></trkpt>      <trkpt lat="48.22662" lon="-2.13077"><ele>102</ele></trkpt>      <trkpt lat="48.22634" lon="-2.13101"><ele>102</ele></trkpt>      <trkpt lat="48.22596" lon="-2.13104"><ele>102</ele></trkpt>      <trkpt lat="48.22547" lon="-2.13196"><ele>102</ele></trkpt>      <trkpt lat="48.22540" lon="-2.13225"><ele>102</ele></trkpt>      <trkpt lat="48.22552" lon="-2.13266"><ele>102</ele></trkpt>      <trkpt lat="48.22558" lon="-2.13318"><ele>102</ele></trkpt>      <trkpt lat="48.22534" lon="-2.13442"><ele>102</ele></trkpt>      <trkpt lat="48.22446" lon="-2.13623"><ele>103</ele></trkpt>      <trkpt lat="48.22444" lon="-2.13640"><ele>103</ele></trkpt>      <trkpt lat="48.21816" lon="-2.13505"><ele>82</ele></trkpt>      <trkpt lat="48.21789" lon="-2.13488"><ele>82</ele></trkpt>      <trkpt lat="48.21562" lon="-2.13244"><ele>78</ele></trkpt>      <trkpt lat="48.21493" lon="-2.13172"><ele>83</ele></trkpt>      <trkpt lat="48.21385" lon="-2.13097"><ele>90</ele></trkpt>      <trkpt lat="48.21277" lon="-2.13081"><ele>93</ele></trkpt>      <trkpt lat="48.21210" lon="-2.13096"><ele>94</ele></trkpt>      <trkpt lat="48.21152" lon="-2.13195"><ele>95</ele></trkpt>      <trkpt lat="48.21056" lon="-2.13296"><ele>96</ele></trkpt>      <trkpt lat="48.20929" lon="-2.13401"><ele>97</ele></trkpt>      <trkpt lat="48.20890" lon="-2.13457"><ele>97</ele></trkpt>      <trkpt lat="48.20863" lon="-2.13544"><ele>97</ele></trkpt>      <trkpt lat="48.20866" lon="-2.13683"><ele>95</ele></trkpt>      <trkpt lat="48.20846" lon="-2.13793"><ele>94</ele></trkpt>      <trkpt lat="48.20817" lon="-2.13840"><ele>95</ele></trkpt>      <trkpt lat="48.20705" lon="-2.13945"><ele>98</ele></trkpt>      <trkpt lat="48.20678" lon="-2.14005"><ele>99</ele></trkpt>      <trkpt lat="48.20608" lon="-2.14287"><ele>95</ele></trkpt>      <trkpt lat="48.20594" lon="-2.14372"><ele>92</ele></trkpt>      <trkpt lat="48.20598" lon="-2.14504"><ele>88</ele></trkpt>      <trkpt lat="48.20592" lon="-2.14544"><ele>88</ele></trkpt>      <trkpt lat="48.20487" lon="-2.14779"><ele>92</ele></trkpt>      <trkpt lat="48.20400" lon="-2.14868"><ele>95</ele></trkpt>      <trkpt lat="48.20317" lon="-2.14987"><ele>98</ele></trkpt>      <trkpt lat="48.20144" lon="-2.15171"><ele>103</ele></trkpt>      <trkpt lat="48.20012" lon="-2.15264"><ele>105</ele></trkpt>      <trkpt lat="48.19732" lon="-2.15548"><ele>109</ele></trkpt>      <trkpt lat="48.19534" lon="-2.15723"><ele>111</ele></trkpt>      <trkpt lat="48.19345" lon="-2.15846"><ele>113</ele></trkpt>      <trkpt lat="48.19312" lon="-2.15907"><ele>113</ele></trkpt>      <trkpt lat="48.19277" lon="-2.16076"><ele>114</ele></trkpt>      <trkpt lat="48.19137" lon="-2.16365"><ele>115</ele></trkpt>      <trkpt lat="48.19104" lon="-2.16401"><ele>115</ele></trkpt>      <trkpt lat="48.19061" lon="-2.16768"><ele>112</ele></trkpt>      <trkpt lat="48.19047" lon="-2.16840"><ele>112</ele></trkpt>      <trkpt lat="48.18991" lon="-2.17036"><ele>110</ele></trkpt>      <trkpt lat="48.18991" lon="-2.17064"><ele>110</ele></trkpt>      <trkpt lat="48.18982" lon="-2.17082"><ele>110</ele></trkpt>      <trkpt lat="48.18957" lon="-2.17085"><ele>111</ele></trkpt>      <trkpt lat="48.18922" lon="-2.17131"><ele>111</ele></trkpt>      <trkpt lat="48.18907" lon="-2.17181"><ele>112</ele></trkpt>      <trkpt lat="48.18849" lon="-2.17307"><ele>112</ele></trkpt>      <trkpt lat="48.18621" lon="-2.17626"><ele>113</ele></trkpt>      <trkpt lat="48.18614" lon="-2.17646"><ele>113</ele></trkpt>      <trkpt lat="48.18589" lon="-2.17690"><ele>113</ele></trkpt>      <trkpt lat="48.18571" lon="-2.17789"><ele>112</ele></trkpt>      <trkpt lat="48.18562" lon="-2.18044"><ele>112</ele></trkpt>      <trkpt lat="48.18547" lon="-2.18154"><ele>112</ele></trkpt>      <trkpt lat="48.18502" lon="-2.18342"><ele>111</ele></trkpt>      <trkpt lat="48.18484" lon="-2.18499"><ele>109</ele></trkpt>      <trkpt lat="48.18483" lon="-2.18593"><ele>107</ele></trkpt>      <trkpt lat="48.18223" lon="-2.18437"><ele>101</ele></trkpt>      <trkpt lat="48.18049" lon="-2.18366"><ele>99</ele></trkpt>      <trkpt lat="48.17979" lon="-2.18314"><ele>97</ele></trkpt>      <trkpt lat="48.17864" lon="-2.18205"><ele>93</ele></trkpt>      <trkpt lat="48.17832" lon="-2.18151"><ele>92</ele></trkpt>      <trkpt lat="48.17810" lon="-2.18083"><ele>90</ele></trkpt>      <trkpt lat="48.17788" lon="-2.18002"><ele>89</ele></trkpt>      <trkpt lat="48.17780" lon="-2.17928"><ele>88</ele></trkpt>      <trkpt lat="48.17724" lon="-2.17910"><ele>87</ele></trkpt>      <trkpt lat="48.17668" lon="-2.17875"><ele>84</ele></trkpt>      <trkpt lat="48.17652" lon="-2.17880"><ele>83</ele></trkpt>      <trkpt lat="48.17638" lon="-2.17872"><ele>82</ele></trkpt>      <trkpt lat="48.17626" lon="-2.17879"><ele>81</ele></trkpt>      <trkpt lat="48.17587" lon="-2.17858"><ele>80</ele></trkpt>      <trkpt lat="48.17577" lon="-2.17842"><ele>80</ele></trkpt>      <trkpt lat="48.17560" lon="-2.17835"><ele>80</ele></trkpt>      <trkpt lat="48.17427" lon="-2.18154"><ele>84</ele></trkpt>      <trkpt lat="48.17396" lon="-2.18179"><ele>84</ele></trkpt>      <trkpt lat="48.17017" lon="-2.18240"><ele>79</ele></trkpt>      <trkpt lat="48.16812" lon="-2.18239"><ele>82</ele></trkpt>      <trkpt lat="48.16792" lon="-2.18245"><ele>83</ele></trkpt>      <trkpt lat="48.16759" lon="-2.18293"><ele>84</ele></trkpt>      <trkpt lat="48.16734" lon="-2.18359"><ele>85</ele></trkpt>      <trkpt lat="48.16596" lon="-2.18847"><ele>88</ele></trkpt>      <trkpt lat="48.16413" lon="-2.18956"><ele>90</ele></trkpt>      <trkpt lat="48.16312" lon="-2.19066"><ele>90</ele></trkpt>      <trkpt lat="48.16279" lon="-2.19149"><ele>90</ele></trkpt>      <trkpt lat="48.16211" lon="-2.19234"><ele>89</ele></trkpt>      <trkpt lat="48.16186" lon="-2.19247"><ele>89</ele></trkpt>      <trkpt lat="48.15920" lon="-2.19217"><ele>91</ele></trkpt>      <trkpt lat="48.15897" lon="-2.19210"><ele>92</ele></trkpt>      <trkpt lat="48.15866" lon="-2.19180"><ele>93</ele></trkpt>      <trkpt lat="48.15856" lon="-2.19154"><ele>93</ele></trkpt>      <trkpt lat="48.15852" lon="-2.19115"><ele>93</ele></trkpt>      <trkpt lat="48.15884" lon="-2.18926"><ele>92</ele></trkpt>      <trkpt lat="48.15884" lon="-2.18865"><ele>91</ele></trkpt>      <trkpt lat="48.15790" lon="-2.18665"><ele>90</ele></trkpt>      <trkpt lat="48.15775" lon="-2.18627"><ele>90</ele></trkpt>      <trkpt lat="48.15771" lon="-2.18559"><ele>90</ele></trkpt>      <trkpt lat="48.15761" lon="-2.18517"><ele>90</ele></trkpt>      <trkpt lat="48.15709" lon="-2.18391"><ele>92</ele></trkpt>      <trkpt lat="48.15701" lon="-2.18383"><ele>92</ele></trkpt>      <trkpt lat="48.15640" lon="-2.18476"><ele>93</ele></trkpt>      <trkpt lat="48.15563" lon="-2.18539"><ele>93</ele></trkpt>      <trkpt lat="48.15508" lon="-2.18625"><ele>94</ele></trkpt>      <trkpt lat="48.15478" lon="-2.18657"><ele>94</ele></trkpt>      <trkpt lat="48.15406" lon="-2.18706"><ele>94</ele></trkpt>      <trkpt lat="48.15386" lon="-2.18738"><ele>94</ele></trkpt>      <trkpt lat="48.15353" lon="-2.18863"><ele>94</ele></trkpt>      <trkpt lat="48.15333" lon="-2.18893"><ele>94</ele></trkpt>      <trkpt lat="48.15281" lon="-2.18939"><ele>94</ele></trkpt>      <trkpt lat="48.15190" lon="-2.18975"><ele>92</ele></trkpt>      <trkpt lat="48.15063" lon="-2.19093"><ele>91</ele></trkpt>      <trkpt lat="48.15037" lon="-2.19135"><ele>90</ele></trkpt>      <trkpt lat="48.14964" lon="-2.19359"><ele>89</ele></trkpt>      <trkpt lat="48.14944" lon="-2.19391"><ele>88</ele></trkpt>      <trkpt lat="48.14867" lon="-2.19459"><ele>87</ele></trkpt>      <trkpt lat="48.14833" lon="-2.19502"><ele>87</ele></trkpt>      <trkpt lat="48.14775" lon="-2.19609"><ele>88</ele></trkpt>      <trkpt lat="48.14712" lon="-2.19935"><ele>90</ele></trkpt>      <trkpt lat="48.14688" lon="-2.19987"><ele>90</ele></trkpt>      <trkpt lat="48.14474" lon="-2.20250"><ele>92</ele></trkpt>      <trkpt lat="48.14426" lon="-2.20327"><ele>92</ele></trkpt>      <trkpt lat="48.14408" lon="-2.20381"><ele>91</ele></trkpt>      <trkpt lat="48.14295" lon="-2.20808"><ele>90</ele></trkpt>      <trkpt lat="48.14291" lon="-2.20877"><ele>89</ele></trkpt>      <trkpt lat="48.14167" lon="-2.20848"><ele>87</ele></trkpt>      <trkpt lat="48.14138" lon="-2.20886"><ele>87</ele></trkpt>      <trkpt lat="48.14117" lon="-2.20950"><ele>87</ele></trkpt>      <trkpt lat="48.14073" lon="-2.21079"><ele>88</ele></trkpt>      <trkpt lat="48.14026" lon="-2.21171"><ele>88</ele></trkpt>      <trkpt lat="48.13763" lon="-2.21504"><ele>87</ele></trkpt>      <trkpt lat="48.13745" lon="-2.21558"><ele>87</ele></trkpt>      <trkpt lat="48.13746" lon="-2.21702"><ele>89</ele></trkpt>      <trkpt lat="48.13733" lon="-2.21758"><ele>89</ele></trkpt>      <trkpt lat="48.13566" lon="-2.21878"><ele>85</ele></trkpt>      <trkpt lat="48.13531" lon="-2.21997"><ele>85</ele></trkpt>      <trkpt lat="48.13504" lon="-2.22108"><ele>84</ele></trkpt>      <trkpt lat="48.13285" lon="-2.22182"><ele>83</ele></trkpt>      <trkpt lat="48.13152" lon="-2.22188"><ele>79</ele></trkpt>      <trkpt lat="48.13193" lon="-2.22366"><ele>74</ele></trkpt>      <trkpt lat="48.13183" lon="-2.22399"><ele>74</ele></trkpt>      <trkpt lat="48.13055" lon="-2.22546"><ele>61</ele></trkpt>      <trkpt lat="48.12998" lon="-2.22610"><ele>60</ele></trkpt>      <trkpt lat="48.12973" lon="-2.22666"><ele>60</ele></trkpt>      <trkpt lat="48.12944" lon="-2.22853"><ele>62</ele></trkpt>      <trkpt lat="48.12935" lon="-2.23078"><ele>67</ele></trkpt>      <trkpt lat="48.12989" lon="-2.23087"><ele>70</ele></trkpt>      <trkpt lat="48.13020" lon="-2.23120"><ele>71</ele></trkpt>      <trkpt lat="48.13038" lon="-2.23253"><ele>72</ele></trkpt>      <trkpt lat="48.13032" lon="-2.23304"><ele>73</ele></trkpt>      <trkpt lat="48.13011" lon="-2.23338"><ele>73</ele></trkpt>      <trkpt lat="48.12976" lon="-2.23353"><ele>73</ele></trkpt>      <trkpt lat="48.12923" lon="-2.23348"><ele>73</ele></trkpt>      <trkpt lat="48.12857" lon="-2.24830"><ele>94</ele></trkpt>      <trkpt lat="48.12779" lon="-2.26456"><ele>94</ele></trkpt>      <trkpt lat="48.12769" lon="-2.26607"><ele>95</ele></trkpt>      <trkpt lat="48.12731" lon="-2.26780"><ele>96</ele></trkpt>      <trkpt lat="48.12674" lon="-2.26922"><ele>97</ele></trkpt>      <trkpt lat="48.12448" lon="-2.27396"><ele>98</ele></trkpt>      <trkpt lat="48.11908" lon="-2.28525"><ele>102</ele></trkpt>      <trkpt lat="48.11888" lon="-2.28612"><ele>102</ele></trkpt>      <trkpt lat="48.11829" lon="-2.28991"><ele>103</ele></trkpt>      <trkpt lat="48.11669" lon="-2.29576"><ele>96</ele></trkpt>      <trkpt lat="48.11642" lon="-2.29836"><ele>89</ele></trkpt>      <trkpt lat="48.11593" lon="-2.30043"><ele>89</ele></trkpt>      <trkpt lat="48.11158" lon="-2.31576"><ele>84</ele></trkpt>      <trkpt lat="48.11028" lon="-2.32033"><ele>78</ele></trkpt>      <trkpt lat="48.11004" lon="-2.32159"><ele>77</ele></trkpt>      <trkpt lat="48.10997" lon="-2.32297"><ele>76</ele></trkpt>      <trkpt lat="48.10995" lon="-2.32767"><ele>72</ele></trkpt>      <trkpt lat="48.10980" lon="-2.32917"><ele>72</ele></trkpt>      <trkpt lat="48.10718" lon="-2.33995"><ele>69</ele></trkpt>      <trkpt lat="48.10691" lon="-2.34056"><ele>69</ele></trkpt>      <trkpt lat="48.10445" lon="-2.34408"><ele>64</ele></trkpt>      <trkpt lat="48.10401" lon="-2.34462"><ele>64</ele></trkpt>      <trkpt lat="48.10147" lon="-2.34719"><ele>65</ele></trkpt>      <trkpt lat="48.10067" lon="-2.34811"><ele>66</ele></trkpt>      <trkpt lat="48.10028" lon="-2.34886"><ele>67</ele></trkpt>      <trkpt lat="48.09790" lon="-2.35439"><ele>81</ele></trkpt>      <trkpt lat="48.09734" lon="-2.35562"><ele>82</ele></trkpt>      <trkpt lat="48.09692" lon="-2.35621"><ele>83</ele></trkpt>      <trkpt lat="48.09190" lon="-2.36026"><ele>89</ele></trkpt>      <trkpt lat="48.09152" lon="-2.36068"><ele>90</ele></trkpt>      <trkpt lat="48.09088" lon="-2.36233"><ele>91</ele></trkpt>      <trkpt lat="48.09033" lon="-2.36384"><ele>91</ele></trkpt>      <trkpt lat="48.09020" lon="-2.36444"><ele>90</ele></trkpt>      <trkpt lat="48.09016" lon="-2.36505"><ele>90</ele></trkpt>      <trkpt lat="48.09007" lon="-2.36631"><ele>92</ele></trkpt>      <trkpt lat="48.08969" lon="-2.36803"><ele>96</ele></trkpt>      <trkpt lat="48.08777" lon="-2.37335"><ele>95</ele></trkpt>      <trkpt lat="48.08573" lon="-2.37953"><ele>92</ele></trkpt>      <trkpt lat="48.08457" lon="-2.38311"><ele>90</ele></trkpt>      <trkpt lat="48.08332" lon="-2.38929"><ele>89</ele></trkpt>      <trkpt lat="48.08292" lon="-2.39064"><ele>89</ele></trkpt>      <trkpt lat="48.08224" lon="-2.39226"><ele>89</ele></trkpt>      <trkpt lat="48.08183" lon="-2.39317"><ele>90</ele></trkpt>      <trkpt lat="48.08166" lon="-2.39383"><ele>90</ele></trkpt>      <trkpt lat="48.08140" lon="-2.39750"><ele>92</ele></trkpt>      <trkpt lat="48.08150" lon="-2.39929"><ele>91</ele></trkpt>      <trkpt lat="48.08134" lon="-2.39988"><ele>91</ele></trkpt>      <trkpt lat="48.08054" lon="-2.40135"><ele>90</ele></trkpt>      <trkpt lat="48.08033" lon="-2.40189"><ele>90</ele></trkpt>      <trkpt lat="48.08033" lon="-2.40419"><ele>86</ele></trkpt>      <trkpt lat="48.08016" lon="-2.40512"><ele>85</ele></trkpt>      <trkpt lat="48.07943" lon="-2.40725"><ele>85</ele></trkpt>      <trkpt lat="48.07839" lon="-2.41028"><ele>86</ele></trkpt>      <trkpt lat="48.07831" lon="-2.41070"><ele>85</ele></trkpt>      <trkpt lat="48.07835" lon="-2.41116"><ele>83</ele></trkpt>      <trkpt lat="48.07859" lon="-2.41195"><ele>82</ele></trkpt>      <trkpt lat="48.07973" lon="-2.41331"><ele>79</ele></trkpt>      <trkpt lat="48.07997" lon="-2.41372"><ele>78</ele></trkpt>      <trkpt lat="48.08017" lon="-2.41431"><ele>75</ele></trkpt>      <trkpt lat="48.08023" lon="-2.41520"><ele>72</ele></trkpt>      <trkpt lat="48.07983" lon="-2.41778"><ele>70</ele></trkpt>      <trkpt lat="48.07893" lon="-2.42950"><ele>91</ele></trkpt>      <trkpt lat="48.07878" lon="-2.43153"><ele>94</ele></trkpt>      <trkpt lat="48.07884" lon="-2.43294"><ele>96</ele></trkpt>      <trkpt lat="48.08092" lon="-2.44109"><ele>96</ele></trkpt>      <trkpt lat="48.08104" lon="-2.44152"><ele>95</ele></trkpt>      <trkpt lat="48.08119" lon="-2.44226"><ele>93</ele></trkpt>      <trkpt lat="48.08120" lon="-2.44274"><ele>92</ele></trkpt>      <trkpt lat="48.08016" lon="-2.45072"><ele>75</ele></trkpt>      <trkpt lat="48.08000" lon="-2.45131"><ele>75</ele></trkpt>      <trkpt lat="48.07885" lon="-2.45442"><ele>77</ele></trkpt>      <trkpt lat="48.07872" lon="-2.45758"><ele>80</ele></trkpt>      <trkpt lat="48.07815" lon="-2.45757"><ele>82</ele></trkpt>      <trkpt lat="48.07694" lon="-2.45806"><ele>88</ele></trkpt>      <trkpt lat="48.07598" lon="-2.45823"><ele>93</ele></trkpt>      <trkpt lat="48.07583" lon="-2.45819"><ele>94</ele></trkpt>      <trkpt lat="48.07559" lon="-2.45787"><ele>94</ele></trkpt>      <trkpt lat="48.07322" lon="-2.45709"><ele>94</ele></trkpt>      <trkpt lat="48.07271" lon="-2.45889"><ele>96</ele></trkpt>      <trkpt lat="48.07194" lon="-2.46054"><ele>98</ele></trkpt>      <trkpt lat="48.07137" lon="-2.46252"><ele>99</ele></trkpt>      <trkpt lat="48.07256" lon="-2.46420"><ele>104</ele></trkpt>      <trkpt lat="48.07114" lon="-2.46643"><ele>97</ele></trkpt>      <trkpt lat="48.07050" lon="-2.46763"><ele>92</ele></trkpt>      <trkpt lat="48.06990" lon="-2.46973"><ele>84</ele></trkpt>      <trkpt lat="48.06899" lon="-2.47130"><ele>89</ele></trkpt>      <trkpt lat="48.06891" lon="-2.47173"><ele>90</ele></trkpt>      <trkpt lat="48.06904" lon="-2.47238"><ele>93</ele></trkpt>      <trkpt lat="48.06848" lon="-2.47300"><ele>93</ele></trkpt>      <trkpt lat="48.06818" lon="-2.47342"><ele>92</ele></trkpt>      <trkpt lat="48.06794" lon="-2.47397"><ele>93</ele></trkpt>      <trkpt lat="48.06736" lon="-2.47466"><ele>94</ele></trkpt>      <trkpt lat="48.06542" lon="-2.47533"><ele>91</ele></trkpt>      <trkpt lat="48.06336" lon="-2.47697"><ele>93</ele></trkpt>      <trkpt lat="48.06309" lon="-2.47709"><ele>93</ele></trkpt>      <trkpt lat="48.06252" lon="-2.47702"><ele>92</ele></trkpt>      <trkpt lat="48.06259" lon="-2.47810"><ele>93</ele></trkpt>      <trkpt lat="48.06244" lon="-2.47853"><ele>93</ele></trkpt>      <trkpt lat="48.05937" lon="-2.48055"><ele>92</ele></trkpt>      <trkpt lat="48.05841" lon="-2.48105"><ele>89</ele></trkpt>      <trkpt lat="48.05791" lon="-2.48144"><ele>86</ele></trkpt>      <trkpt lat="48.05790" lon="-2.48225"><ele>84</ele></trkpt>      <trkpt lat="48.05728" lon="-2.48248"><ele>80</ele></trkpt>      <trkpt lat="48.05738" lon="-2.48298"><ele>78</ele></trkpt>      <trkpt lat="48.05733" lon="-2.48340"><ele>76</ele></trkpt>      <trkpt lat="48.05626" lon="-2.48506"><ele>85</ele></trkpt>      <trkpt lat="48.05610" lon="-2.48640"><ele>87</ele></trkpt>      <trkpt lat="48.05610" lon="-2.48721"><ele>88</ele></trkpt>      <trkpt lat="48.05580" lon="-2.48913"><ele>89</ele></trkpt>      <trkpt lat="48.05582" lon="-2.48944"><ele>89</ele></trkpt>      <trkpt lat="48.05624" lon="-2.49099"><ele>89</ele></trkpt>      <trkpt lat="48.05745" lon="-2.49319"><ele>90</ele></trkpt>      <trkpt lat="48.05745" lon="-2.49358"><ele>91</ele></trkpt>      <trkpt lat="48.05672" lon="-2.49570"><ele>93</ele></trkpt>      <trkpt lat="48.05570" lon="-2.49883"><ele>94</ele></trkpt>      <trkpt lat="48.05552" lon="-2.50099"><ele>95</ele></trkpt>      <trkpt lat="48.05553" lon="-2.50338"><ele>91</ele></trkpt>      <trkpt lat="48.05486" lon="-2.50572"><ele>87</ele></trkpt>      <trkpt lat="48.05475" lon="-2.50639"><ele>86</ele></trkpt>      <trkpt lat="48.05476" lon="-2.50715"><ele>85</ele></trkpt>      <trkpt lat="48.05498" lon="-2.50841"><ele>84</ele></trkpt>      <trkpt lat="48.05493" lon="-2.50887"><ele>84</ele></trkpt>      <trkpt lat="48.05467" lon="-2.51134"><ele>83</ele></trkpt>      <trkpt lat="48.05432" lon="-2.51256"><ele>81</ele></trkpt>      <trkpt lat="48.05363" lon="-2.51614"><ele>77</ele></trkpt>      <trkpt lat="48.05354" lon="-2.51681"><ele>76</ele></trkpt>      <trkpt lat="48.05334" lon="-2.52090"><ele>76</ele></trkpt>      <trkpt lat="48.05338" lon="-2.52249"><ele>75</ele></trkpt>      <trkpt lat="48.05327" lon="-2.52425"><ele>72</ele></trkpt>      <trkpt lat="48.05335" lon="-2.52550"><ele>71</ele></trkpt>    </trkseg>  </trk></gpx>