<?xml version="1.0"?><gpx version="1.0" creator="cycle.travel"  xmlns:xsi="http://www.w3.org/2001/XMLSchema-instance"  xmlns="http://www.topografix.com/GPX/1/0"  xsi:schemaLocation="http://www.topografix.com/GPX/1/0 http://www.topografix.com/GPX/1/0/gpx.xsd">  <trk>    <name>Route from Rue </name>    <trkseg>      <trkpt lat="48.05335" lon="-2.52550"><ele>69</ele></trkpt>      <trkpt lat="48.05336" lon="-2.52587"><ele>69</ele></trkpt>      <trkpt lat="48.05321" lon="-2.52601"><ele>69</ele></trkpt>      <trkpt lat="48.05263" lon="-2.52587"><ele>69</ele></trkpt>      <trkpt lat="48.05261" lon="-2.52603"><ele>69</ele></trkpt>      <trkpt lat="48.05223" lon="-2.52652"><ele>69</ele></trkpt>      <trkpt lat="48.05119" lon="-2.52743"><ele>64</ele></trkpt>      <trkpt lat="48.05021" lon="-2.52790"><ele>61</ele></trkpt>      <trkpt lat="48.04970" lon="-2.52832"><ele>60</ele></trkpt>      <trkpt lat="48.04561" lon="-2.53197"><ele>62</ele></trkpt>      <trkpt lat="48.04557" lon="-2.53220"><ele>62</ele></trkpt>      <trkpt lat="48.04057" lon="-2.53861"><ele>81</ele></trkpt>      <trkpt lat="48.03657" lon="-2.54335"><ele>94</ele></trkpt>      <trkpt lat="48.03482" lon="-2.54530"><ele>101</ele></trkpt>      <trkpt lat="48.02822" lon="-2.55305"><ele>97</ele></trkpt>      <trkpt lat="48.02547" lon="-2.55621"><ele>108</ele></trkpt>      <trkpt lat="48.02183" lon="-2.56009"><ele>109</ele></trkpt>      <trkpt lat="48.02087" lon="-2.56124"><ele>110</ele></trkpt>      <trkpt lat="48.01919" lon="-2.56302"><ele>111</ele></trkpt>      <trkpt lat="48.01806" lon="-2.56469"><ele>110</ele></trkpt>      <trkpt lat="48.01617" lon="-2.56735"><ele>110</ele></trkpt>      <trkpt lat="48.01455" lon="-2.56907"><ele>111</ele></trkpt>      <trkpt lat="48.01281" lon="-2.57179"><ele>112</ele></trkpt>      <trkpt lat="48.00970" lon="-2.57537"><ele>97</ele></trkpt>      <trkpt lat="48.00730" lon="-2.57934"><ele>83</ele></trkpt>      <trkpt lat="48.00599" lon="-2.57996"><ele>83</ele></trkpt>      <trkpt lat="48.00495" lon="-2.58082"><ele>84</ele></trkpt>      <trkpt lat="48.00384" lon="-2.58146"><ele>88</ele></trkpt>      <trkpt lat="48.00354" lon="-2.58189"><ele>89</ele></trkpt>      <trkpt lat="48.00334" lon="-2.58218"><ele>89</ele></trkpt>      <trkpt lat="48.00257" lon="-2.58254"><ele>90</ele></trkpt>      <trkpt lat="48.00226" lon="-2.58292"><ele>88</ele></trkpt>      <trkpt lat="48.00232" lon="-2.58353"><ele>85</ele></trkpt>      <trkpt lat="48.00226" lon="-2.58525"><ele>75</ele></trkpt>      <trkpt lat="48.00215" lon="-2.58639"><ele>74</ele></trkpt>      <trkpt lat="48.00056" lon="-2.58700"><ele>77</ele></trkpt>      <trkpt lat="47.99967" lon="-2.58752"><ele>78</ele></trkpt>      <trkpt lat="47.99773" lon="-2.58981"><ele>72</ele></trkpt>      <trkpt lat="47.99698" lon="-2.59019"><ele>74</ele></trkpt>      <trkpt lat="47.99677" lon="-2.59055"><ele>75</ele></trkpt>      <trkpt lat="47.99651" lon="-2.59144"><ele>79</ele></trkpt>      <trkpt lat="47.99612" lon="-2.59210"><ele>80</ele></trkpt>      <trkpt lat="47.99570" lon="-2.59312"><ele>81</ele></trkpt>      <trkpt lat="47.99496" lon="-2.59442"><ele>85</ele></trkpt>      <trkpt lat="47.99311" lon="-2.59619"><ele>94</ele></trkpt>      <trkpt lat="47.99228" lon="-2.59742"><ele>98</ele></trkpt>      <trkpt lat="47.99179" lon="-2.59856"><ele>98</ele></trkpt>      <trkpt lat="47.99033" lon="-2.60005"><ele>97</ele></trkpt>      <trkpt lat="47.98956" lon="-2.60197"><ele>97</ele></trkpt>      <trkpt lat="47.98885" lon="-2.60416"><ele>99</ele></trkpt>      <trkpt lat="47.98878" lon="-2.60432"><ele>99</ele></trkpt>      <trkpt lat="47.98846" lon="-2.60395"><ele>99</ele></trkpt>      <trkpt lat="47.98681" lon="-2.60452"><ele>97</ele></trkpt>      <trkpt lat="47.98529" lon="-2.60621"><ele>97</ele></trkpt>      <trkpt lat="47.98489" lon="-2.60683"><ele>97</ele></trkpt>      <trkpt lat="47.98375" lon="-2.60676"><ele>101</ele></trkpt>      <trkpt lat="47.98123" lon="-2.60747"><ele>107</ele></trkpt>      <trkpt lat="47.97763" lon="-2.60804"><ele>97</ele></trkpt>      <trkpt lat="47.97701" lon="-2.60840"><ele>94</ele></trkpt>      <trkpt lat="47.97576" lon="-2.60982"><ele>86</ele></trkpt>      <trkpt lat="47.97375" lon="-2.61219"><ele>76</ele></trkpt>      <trkpt lat="47.97101" lon="-2.61447"><ele>65</ele></trkpt>      <trkpt lat="47.97029" lon="-2.61515"><ele>62</ele></trkpt>      <trkpt lat="47.96922" lon="-2.61596"><ele>53</ele></trkpt>      <trkpt lat="47.96791" lon="-2.61729"><ele>44</ele></trkpt>      <trkpt lat="47.96720" lon="-2.61776"><ele>42</ele></trkpt>      <trkpt lat="47.96699" lon="-2.61812"><ele>42</ele></trkpt>      <trkpt lat="47.96688" lon="-2.61860"><ele>42</ele></trkpt>      <trkpt lat="47.96652" lon="-2.61871"><ele>41</ele></trkpt>      <trkpt lat="47.96595" lon="-2.61909"><ele>41</ele></trkpt>      <trkpt lat="47.96576" lon="-2.61882"><ele>41</ele></trkpt>      <trkpt lat="47.96537" lon="-2.61774"><ele>41</ele></trkpt>      <trkpt lat="47.96509" lon="-2.61790"><ele>40</ele></trkpt>      <trkpt lat="47.96575" lon="-2.62011"><ele>39</ele></trkpt>      <trkpt lat="47.96729" lon="-2.62456"><ele>43</ele></trkpt>      <trkpt lat="47.96722" lon="-2.62460"><ele>43</ele></trkpt>      <trkpt lat="47.96702" lon="-2.62476"><ele>41</ele></trkpt>      <trkpt lat="47.96685" lon="-2.62540"><ele>40</ele></trkpt>      <trkpt lat="47.96670" lon="-2.62569"><ele>40</ele></trkpt>      <trkpt lat="47.96633" lon="-2.62580"><ele>40</ele></trkpt>      <trkpt lat="47.96550" lon="-2.62562"><ele>41</ele></trkpt>      <trkpt lat="47.96529" lon="-2.62574"><ele>42</ele></trkpt>      <trkpt lat="47.96518" lon="-2.62592"><ele>43</ele></trkpt>      <trkpt lat="47.96491" lon="-2.62719"><ele>41</ele></trkpt>      <trkpt lat="47.96444" lon="-2.62844"><ele>42</ele></trkpt>      <trkpt lat="47.96434" lon="-2.62974"><ele>45</ele></trkpt>      <trkpt lat="47.96432" lon="-2.63059"><ele>47</ele></trkpt>      <trkpt lat="47.96449" lon="-2.63212"><ele>49</ele></trkpt>      <trkpt lat="47.96457" lon="-2.63408"><ele>52</ele></trkpt>      <trkpt lat="47.96427" lon="-2.63529"><ele>56</ele></trkpt>      <trkpt lat="47.96375" lon="-2.63604"><ele>60</ele></trkpt>      <trkpt lat="47.96179" lon="-2.63911"><ele>81</ele></trkpt>      <trkpt lat="47.96128" lon="-2.64065"><ele>85</ele></trkpt>      <trkpt lat="47.95943" lon="-2.64524"><ele>90</ele></trkpt>      <trkpt lat="47.95938" lon="-2.64681"><ele>91</ele></trkpt>      <trkpt lat="47.95925" lon="-2.64759"><ele>92</ele></trkpt>      <trkpt lat="47.95919" lon="-2.64778"><ele>93</ele></trkpt>      <trkpt lat="47.95854" lon="-2.64922"><ele>98</ele></trkpt>      <trkpt lat="47.95720" lon="-2.65109"><ele>100</ele></trkpt>      <trkpt lat="47.95681" lon="-2.65162"><ele>100</ele></trkpt>      <trkpt lat="47.95587" lon="-2.65287"><ele>101</ele></trkpt>      <trkpt lat="47.95488" lon="-2.65448"><ele>103</ele></trkpt>      <trkpt lat="47.95388" lon="-2.65639"><ele>105</ele></trkpt>      <trkpt lat="47.95358" lon="-2.65699"><ele>106</ele></trkpt>      <trkpt lat="47.95299" lon="-2.65862"><ele>107</ele></trkpt>      <trkpt lat="47.95221" lon="-2.66019"><ele>109</ele></trkpt>      <trkpt lat="47.95197" lon="-2.66112"><ele>110</ele></trkpt>      <trkpt lat="47.95163" lon="-2.66200"><ele>111</ele></trkpt>      <trkpt lat="47.95140" lon="-2.66228"><ele>111</ele></trkpt>      <trkpt lat="47.94994" lon="-2.66327"><ele>113</ele></trkpt>      <trkpt lat="47.94958" lon="-2.66480"><ele>115</ele></trkpt>      <trkpt lat="47.94887" lon="-2.66638"><ele>115</ele></trkpt>      <trkpt lat="47.94715" lon="-2.66764"><ele>114</ele></trkpt>      <trkpt lat="47.94489" lon="-2.66920"><ele>120</ele></trkpt>      <trkpt lat="47.94436" lon="-2.66947"><ele>120</ele></trkpt>      <trkpt lat="47.94047" lon="-2.66828"><ele>120</ele></trkpt>      <trkpt lat="47.94027" lon="-2.66842"><ele>120</ele></trkpt>      <trkpt lat="47.93964" lon="-2.66924"><ele>119</ele></trkpt>      <trkpt lat="47.93852" lon="-2.67030"><ele>115</ele></trkpt>      <trkpt lat="47.93767" lon="-2.67127"><ele>110</ele></trkpt>      <trkpt lat="47.93690" lon="-2.67272"><ele>108</ele></trkpt>      <trkpt lat="47.93680" lon="-2.67302"><ele>108</ele></trkpt>      <trkpt lat="47.93666" lon="-2.67489"><ele>113</ele></trkpt>      <trkpt lat="47.93662" lon="-2.67540"><ele>114</ele></trkpt>      <trkpt lat="47.93652" lon="-2.67566"><ele>114</ele></trkpt>      <trkpt lat="47.93619" lon="-2.67595"><ele>114</ele></trkpt>      <trkpt lat="47.93571" lon="-2.67600"><ele>115</ele></trkpt>      <trkpt lat="47.93536" lon="-2.67686"><ele>116</ele></trkpt>      <trkpt lat="47.93462" lon="-2.67675"><ele>116</ele></trkpt>      <trkpt lat="47.93428" lon="-2.67643"><ele>116</ele></trkpt>      <trkpt lat="47.93406" lon="-2.67606"><ele>115</ele></trkpt>      <trkpt lat="47.93359" lon="-2.67575"><ele>115</ele></trkpt>      <trkpt lat="47.93291" lon="-2.67552"><ele>115</ele></trkpt>      <trkpt lat="47.93220" lon="-2.67543"><ele>115</ele></trkpt>      <trkpt lat="47.92938" lon="-2.67584"><ele>119</ele></trkpt>      <trkpt lat="47.92581" lon="-2.67515"><ele>129</ele></trkpt>      <trkpt lat="47.92322" lon="-2.67598"><ele>132</ele></trkpt>      <trkpt lat="47.92028" lon="-2.67771"><ele>133</ele></trkpt>      <trkpt lat="47.91814" lon="-2.67959"><ele>131</ele></trkpt>      <trkpt lat="47.91783" lon="-2.68004"><ele>131</ele></trkpt>      <trkpt lat="47.91729" lon="-2.68117"><ele>130</ele></trkpt>      <trkpt lat="47.91711" lon="-2.68189"><ele>129</ele></trkpt>      <trkpt lat="47.91645" lon="-2.68336"><ele>128</ele></trkpt>      <trkpt lat="47.91636" lon="-2.68395"><ele>127</ele></trkpt>      <trkpt lat="47.91635" lon="-2.68471"><ele>125</ele></trkpt>      <trkpt lat="47.91588" lon="-2.68887"><ele>120</ele></trkpt>      <trkpt lat="47.91556" lon="-2.68993"><ele>120</ele></trkpt>      <trkpt lat="47.91528" lon="-2.69035"><ele>120</ele></trkpt>      <trkpt lat="47.91486" lon="-2.69073"><ele>119</ele></trkpt>      <trkpt lat="47.91445" lon="-2.69090"><ele>119</ele></trkpt>      <trkpt lat="47.91284" lon="-2.69094"><ele>117</ele></trkpt>      <trkpt lat="47.91160" lon="-2.69045"><ele>111</ele></trkpt>      <trkpt lat="47.91091" lon="-2.68989"><ele>106</ele></trkpt>      <trkpt lat="47.91040" lon="-2.68940"><ele>106</ele></trkpt>      <trkpt lat="47.90989" lon="-2.68927"><ele>109</ele></trkpt>      <trkpt lat="47.90832" lon="-2.68964"><ele>116</ele></trkpt>      <trkpt lat="47.90745" lon="-2.68941"><ele>122</ele></trkpt>      <trkpt lat="47.90478" lon="-2.68940"><ele>116</ele></trkpt>      <trkpt lat="47.90422" lon="-2.68918"><ele>114</ele></trkpt>      <trkpt lat="47.90365" lon="-2.68928"><ele>113</ele></trkpt>      <trkpt lat="47.90277" lon="-2.68907"><ele>113</ele></trkpt>      <trkpt lat="47.90155" lon="-2.68937"><ele>115</ele></trkpt>      <trkpt lat="47.90099" lon="-2.68948"><ele>116</ele></trkpt>      <trkpt lat="47.89969" lon="-2.68903"><ele>119</ele></trkpt>      <trkpt lat="47.89792" lon="-2.68890"><ele>131</ele></trkpt>      <trkpt lat="47.89708" lon="-2.68888"><ele>134</ele></trkpt>      <trkpt lat="47.89605" lon="-2.68912"><ele>136</ele></trkpt>      <trkpt lat="47.89571" lon="-2.68905"><ele>137</ele></trkpt>      <trkpt lat="47.89512" lon="-2.68873"><ele>138</ele></trkpt>      <trkpt lat="47.89349" lon="-2.68853"><ele>139</ele></trkpt>      <trkpt lat="47.89146" lon="-2.68868"><ele>138</ele></trkpt>      <trkpt lat="47.89011" lon="-2.68881"><ele>137</ele></trkpt>      <trkpt lat="47.88831" lon="-2.68846"><ele>141</ele></trkpt>      <trkpt lat="47.88682" lon="-2.68844"><ele>138</ele></trkpt>      <trkpt lat="47.88484" lon="-2.68946"><ele>134</ele></trkpt>      <trkpt lat="47.88408" lon="-2.69010"><ele>132</ele></trkpt>      <trkpt lat="47.88256" lon="-2.69063"><ele>132</ele></trkpt>      <trkpt lat="47.87865" lon="-2.69381"><ele>138</ele></trkpt>      <trkpt lat="47.87835" lon="-2.69422"><ele>139</ele></trkpt>      <trkpt lat="47.87699" lon="-2.69709"><ele>142</ele></trkpt>      <trkpt lat="47.87586" lon="-2.69845"><ele>145</ele></trkpt>      <trkpt lat="47.87501" lon="-2.69906"><ele>148</ele></trkpt>      <trkpt lat="47.87482" lon="-2.69918"><ele>148</ele></trkpt>      <trkpt lat="47.87415" lon="-2.69972"><ele>149</ele></trkpt>      <trkpt lat="47.87346" lon="-2.70049"><ele>149</ele></trkpt>      <trkpt lat="47.87187" lon="-2.70161"><ele>149</ele></trkpt>      <trkpt lat="47.87073" lon="-2.70219"><ele>150</ele></trkpt>      <trkpt lat="47.86781" lon="-2.70321"><ele>149</ele></trkpt>      <trkpt lat="47.86635" lon="-2.70386"><ele>141</ele></trkpt>      <trkpt lat="47.86505" lon="-2.70476"><ele>138</ele></trkpt>      <trkpt lat="47.86468" lon="-2.70517"><ele>138</ele></trkpt>      <trkpt lat="47.86278" lon="-2.70978"><ele>137</ele></trkpt>      <trkpt lat="47.86250" lon="-2.71045"><ele>137</ele></trkpt>      <trkpt lat="47.86208" lon="-2.71114"><ele>137</ele></trkpt>      <trkpt lat="47.86175" lon="-2.71150"><ele>135</ele></trkpt>      <trkpt lat="47.86124" lon="-2.71181"><ele>132</ele></trkpt>      <trkpt lat="47.86002" lon="-2.71182"><ele>124</ele></trkpt>      <trkpt lat="47.85969" lon="-2.71196"><ele>122</ele></trkpt>      <trkpt lat="47.85795" lon="-2.71353"><ele>116</ele></trkpt>      <trkpt lat="47.85648" lon="-2.71501"><ele>111</ele></trkpt>      <trkpt lat="47.85510" lon="-2.71576"><ele>104</ele></trkpt>      <trkpt lat="47.85257" lon="-2.71812"><ele>82</ele></trkpt>      <trkpt lat="47.85166" lon="-2.71845"><ele>76</ele></trkpt>      <trkpt lat="47.85111" lon="-2.71861"><ele>78</ele></trkpt>      <trkpt lat="47.84969" lon="-2.71979"><ele>85</ele></trkpt>      <trkpt lat="47.84797" lon="-2.71988"><ele>90</ele></trkpt>      <trkpt lat="47.84754" lon="-2.72053"><ele>91</ele></trkpt>      <trkpt lat="47.84705" lon="-2.72162"><ele>90</ele></trkpt>      <trkpt lat="47.84684" lon="-2.72193"><ele>90</ele></trkpt>      <trkpt lat="47.84678" lon="-2.72206"><ele>90</ele></trkpt>      <trkpt lat="47.84663" lon="-2.72185"><ele>91</ele></trkpt>      <trkpt lat="47.84599" lon="-2.72159"><ele>97</ele></trkpt>      <trkpt lat="47.84542" lon="-2.72242"><ele>100</ele></trkpt>      <trkpt lat="47.84544" lon="-2.72288"><ele>100</ele></trkpt>      <trkpt lat="47.84536" lon="-2.72324"><ele>100</ele></trkpt>      <trkpt lat="47.84493" lon="-2.72314"><ele>101</ele></trkpt>      <trkpt lat="47.84453" lon="-2.72490"><ele>99</ele></trkpt>      <trkpt lat="47.84420" lon="-2.72515"><ele>100</ele></trkpt>      <trkpt lat="47.84393" lon="-2.72704"><ele>107</ele></trkpt>      <trkpt lat="47.84377" lon="-2.72765"><ele>108</ele></trkpt>      <trkpt lat="47.84384" lon="-2.72777"><ele>108</ele></trkpt>      <trkpt lat="47.84373" lon="-2.72790"><ele>108</ele></trkpt>      <trkpt lat="47.84363" lon="-2.72857"><ele>107</ele></trkpt>      <trkpt lat="47.84358" lon="-2.73002"><ele>104</ele></trkpt>      <trkpt lat="47.84333" lon="-2.73240"><ele>100</ele></trkpt>      <trkpt lat="47.84348" lon="-2.73679"><ele>104</ele></trkpt>      <trkpt lat="47.84343" lon="-2.73745"><ele>105</ele></trkpt>      <trkpt lat="47.84317" lon="-2.73855"><ele>106</ele></trkpt>      <trkpt lat="47.84206" lon="-2.74350"><ele>111</ele></trkpt>      <trkpt lat="47.84115" lon="-2.75369"><ele>102</ele></trkpt>      <trkpt lat="47.84096" lon="-2.75437"><ele>101</ele></trkpt>      <trkpt lat="47.84037" lon="-2.75565"><ele>98</ele></trkpt>      <trkpt lat="47.83970" lon="-2.75900"><ele>96</ele></trkpt>      <trkpt lat="47.83923" lon="-2.76413"><ele>86</ele></trkpt>      <trkpt lat="47.83927" lon="-2.76472"><ele>85</ele></trkpt>      <trkpt lat="47.83979" lon="-2.76815"><ele>78</ele></trkpt>      <trkpt lat="47.83990" lon="-2.76894"><ele>75</ele></trkpt>      <trkpt lat="47.83984" lon="-2.76935"><ele>73</ele></trkpt>      <trkpt lat="47.83971" lon="-2.76965"><ele>72</ele></trkpt>      <trkpt lat="47.83935" lon="-2.76982"><ele>70</ele></trkpt>      <trkpt lat="47.83866" lon="-2.76986"><ele>66</ele></trkpt>      <trkpt lat="47.83799" lon="-2.76975"><ele>63</ele></trkpt>      <trkpt lat="47.83719" lon="-2.76868"><ele>60</ele></trkpt>      <trkpt lat="47.83709" lon="-2.76861"><ele>60</ele></trkpt>      <trkpt lat="47.83687" lon="-2.76869"><ele>59</ele></trkpt>      <trkpt lat="47.83574" lon="-2.77020"><ele>59</ele></trkpt>      <trkpt lat="47.83540" lon="-2.77082"><ele>60</ele></trkpt>      <trkpt lat="47.83502" lon="-2.77184"><ele>62</ele></trkpt>      <trkpt lat="47.83474" lon="-2.77296"><ele>65</ele></trkpt>      <trkpt lat="47.83411" lon="-2.77467"><ele>69</ele></trkpt>      <trkpt lat="47.83374" lon="-2.77564"><ele>72</ele></trkpt>      <trkpt lat="47.83358" lon="-2.77639"><ele>74</ele></trkpt>      <trkpt lat="47.83353" lon="-2.78139"><ele>83</ele></trkpt>      <trkpt lat="47.83337" lon="-2.78185"><ele>83</ele></trkpt>      <trkpt lat="47.83199" lon="-2.78401"><ele>75</ele></trkpt>      <trkpt lat="47.83125" lon="-2.78628"><ele>68</ele></trkpt>      <trkpt lat="47.83070" lon="-2.78752"><ele>72</ele></trkpt>      <trkpt lat="47.83030" lon="-2.78819"><ele>72</ele></trkpt>      <trkpt lat="47.82928" lon="-2.78918"><ele>73</ele></trkpt>      <trkpt lat="47.82765" lon="-2.79203"><ele>72</ele></trkpt>      <trkpt lat="47.82687" lon="-2.79427"><ele>74</ele></trkpt>      <trkpt lat="47.82422" lon="-2.79811"><ele>86</ele></trkpt>      <trkpt lat="47.82413" lon="-2.79825"><ele>87</ele></trkpt>      <trkpt lat="47.81942" lon="-2.80515"><ele>98</ele></trkpt>      <trkpt lat="47.81818" lon="-2.80697"><ele>100</ele></trkpt>      <trkpt lat="47.81803" lon="-2.80751"><ele>101</ele></trkpt>      <trkpt lat="47.81801" lon="-2.80804"><ele>102</ele></trkpt>      <trkpt lat="47.81812" lon="-2.80816"><ele>102</ele></trkpt>      <trkpt lat="47.81816" lon="-2.80860"><ele>100</ele></trkpt>      <trkpt lat="47.81808" lon="-2.80896"><ele>100</ele></trkpt>      <trkpt lat="47.81818" lon="-2.81043"><ele>100</ele></trkpt>      <trkpt lat="47.81834" lon="-2.81057"><ele>101</ele></trkpt>      <trkpt lat="47.81840" lon="-2.81212"><ele>103</ele></trkpt>      <trkpt lat="47.81758" lon="-2.81250"><ele>105</ele></trkpt>      <trkpt lat="47.81732" lon="-2.81255"><ele>105</ele></trkpt>      <trkpt lat="47.81707" lon="-2.81246"><ele>106</ele></trkpt>      <trkpt lat="47.81650" lon="-2.81224"><ele>106</ele></trkpt>      <trkpt lat="47.81646" lon="-2.81237"><ele>106</ele></trkpt>      <trkpt lat="47.81634" lon="-2.81236"><ele>106</ele></trkpt>      <trkpt lat="47.81575" lon="-2.81360"><ele>107</ele></trkpt>      <trkpt lat="47.81528" lon="-2.81398"><ele>109</ele></trkpt>      <trkpt lat="47.81526" lon="-2.81417"><ele>109</ele></trkpt>      <trkpt lat="47.81514" lon="-2.81423"><ele>109</ele></trkpt>      <trkpt lat="47.81507" lon="-2.81456"><ele>109</ele></trkpt>      <trkpt lat="47.81477" lon="-2.81500"><ele>110</ele></trkpt>      <trkpt lat="47.81185" lon="-2.81824"><ele>119</ele></trkpt>      <trkpt lat="47.81016" lon="-2.82011"><ele>124</ele></trkpt>      <trkpt lat="47.80971" lon="-2.82046"><ele>125</ele></trkpt>      <trkpt lat="47.80877" lon="-2.82089"><ele>125</ele></trkpt>      <trkpt lat="47.80794" lon="-2.82081"><ele>124</ele></trkpt>      <trkpt lat="47.80739" lon="-2.82092"><ele>125</ele></trkpt>      <trkpt lat="47.80565" lon="-2.82238"><ele>125</ele></trkpt>      <trkpt lat="47.80442" lon="-2.82307"><ele>124</ele></trkpt>      <trkpt lat="47.80364" lon="-2.82383"><ele>123</ele></trkpt>      <trkpt lat="47.80264" lon="-2.82420"><ele>120</ele></trkpt>      <trkpt lat="47.80076" lon="-2.82543"><ele>111</ele></trkpt>      <trkpt lat="47.80054" lon="-2.82545"><ele>111</ele></trkpt>      <trkpt lat="47.80011" lon="-2.82530"><ele>112</ele></trkpt>      <trkpt lat="47.79952" lon="-2.82538"><ele>115</ele></trkpt>      <trkpt lat="47.79923" lon="-2.82557"><ele>117</ele></trkpt>      <trkpt lat="47.79814" lon="-2.82667"><ele>126</ele></trkpt>      <trkpt lat="47.79770" lon="-2.82694"><ele>128</ele></trkpt>      <trkpt lat="47.79634" lon="-2.82720"><ele>130</ele></trkpt>      <trkpt lat="47.79560" lon="-2.82687"><ele>128</ele></trkpt>      <trkpt lat="47.79494" lon="-2.82715"><ele>125</ele></trkpt>      <trkpt lat="47.79406" lon="-2.82755"><ele>119</ele></trkpt>      <trkpt lat="47.79362" lon="-2.82743"><ele>116</ele></trkpt>      <trkpt lat="47.79325" lon="-2.82693"><ele>114</ele></trkpt>      <trkpt lat="47.79250" lon="-2.82524"><ele>105</ele></trkpt>      <trkpt lat="47.79243" lon="-2.82461"><ele>104</ele></trkpt>      <trkpt lat="47.79231" lon="-2.82451"><ele>104</ele></trkpt>      <trkpt lat="47.79220" lon="-2.82465"><ele>103</ele></trkpt>      <trkpt lat="47.79214" lon="-2.82511"><ele>102</ele></trkpt>      <trkpt lat="47.79223" lon="-2.82775"><ele>93</ele></trkpt>      <trkpt lat="47.79198" lon="-2.82820"><ele>93</ele></trkpt>      <trkpt lat="47.79162" lon="-2.82827"><ele>91</ele></trkpt>      <trkpt lat="47.78983" lon="-2.82797"><ele>85</ele></trkpt>      <trkpt lat="47.78920" lon="-2.82802"><ele>83</ele></trkpt>      <trkpt lat="47.78852" lon="-2.82845"><ele>81</ele></trkpt>      <trkpt lat="47.78524" lon="-2.83327"><ele>71</ele></trkpt>      <trkpt lat="47.78483" lon="-2.83355"><ele>70</ele></trkpt>      <trkpt lat="47.78245" lon="-2.83422"><ele>63</ele></trkpt>      <trkpt lat="47.78218" lon="-2.83440"><ele>63</ele></trkpt>      <trkpt lat="47.78175" lon="-2.83499"><ele>61</ele></trkpt>      <trkpt lat="47.78144" lon="-2.83513"><ele>60</ele></trkpt>      <trkpt lat="47.78077" lon="-2.83512"><ele>57</ele></trkpt>      <trkpt lat="47.77996" lon="-2.83580"><ele>53</ele></trkpt>      <trkpt lat="47.77862" lon="-2.83553"><ele>52</ele></trkpt>      <trkpt lat="47.77757" lon="-2.83588"><ele>51</ele></trkpt>      <trkpt lat="47.77660" lon="-2.83649"><ele>51</ele></trkpt>      <trkpt lat="47.77492" lon="-2.83677"><ele>54</ele></trkpt>      <trkpt lat="47.77377" lon="-2.83648"><ele>59</ele></trkpt>      <trkpt lat="47.77334" lon="-2.83660"><ele>61</ele></trkpt>      <trkpt lat="47.77295" lon="-2.83700"><ele>63</ele></trkpt>      <trkpt lat="47.77256" lon="-2.83782"><ele>66</ele></trkpt>      <trkpt lat="47.77229" lon="-2.83802"><ele>67</ele></trkpt>      <trkpt lat="47.77149" lon="-2.83838"><ele>70</ele></trkpt>      <trkpt lat="47.76994" lon="-2.83860"><ele>74</ele></trkpt>      <trkpt lat="47.76917" lon="-2.83901"><ele>76</ele></trkpt>      <trkpt lat="47.76732" lon="-2.83959"><ele>81</ele></trkpt>      <trkpt lat="47.76558" lon="-2.84042"><ele>85</ele></trkpt>      <trkpt lat="47.76393" lon="-2.84175"><ele>90</ele></trkpt>      <trkpt lat="47.76345" lon="-2.84214"><ele>93</ele></trkpt>      <trkpt lat="47.76156" lon="-2.84311"><ele>106</ele></trkpt>      <trkpt lat="47.76003" lon="-2.84405"><ele>119</ele></trkpt>      <trkpt lat="47.75944" lon="-2.84471"><ele>124</ele></trkpt>      <trkpt lat="47.75870" lon="-2.84478"><ele>125</ele></trkpt>      <trkpt lat="47.75858" lon="-2.84482"><ele>125</ele></trkpt>      <trkpt lat="47.75849" lon="-2.84503"><ele>125</ele></trkpt>      <trkpt lat="47.75823" lon="-2.84527"><ele>124</ele></trkpt>      <trkpt lat="47.75739" lon="-2.84570"><ele>124</ele></trkpt>      <trkpt lat="47.75641" lon="-2.84645"><ele>122</ele></trkpt>      <trkpt lat="47.75540" lon="-2.84810"><ele>120</ele></trkpt>      <trkpt lat="47.75519" lon="-2.84842"><ele>120</ele></trkpt>      <trkpt lat="47.75492" lon="-2.84895"><ele>118</ele></trkpt>      <trkpt lat="47.75332" lon="-2.85133"><ele>112</ele></trkpt>      <trkpt lat="47.75070" lon="-2.85633"><ele>94</ele></trkpt>      <trkpt lat="47.75047" lon="-2.85682"><ele>90</ele></trkpt>      <trkpt lat="47.75011" lon="-2.85852"><ele>82</ele></trkpt>      <trkpt lat="47.74936" lon="-2.85985"><ele>72</ele></trkpt>      <trkpt lat="47.74723" lon="-2.86342"><ele>66</ele></trkpt>      <trkpt lat="47.74462" lon="-2.87126"><ele>68</ele></trkpt>      <trkpt lat="47.74364" lon="-2.87422"><ele>70</ele></trkpt>      <trkpt lat="47.74355" lon="-2.87406"><ele>70</ele></trkpt>      <trkpt lat="47.74312" lon="-2.87102"><ele>70</ele></trkpt>      <trkpt lat="47.74210" lon="-2.86745"><ele>70</ele></trkpt>      <trkpt lat="47.73967" lon="-2.86749"><ele>69</ele></trkpt>      <trkpt lat="47.73920" lon="-2.86764"><ele>68</ele></trkpt>      <trkpt lat="47.73823" lon="-2.86756"><ele>63</ele></trkpt>      <trkpt lat="47.73606" lon="-2.86795"><ele>50</ele></trkpt>      <trkpt lat="47.73410" lon="-2.86798"><ele>49</ele></trkpt>      <trkpt lat="47.73254" lon="-2.86815"><ele>53</ele></trkpt>      <trkpt lat="47.73027" lon="-2.86828"><ele>48</ele></trkpt>      <trkpt lat="47.72907" lon="-2.86795"><ele>46</ele></trkpt>      <trkpt lat="47.72774" lon="-2.86820"><ele>44</ele></trkpt>      <trkpt lat="47.72699" lon="-2.86817"><ele>42</ele></trkpt>      <trkpt lat="47.72596" lon="-2.86697"><ele>38</ele></trkpt>      <trkpt lat="47.72524" lon="-2.86673"><ele>39</ele></trkpt>      <trkpt lat="47.72504" lon="-2.86708"><ele>39</ele></trkpt>      <trkpt lat="47.72443" lon="-2.86781"><ele>39</ele></trkpt>      <trkpt lat="47.72267" lon="-2.86964"><ele>38</ele></trkpt>      <trkpt lat="47.72209" lon="-2.87060"><ele>38</ele></trkpt>      <trkpt lat="47.72166" lon="-2.87178"><ele>37</ele></trkpt>      <trkpt lat="47.72124" lon="-2.87215"><ele>37</ele></trkpt>      <trkpt lat="47.72084" lon="-2.87273"><ele>36</ele></trkpt>      <trkpt lat="47.72054" lon="-2.87419"><ele>35</ele></trkpt>      <trkpt lat="47.72012" lon="-2.87575"><ele>33</ele></trkpt>      <trkpt lat="47.71977" lon="-2.87626"><ele>33</ele></trkpt>      <trkpt lat="47.71954" lon="-2.87681"><ele>33</ele></trkpt>      <trkpt lat="47.71930" lon="-2.87751"><ele>34</ele></trkpt>      <trkpt lat="47.71862" lon="-2.87848"><ele>35</ele></trkpt>      <trkpt lat="47.71706" lon="-2.88013"><ele>36</ele></trkpt>      <trkpt lat="47.71681" lon="-2.88027"><ele>36</ele></trkpt>      <trkpt lat="47.71581" lon="-2.88002"><ele>36</ele></trkpt>      <trkpt lat="47.71529" lon="-2.88005"><ele>36</ele></trkpt>      <trkpt lat="47.71167" lon="-2.88284"><ele>34</ele></trkpt>      <trkpt lat="47.71054" lon="-2.88373"><ele>34</ele></trkpt>      <trkpt lat="47.70517" lon="-2.88978"><ele>39</ele></trkpt>      <trkpt lat="47.70383" lon="-2.89085"><ele>40</ele></trkpt>      <trkpt lat="47.70251" lon="-2.89181"><ele>40</ele></trkpt>      <trkpt lat="47.70186" lon="-2.89262"><ele>40</ele></trkpt>      <trkpt lat="47.70049" lon="-2.89344"><ele>43</ele></trkpt>      <trkpt lat="47.69752" lon="-2.89590"><ele>45</ele></trkpt>      <trkpt lat="47.69803" lon="-2.89677"><ele>46</ele></trkpt>      <trkpt lat="47.69723" lon="-2.89746"><ele>48</ele></trkpt>      <trkpt lat="47.69677" lon="-2.89821"><ele>51</ele></trkpt>      <trkpt lat="47.69660" lon="-2.89792"><ele>52</ele></trkpt>      <trkpt lat="47.69607" lon="-2.89808"><ele>52</ele></trkpt>      <trkpt lat="47.69575" lon="-2.89908"><ele>51</ele></trkpt>      <trkpt lat="47.69587" lon="-2.90078"><ele>47</ele></trkpt>      <trkpt lat="47.69582" lon="-2.90150"><ele>46</ele></trkpt>      <trkpt lat="47.69566" lon="-2.90230"><ele>45</ele></trkpt>      <trkpt lat="47.69530" lon="-2.90298"><ele>44</ele></trkpt>      <trkpt lat="47.69405" lon="-2.90433"><ele>39</ele></trkpt>      <trkpt lat="47.69333" lon="-2.90529"><ele>35</ele></trkpt>      <trkpt lat="47.69301" lon="-2.90559"><ele>33</ele></trkpt>      <trkpt lat="47.69191" lon="-2.90612"><ele>28</ele></trkpt>      <trkpt lat="47.69097" lon="-2.90727"><ele>27</ele></trkpt>      <trkpt lat="47.69076" lon="-2.90770"><ele>27</ele></trkpt>      <trkpt lat="47.69055" lon="-2.90881"><ele>31</ele></trkpt>      <trkpt lat="47.69059" lon="-2.91056"><ele>35</ele></trkpt>      <trkpt lat="47.69067" lon="-2.91188"><ele>38</ele></trkpt>      <trkpt lat="47.69060" lon="-2.91254"><ele>39</ele></trkpt>      <trkpt lat="47.68986" lon="-2.91439"><ele>35</ele></trkpt>      <trkpt lat="47.68954" lon="-2.91646"><ele>34</ele></trkpt>      <trkpt lat="47.68590" lon="-2.92179"><ele>43</ele></trkpt>      <trkpt lat="47.68443" lon="-2.92494"><ele>43</ele></trkpt>      <trkpt lat="47.68337" lon="-2.92832"><ele>47</ele></trkpt>      <trkpt lat="47.68323" lon="-2.92863"><ele>47</ele></trkpt>      <trkpt lat="47.68200" lon="-2.93038"><ele>46</ele></trkpt>      <trkpt lat="47.68062" lon="-2.93398"><ele>46</ele></trkpt>      <trkpt lat="47.68057" lon="-2.93470"><ele>46</ele></trkpt>      <trkpt lat="47.68071" lon="-2.93717"><ele>47</ele></trkpt>      <trkpt lat="47.68043" lon="-2.94066"><ele>44</ele></trkpt>      <trkpt lat="47.68041" lon="-2.94142"><ele>44</ele></trkpt>      <trkpt lat="47.68040" lon="-2.94238"><ele>45</ele></trkpt>      <trkpt lat="47.68059" lon="-2.94388"><ele>45</ele></trkpt>      <trkpt lat="47.68045" lon="-2.94520"><ele>44</ele></trkpt>      <trkpt lat="47.67951" lon="-2.94692"><ele>39</ele></trkpt>      <trkpt lat="47.67936" lon="-2.94706"><ele>39</ele></trkpt>      <trkpt lat="47.67813" lon="-2.94743"><ele>37</ele></trkpt>      <trkpt lat="47.67789" lon="-2.94769"><ele>36</ele></trkpt>      <trkpt lat="47.67782" lon="-2.94794"><ele>36</ele></trkpt>      <trkpt lat="47.67780" lon="-2.95055"><ele>32</ele></trkpt>      <trkpt lat="47.67687" lon="-2.95269"><ele>27</ele></trkpt>      <trkpt lat="47.67660" lon="-2.95384"><ele>23</ele></trkpt>      <trkpt lat="47.67631" lon="-2.95520"><ele>27</ele></trkpt>      <trkpt lat="47.67570" lon="-2.95644"><ele>30</ele></trkpt>      <trkpt lat="47.67533" lon="-2.95685"><ele>31</ele></trkpt>      <trkpt lat="47.67504" lon="-2.95758"><ele>31</ele></trkpt>      <trkpt lat="47.67493" lon="-2.95761"><ele>31</ele></trkpt>      <trkpt lat="47.67477" lon="-2.95790"><ele>31</ele></trkpt>      <trkpt lat="47.67374" lon="-2.95954"><ele>27</ele></trkpt>      <trkpt lat="47.67299" lon="-2.96040"><ele>25</ele></trkpt>      <trkpt lat="47.67264" lon="-2.96076"><ele>24</ele></trkpt>      <trkpt lat="47.67292" lon="-2.96136"><ele>25</ele></trkpt>      <trkpt lat="47.67288" lon="-2.96249"><ele>24</ele></trkpt>      <trkpt lat="47.67233" lon="-2.96248"><ele>22</ele></trkpt>      <trkpt lat="47.67231" lon="-2.96271"><ele>21</ele></trkpt>      <trkpt lat="47.67195" lon="-2.96258"><ele>20</ele></trkpt>      <trkpt lat="47.67168" lon="-2.96234"><ele>19</ele></trkpt>      <trkpt lat="47.67125" lon="-2.96238"><ele>19</ele></trkpt>      <trkpt lat="47.66846" lon="-2.96493"><ele>15</ele></trkpt>      <trkpt lat="47.66765" lon="-2.96586"><ele>15</ele></trkpt>      <trkpt lat="47.66723" lon="-2.96667"><ele>14</ele></trkpt>      <trkpt lat="47.66707" lon="-2.96751"><ele>13</ele></trkpt>      <trkpt lat="47.66719" lon="-2.96904"><ele>10</ele></trkpt>      <trkpt lat="47.66741" lon="-2.97032"><ele>6</ele></trkpt>      <trkpt lat="47.66753" lon="-2.97080"><ele>6</ele></trkpt>      <trkpt lat="47.66861" lon="-2.97335"><ele>6</ele></trkpt>      <trkpt lat="47.66890" lon="-2.97415"><ele>7</ele></trkpt>      <trkpt lat="47.66890" lon="-2.97441"><ele>7</ele></trkpt>      <trkpt lat="47.66901" lon="-2.97460"><ele>7</ele></trkpt>      <trkpt lat="47.66904" lon="-2.97490"><ele>7</ele></trkpt>      <trkpt lat="47.66892" lon="-2.97518"><ele>7</ele></trkpt>      <trkpt lat="47.66875" lon="-2.97518"><ele>7</ele></trkpt>      <trkpt lat="47.66872" lon="-2.97667"><ele>10</ele></trkpt>      <trkpt lat="47.66852" lon="-2.97797"><ele>13</ele></trkpt>      <trkpt lat="47.66779" lon="-2.97972"><ele>18</ele></trkpt>      <trkpt lat="47.66638" lon="-2.98263"><ele>27</ele></trkpt>      <trkpt lat="47.66640" lon="-2.98295"><ele>28</ele></trkpt>      <trkpt lat="47.66653" lon="-2.98333"><ele>29</ele></trkpt>      <trkpt lat="47.66670" lon="-2.98386"><ele>29</ele></trkpt>      <trkpt lat="47.66703" lon="-2.98436"><ele>30</ele></trkpt>      <trkpt lat="47.66756" lon="-2.98522"><ele>31</ele></trkpt>      <trkpt lat="47.66790" lon="-2.98559"><ele>32</ele></trkpt>      <trkpt lat="47.66899" lon="-2.98680"><ele>35</ele></trkpt>      <trkpt lat="47.66949" lon="-2.98846"><ele>37</ele></trkpt>      <trkpt lat="47.66966" lon="-2.98875"><ele>37</ele></trkpt>      <trkpt lat="47.67018" lon="-2.99029"><ele>40</ele></trkpt>      <trkpt lat="47.67035" lon="-2.99053"><ele>40</ele></trkpt>      <trkpt lat="47.67042" lon="-2.99042"><ele>40</ele></trkpt>      <trkpt lat="47.67054" lon="-2.99047"><ele>41</ele></trkpt>      <trkpt lat="47.67056" lon="-2.99060"><ele>41</ele></trkpt>      <trkpt lat="47.67046" lon="-2.99072"><ele>41</ele></trkpt>      <trkpt lat="47.67055" lon="-2.99137"><ele>41</ele></trkpt>      <trkpt lat="47.67139" lon="-2.99388"><ele>40</ele></trkpt>      <trkpt lat="47.67250" lon="-2.99726"><ele>36</ele></trkpt>      <trkpt lat="47.67259" lon="-2.99729"><ele>36</ele></trkpt>      <trkpt lat="47.67259" lon="-2.99753"><ele>35</ele></trkpt>      <trkpt lat="47.67322" lon="-2.99914"><ele>31</ele></trkpt>      <trkpt lat="47.67408" lon="-3.00092"><ele>29</ele></trkpt>      <trkpt lat="47.67675" lon="-3.00640"><ele>33</ele></trkpt>      <trkpt lat="47.67762" lon="-3.00823"><ele>33</ele></trkpt>      <trkpt lat="47.67808" lon="-3.00902"><ele>37</ele></trkpt>      <trkpt lat="47.67816" lon="-3.00905"><ele>37</ele></trkpt>      <trkpt lat="47.67818" lon="-3.00925"><ele>37</ele></trkpt>      <trkpt lat="47.67801" lon="-3.00928"><ele>37</ele></trkpt>      <trkpt lat="47.67779" lon="-3.00952"><ele>36</ele></trkpt>      <trkpt lat="47.67660" lon="-3.01126"><ele>29</ele></trkpt>      <trkpt lat="47.67643" lon="-3.01141"><ele>28</ele></trkpt>      <trkpt lat="47.67499" lon="-3.01181"><ele>31</ele></trkpt>      <trkpt lat="47.67443" lon="-3.01211"><ele>33</ele></trkpt>      <trkpt lat="47.67446" lon="-3.01221"><ele>33</ele></trkpt>      <trkpt lat="47.67434" lon="-3.01220"><ele>34</ele></trkpt>      <trkpt lat="47.67383" lon="-3.01287"><ele>35</ele></trkpt>      <trkpt lat="47.67350" lon="-3.01375"><ele>35</ele></trkpt>      <trkpt lat="47.67344" lon="-3.01421"><ele>35</ele></trkpt>      <trkpt lat="47.67359" lon="-3.01550"><ele>35</ele></trkpt>      <trkpt lat="47.67359" lon="-3.01605"><ele>36</ele></trkpt>      <trkpt lat="47.67348" lon="-3.01664"><ele>36</ele></trkpt>      <trkpt lat="47.67340" lon="-3.01834"><ele>36</ele></trkpt>      <trkpt lat="47.67316" lon="-3.02036"><ele>38</ele></trkpt>      <trkpt lat="47.67287" lon="-3.02080"><ele>38</ele></trkpt>      <trkpt lat="47.67224" lon="-3.02116"><ele>39</ele></trkpt>      <trkpt lat="47.67157" lon="-3.02170"><ele>39</ele></trkpt>      <trkpt lat="47.67112" lon="-3.02284"><ele>39</ele></trkpt>      <trkpt lat="47.67277" lon="-3.02362"><ele>37</ele></trkpt>      <trkpt lat="47.67287" lon="-3.02382"><ele>36</ele></trkpt>      <trkpt lat="47.67305" lon="-3.02513"><ele>35</ele></trkpt>      <trkpt lat="47.67328" lon="-3.02761"><ele>35</ele></trkpt>      <trkpt lat="47.67370" lon="-3.02913"><ele>35</ele></trkpt>      <trkpt lat="47.67423" lon="-3.03059"><ele>34</ele></trkpt>      <trkpt lat="47.67480" lon="-3.03275"><ele>29</ele></trkpt>      <trkpt lat="47.67502" lon="-3.03301"><ele>29</ele></trkpt>      <trkpt lat="47.67750" lon="-3.03409"><ele>32</ele></trkpt>      <trkpt lat="47.67842" lon="-3.03451"><ele>35</ele></trkpt>      <trkpt lat="47.67831" lon="-3.03486"><ele>35</ele></trkpt>      <trkpt lat="47.67832" lon="-3.03731"><ele>34</ele></trkpt>      <trkpt lat="47.67820" lon="-3.03776"><ele>34</ele></trkpt>      <trkpt lat="47.67794" lon="-3.03825"><ele>33</ele></trkpt>      <trkpt lat="47.67790" lon="-3.04108"><ele>31</ele></trkpt>      <trkpt lat="47.67755" lon="-3.04349"><ele>34</ele></trkpt>      <trkpt lat="47.67744" lon="-3.04568"><ele>37</ele></trkpt>      <trkpt lat="47.67750" lon="-3.04866"><ele>29</ele></trkpt>      <trkpt lat="47.67744" lon="-3.04891"><ele>29</ele></trkpt>      <trkpt lat="47.67749" lon="-3.05165"><ele>29</ele></trkpt>      <trkpt lat="47.67742" lon="-3.05235"><ele>31</ele></trkpt>      <trkpt lat="47.67760" lon="-3.05389"><ele>35</ele></trkpt>      <trkpt lat="47.67755" lon="-3.05521"><ele>35</ele></trkpt>      <trkpt lat="47.67731" lon="-3.05642"><ele>36</ele></trkpt>      <trkpt lat="47.67675" lon="-3.05639"><ele>36</ele></trkpt>      <trkpt lat="47.67608" lon="-3.05604"><ele>37</ele></trkpt>      <trkpt lat="47.67472" lon="-3.05528"><ele>39</ele></trkpt>      <trkpt lat="47.67460" lon="-3.05516"><ele>39</ele></trkpt>      <trkpt lat="47.67424" lon="-3.05435"><ele>39</ele></trkpt>      <trkpt lat="47.67402" lon="-3.05410"><ele>39</ele></trkpt>      <trkpt lat="47.67368" lon="-3.05406"><ele>39</ele></trkpt>      <trkpt lat="47.67301" lon="-3.05436"><ele>38</ele></trkpt>      <trkpt lat="47.67176" lon="-3.05436"><ele>37</ele></trkpt>      <trkpt lat="47.66892" lon="-3.05455"><ele>32</ele></trkpt>      <trkpt lat="47.66659" lon="-3.05516"><ele>27</ele></trkpt>      <trkpt lat="47.66544" lon="-3.05528"><ele>26</ele></trkpt>      <trkpt lat="47.66551" lon="-3.05597"><ele>27</ele></trkpt>      <trkpt lat="47.66547" lon="-3.05653"><ele>27</ele></trkpt>      <trkpt lat="47.66338" lon="-3.06283"><ele>22</ele></trkpt>      <trkpt lat="47.66264" lon="-3.06288"><ele>21</ele></trkpt>      <trkpt lat="47.66214" lon="-3.06316"><ele>21</ele></trkpt>      <trkpt lat="47.66178" lon="-3.06309"><ele>21</ele></trkpt>      <trkpt lat="47.66118" lon="-3.06326"><ele>20</ele></trkpt>      <trkpt lat="47.66120" lon="-3.06332"><ele>20</ele></trkpt>      <trkpt lat="47.66090" lon="-3.06351"><ele>19</ele></trkpt>      <trkpt lat="47.65984" lon="-3.06424"><ele>19</ele></trkpt>      <trkpt lat="47.65875" lon="-3.06535"><ele>20</ele></trkpt>      <trkpt lat="47.65838" lon="-3.06587"><ele>21</ele></trkpt>      <trkpt lat="47.65767" lon="-3.06633"><ele>23</ele></trkpt>      <trkpt lat="47.65696" lon="-3.06747"><ele>26</ele></trkpt>      <trkpt lat="47.65669" lon="-3.06831"><ele>27</ele></trkpt>      <trkpt lat="47.65618" lon="-3.06901"><ele>28</ele></trkpt>      <trkpt lat="47.65578" lon="-3.06929"><ele>29</ele></trkpt>      <trkpt lat="47.65564" lon="-3.06957"><ele>29</ele></trkpt>      <trkpt lat="47.65557" lon="-3.07034"><ele>30</ele></trkpt>      <trkpt lat="47.65453" lon="-3.07062"><ele>31</ele></trkpt>      <trkpt lat="47.65420" lon="-3.07073"><ele>31</ele></trkpt>      <trkpt lat="47.65363" lon="-3.07079"><ele>31</ele></trkpt>      <trkpt lat="47.65351" lon="-3.07088"><ele>31</ele></trkpt>      <trkpt lat="47.65330" lon="-3.07161"><ele>31</ele></trkpt>      <trkpt lat="47.65271" lon="-3.07220"><ele>31</ele></trkpt>      <trkpt lat="47.65275" lon="-3.07257"><ele>31</ele></trkpt>      <trkpt lat="47.65274" lon="-3.07317"><ele>31</ele></trkpt>      <trkpt lat="47.65333" lon="-3.07456"><ele>31</ele></trkpt>      <trkpt lat="47.65350" lon="-3.07485"><ele>31</ele></trkpt>      <trkpt lat="47.65407" lon="-3.07536"><ele>31</ele></trkpt>      <trkpt lat="47.65392" lon="-3.07622"><ele>31</ele></trkpt>      <trkpt lat="47.65375" lon="-3.07712"><ele>30</ele></trkpt>      <trkpt lat="47.65337" lon="-3.07840"><ele>29</ele></trkpt>      <trkpt lat="47.65322" lon="-3.07936"><ele>29</ele></trkpt>      <trkpt lat="47.65247" lon="-3.08009"><ele>28</ele></trkpt>      <trkpt lat="47.65155" lon="-3.08117"><ele>28</ele></trkpt>      <trkpt lat="47.65003" lon="-3.08379"><ele>31</ele></trkpt>      <trkpt lat="47.64959" lon="-3.08477"><ele>35</ele></trkpt>      <trkpt lat="47.64932" lon="-3.08512"><ele>35</ele></trkpt>      <trkpt lat="47.64891" lon="-3.08557"><ele>34</ele></trkpt>      <trkpt lat="47.64799" lon="-3.08609"><ele>32</ele></trkpt>      <trkpt lat="47.64827" lon="-3.08662"><ele>30</ele></trkpt>      <trkpt lat="47.64848" lon="-3.08842"><ele>27</ele></trkpt>      <trkpt lat="47.64909" lon="-3.08972"><ele>27</ele></trkpt>      <trkpt lat="47.64910" lon="-3.09029"><ele>27</ele></trkpt>      <trkpt lat="47.64926" lon="-3.09093"><ele>27</ele></trkpt>      <trkpt lat="47.64962" lon="-3.09166"><ele>28</ele></trkpt>      <trkpt lat="47.64974" lon="-3.09209"><ele>29</ele></trkpt>      <trkpt lat="47.64983" lon="-3.09352"><ele>29</ele></trkpt>      <trkpt lat="47.64894" lon="-3.09381"><ele>29</ele></trkpt>      <trkpt lat="47.64841" lon="-3.09431"><ele>29</ele></trkpt>      <trkpt lat="47.64624" lon="-3.09639"><ele>26</ele></trkpt>      <trkpt lat="47.64573" lon="-3.09668"><ele>23</ele></trkpt>      <trkpt lat="47.64493" lon="-3.09680"><ele>21</ele></trkpt>      <trkpt lat="47.64461" lon="-3.09672"><ele>20</ele></trkpt>      <trkpt lat="47.64376" lon="-3.09606"><ele>20</ele></trkpt>      <trkpt lat="47.64306" lon="-3.09555"><ele>20</ele></trkpt>      <trkpt lat="47.64137" lon="-3.09575"><ele>19</ele></trkpt>      <trkpt lat="47.64054" lon="-3.09583"><ele>19</ele></trkpt>      <trkpt lat="47.63902" lon="-3.09630"><ele>18</ele></trkpt>      <trkpt lat="47.63844" lon="-3.09627"><ele>18</ele></trkpt>      <trkpt lat="47.63797" lon="-3.09614"><ele>18</ele></trkpt>      <trkpt lat="47.63646" lon="-3.09544"><ele>18</ele></trkpt>      <trkpt lat="47.63499" lon="-3.09539"><ele>18</ele></trkpt>      <trkpt lat="47.63438" lon="-3.09508"><ele>18</ele></trkpt>      <trkpt lat="47.63385" lon="-3.09517"><ele>18</ele></trkpt>      <trkpt lat="47.63334" lon="-3.09505"><ele>18</ele></trkpt>      <trkpt lat="47.63234" lon="-3.09546"><ele>17</ele></trkpt>      <trkpt lat="47.63145" lon="-3.09617"><ele>16</ele></trkpt>      <trkpt lat="47.62977" lon="-3.09665"><ele>17</ele></trkpt>      <trkpt lat="47.62832" lon="-3.09720"><ele>17</ele></trkpt>      <trkpt lat="47.62704" lon="-3.09828"><ele>18</ele></trkpt>      <trkpt lat="47.62558" lon="-3.09885"><ele>19</ele></trkpt>      <trkpt lat="47.62385" lon="-3.09869"><ele>23</ele></trkpt>      <trkpt lat="47.62150" lon="-3.09764"><ele>14</ele></trkpt>      <trkpt lat="47.62064" lon="-3.09770"><ele>15</ele></trkpt>      <trkpt lat="47.61870" lon="-3.09777"><ele>15</ele></trkpt>      <trkpt lat="47.61717" lon="-3.09761"><ele>15</ele></trkpt>      <trkpt lat="47.61483" lon="-3.09544"><ele>15</ele></trkpt>      <trkpt lat="47.61199" lon="-3.09347"><ele>16</ele></trkpt>      <trkpt lat="47.61153" lon="-3.09306"><ele>16</ele></trkpt>      <trkpt lat="47.61104" lon="-3.09292"><ele>17</ele></trkpt>      <trkpt lat="47.61095" lon="-3.09302"><ele>17</ele></trkpt>      <trkpt lat="47.61078" lon="-3.09299"><ele>17</ele></trkpt>      <trkpt lat="47.61068" lon="-3.09271"><ele>17</ele></trkpt>      <trkpt lat="47.60904" lon="-3.09075"><ele>16</ele></trkpt>      <trkpt lat="47.60798" lon="-3.09025"><ele>16</ele></trkpt>      <trkpt lat="47.60706" lon="-3.08948"><ele>15</ele></trkpt>      <trkpt lat="47.60619" lon="-3.08893"><ele>15</ele></trkpt>      <trkpt lat="47.60411" lon="-3.08801"><ele>16</ele></trkpt>      <trkpt lat="47.60283" lon="-3.08729"><ele>16</ele></trkpt>      <trkpt lat="47.60175" lon="-3.08640"><ele>16</ele></trkpt>      <trkpt lat="47.60065" lon="-3.08612"><ele>16</ele></trkpt>      <trkpt lat="47.59968" lon="-3.08556"><ele>16</ele></trkpt>      <trkpt lat="47.59903" lon="-3.08496"><ele>17</ele></trkpt>      <trkpt lat="47.59696" lon="-3.08392"><ele>18</ele></trkpt>      <trkpt lat="47.59626" lon="-3.08333"><ele>18</ele></trkpt>      <trkpt lat="47.59545" lon="-3.08218"><ele>18</ele></trkpt>      <trkpt lat="47.59461" lon="-3.08155"><ele>18</ele></trkpt>      <trkpt lat="47.59374" lon="-3.08099"><ele>18</ele></trkpt>      <trkpt lat="47.59265" lon="-3.08050"><ele>19</ele></trkpt>      <trkpt lat="47.59228" lon="-3.08201"><ele>20</ele></trkpt>      <trkpt lat="47.59207" lon="-3.08256"><ele>22</ele></trkpt>      <trkpt lat="47.59090" lon="-3.08442"><ele>19</ele></trkpt>      <trkpt lat="47.59029" lon="-3.08499"><ele>18</ele></trkpt>      <trkpt lat="47.58675" lon="-3.08400"><ele>19</ele></trkpt>      <trkpt lat="47.58612" lon="-3.08386"><ele>20</ele></trkpt>      <trkpt lat="47.58570" lon="-3.08183"><ele>22</ele></trkpt>      <trkpt lat="47.58454" lon="-3.08101"><ele>22</ele></trkpt>      <trkpt lat="47.58422" lon="-3.08060"><ele>22</ele></trkpt>      <trkpt lat="47.58418" lon="-3.08017"><ele>22</ele></trkpt>      <trkpt lat="47.58427" lon="-3.07981"><ele>22</ele></trkpt>      <trkpt lat="47.58400" lon="-3.07975"><ele>22</ele></trkpt>      <trkpt lat="47.58367" lon="-3.07975"><ele>20</ele></trkpt>      <trkpt lat="47.58342" lon="-3.07975"><ele>20</ele></trkpt>      <trkpt lat="47.58344" lon="-3.08028"><ele>19</ele></trkpt>      <trkpt lat="47.58383" lon="-3.08126"><ele>18</ele></trkpt>      <trkpt lat="47.58349" lon="-3.08162"><ele>17</ele></trkpt>      <trkpt lat="47.58343" lon="-3.08185"><ele>17</ele></trkpt>      <trkpt lat="47.58352" lon="-3.08258"><ele>17</ele></trkpt>      <trkpt lat="47.58329" lon="-3.08384"><ele>17</ele></trkpt>      <trkpt lat="47.58321" lon="-3.08601"><ele>16</ele></trkpt>      <trkpt lat="47.58350" lon="-3.08891"><ele>13</ele></trkpt>      <trkpt lat="47.58390" lon="-3.09004"><ele>14</ele></trkpt>      <trkpt lat="47.58408" lon="-3.09220"><ele>16</ele></trkpt>      <trkpt lat="47.58386" lon="-3.09315"><ele>15</ele></trkpt>      <trkpt lat="47.58315" lon="-3.09403"><ele>10</ele></trkpt>      <trkpt lat="47.58280" lon="-3.09482"><ele>6</ele></trkpt>      <trkpt lat="47.58208" lon="-3.09634"><ele>5</ele></trkpt>      <trkpt lat="47.58108" lon="-3.09897"><ele>4</ele></trkpt>      <trkpt lat="47.58038" lon="-3.10039"><ele>3</ele></trkpt>      <trkpt lat="47.58026" lon="-3.10116"><ele>3</ele></trkpt>      <trkpt lat="47.58044" lon="-3.10199"><ele>5</ele></trkpt>      <trkpt lat="47.58051" lon="-3.10234"><ele>5</ele></trkpt>      <trkpt lat="47.58073" lon="-3.10281"><ele>4</ele></trkpt>      <trkpt lat="47.58103" lon="-3.10290"><ele>4</ele></trkpt>      <trkpt lat="47.58114" lon="-3.10345"><ele>3</ele></trkpt>      <trkpt lat="47.58123" lon="-3.10352"><ele>2</ele></trkpt>      <trkpt lat="47.58141" lon="-3.10345"><ele>2</ele></trkpt>      <trkpt lat="47.58183" lon="-3.10280"><ele>3</ele></trkpt>      <trkpt lat="47.58213" lon="-3.10250"><ele>3</ele></trkpt>      <trkpt lat="47.58232" lon="-3.10251"><ele>3</ele></trkpt>      <trkpt lat="47.58320" lon="-3.10295"><ele>3</ele></trkpt>      <trkpt lat="47.58369" lon="-3.10303"><ele>4</ele></trkpt>      <trkpt lat="47.58473" lon="-3.10332"><ele>4</ele></trkpt>      <trkpt lat="47.58516" lon="-3.10397"><ele>4</ele></trkpt>      <trkpt lat="47.58537" lon="-3.10477"><ele>5</ele></trkpt>      <trkpt lat="47.58548" lon="-3.10487"><ele>5</ele></trkpt>      <trkpt lat="47.58646" lon="-3.10497"><ele>9</ele></trkpt>      <trkpt lat="47.58761" lon="-3.10493"><ele>13</ele></trkpt>      <trkpt lat="47.58826" lon="-3.10517"><ele>15</ele></trkpt>      <trkpt lat="47.58893" lon="-3.10468"><ele>17</ele></trkpt>      <trkpt lat="47.58986" lon="-3.10466"><ele>17</ele></trkpt>      <trkpt lat="47.59015" lon="-3.10498"><ele>16</ele></trkpt>      <trkpt lat="47.59086" lon="-3.10631"><ele>15</ele></trkpt>      <trkpt lat="47.59217" lon="-3.10794"><ele>14</ele></trkpt>      <trkpt lat="47.59394" lon="-3.10938"><ele>17</ele></trkpt>      <trkpt lat="47.59537" lon="-3.11037"><ele>20</ele></trkpt>      <trkpt lat="47.59610" lon="-3.11106"><ele>21</ele></trkpt>      <trkpt lat="47.59690" lon="-3.11102"><ele>21</ele></trkpt>      <trkpt lat="47.59726" lon="-3.11113"><ele>22</ele></trkpt>      <trkpt lat="47.59724" lon="-3.11237"><ele>22</ele></trkpt>      <trkpt lat="47.59696" lon="-3.11396"><ele>22</ele></trkpt>      <trkpt lat="47.59648" lon="-3.11457"><ele>20</ele></trkpt>      <trkpt lat="47.59619" lon="-3.11632"><ele>16</ele></trkpt>      <trkpt lat="47.59645" lon="-3.11753"><ele>15</ele></trkpt>      <trkpt lat="47.59656" lon="-3.11764"><ele>14</ele></trkpt>      <trkpt lat="47.59700" lon="-3.11772"><ele>12</ele></trkpt>      <trkpt lat="47.59702" lon="-3.11787"><ele>12</ele></trkpt>      <trkpt lat="47.59734" lon="-3.11807"><ele>11</ele></trkpt>      <trkpt lat="47.59744" lon="-3.11824"><ele>11</ele></trkpt>      <trkpt lat="47.59749" lon="-3.11833"><ele>11</ele></trkpt>      <trkpt lat="47.59738" lon="-3.11851"><ele>10</ele></trkpt>      <trkpt lat="47.59746" lon="-3.11885"><ele>10</ele></trkpt>      <trkpt lat="47.59787" lon="-3.11895"><ele>11</ele></trkpt>      <trkpt lat="47.59810" lon="-3.11866"><ele>14</ele></trkpt>      <trkpt lat="47.59862" lon="-3.11829"><ele>15</ele></trkpt>      <trkpt lat="47.59863" lon="-3.11787"><ele>15</ele></trkpt>      <trkpt lat="47.59873" lon="-3.11762"><ele>16</ele></trkpt>      <trkpt lat="47.59928" lon="-3.11903"><ele>18</ele></trkpt>      <trkpt lat="47.60114" lon="-3.12128"><ele>19</ele></trkpt>      <trkpt lat="47.60175" lon="-3.12244"><ele>17</ele></trkpt>      <trkpt lat="47.60192" lon="-3.12282"><ele>17</ele></trkpt>      <trkpt lat="47.60184" lon="-3.12437"><ele>18</ele></trkpt>      <trkpt lat="47.60172" lon="-3.12512"><ele>19</ele></trkpt>      <trkpt lat="47.60169" lon="-3.12796"><ele>17</ele></trkpt>      <trkpt lat="47.60153" lon="-3.12868"><ele>15</ele></trkpt>      <trkpt lat="47.60153" lon="-3.12921"><ele>14</ele></trkpt>      <trkpt lat="47.60181" lon="-3.12949"><ele>14</ele></trkpt>      <trkpt lat="47.60187" lon="-3.13018"><ele>13</ele></trkpt>      <trkpt lat="47.60249" lon="-3.13136"><ele>13</ele></trkpt>      <trkpt lat="47.60253" lon="-3.13168"><ele>12</ele></trkpt>      <trkpt lat="47.60296" lon="-3.13213"><ele>10</ele></trkpt>      <trkpt lat="47.60381" lon="-3.13227"><ele>10</ele></trkpt>      <trkpt lat="47.60455" lon="-3.13313"><ele>7</ele></trkpt>      <trkpt lat="47.60473" lon="-3.13360"><ele>6</ele></trkpt>      <trkpt lat="47.60483" lon="-3.13492"><ele>6</ele></trkpt>      <trkpt lat="47.60470" lon="-3.13497"><ele>6</ele></trkpt>      <trkpt lat="47.60454" lon="-3.13529"><ele>6</ele></trkpt>      <trkpt lat="47.60403" lon="-3.13571"><ele>6</ele></trkpt>      <trkpt lat="47.60350" lon="-3.13651"><ele>6</ele></trkpt>      <trkpt lat="47.60348" lon="-3.13824"><ele>6</ele></trkpt>      <trkpt lat="47.60115" lon="-3.13840"><ele>6</ele></trkpt>      <trkpt lat="47.59946" lon="-3.13812"><ele>7</ele></trkpt>      <trkpt lat="47.59916" lon="-3.13817"><ele>7</ele></trkpt>      <trkpt lat="47.59908" lon="-3.13796"><ele>7</ele></trkpt>      <trkpt lat="47.59913" lon="-3.13743"><ele>7</ele></trkpt>      <trkpt lat="47.59847" lon="-3.13686"><ele>7</ele></trkpt>      <trkpt lat="47.59779" lon="-3.13581"><ele>7</ele></trkpt>      <trkpt lat="47.59702" lon="-3.13429"><ele>7</ele></trkpt>      <trkpt lat="47.59601" lon="-3.13188"><ele>7</ele></trkpt>      <trkpt lat="47.59589" lon="-3.13188"><ele>7</ele></trkpt>      <trkpt lat="47.59559" lon="-3.13281"><ele>8</ele></trkpt>      <trkpt lat="47.59551" lon="-3.13283"><ele>8</ele></trkpt>      <trkpt lat="47.59504" lon="-3.13229"><ele>8</ele></trkpt>      <trkpt lat="47.59492" lon="-3.13230"><ele>8</ele></trkpt>      <trkpt lat="47.59468" lon="-3.13255"><ele>8</ele></trkpt>      <trkpt lat="47.59446" lon="-3.13216"><ele>8</ele></trkpt>      <trkpt lat="47.59429" lon="-3.13207"><ele>8</ele></trkpt>      <trkpt lat="47.59277" lon="-3.13245"><ele>8</ele></trkpt>      <trkpt lat="47.59245" lon="-3.13224"><ele>9</ele></trkpt>      <trkpt lat="47.58575" lon="-3.13401"><ele>9</ele></trkpt>      <trkpt lat="47.58270" lon="-3.13479"><ele>9</ele></trkpt>      <trkpt lat="47.58175" lon="-3.13514"><ele>9</ele></trkpt>      <trkpt lat="47.58115" lon="-3.13492"><ele>9</ele></trkpt>      <trkpt lat="47.57672" lon="-3.13498"><ele>9</ele></trkpt>      <trkpt lat="47.57652" lon="-3.13514"><ele>9</ele></trkpt>      <trkpt lat="47.57633" lon="-3.13498"><ele>9</ele></trkpt>      <trkpt lat="47.57571" lon="-3.13494"><ele>9</ele></trkpt>      <trkpt lat="47.57483" lon="-3.13505"><ele>10</ele></trkpt>      <trkpt lat="47.57424" lon="-3.13491"><ele>10</ele></trkpt>      <trkpt lat="47.57342" lon="-3.13488"><ele>10</ele></trkpt>      <trkpt lat="47.57300" lon="-3.13497"><ele>10</ele></trkpt>      <trkpt lat="47.57163" lon="-3.13473"><ele>10</ele></trkpt>      <trkpt lat="47.57112" lon="-3.13471"><ele>10</ele></trkpt>      <trkpt lat="47.57069" lon="-3.13486"><ele>10</ele></trkpt>      <trkpt lat="47.57047" lon="-3.13471"><ele>10</ele></trkpt>      <trkpt lat="47.56757" lon="-3.13464"><ele>10</ele></trkpt>      <trkpt lat="47.56667" lon="-3.13461"><ele>11</ele></trkpt>      <trkpt lat="47.56610" lon="-3.13494"><ele>11</ele></trkpt>      <trkpt lat="47.56573" lon="-3.13478"><ele>11</ele></trkpt>      <trkpt lat="47.56529" lon="-3.13483"><ele>11</ele></trkpt>      <trkpt lat="47.56501" lon="-3.13468"><ele>11</ele></trkpt>      <trkpt lat="47.56022" lon="-3.13454"><ele>11</ele></trkpt>      <trkpt lat="47.56010" lon="-3.13460"><ele>11</ele></trkpt>      <trkpt lat="47.56001" lon="-3.13516"><ele>11</ele></trkpt>      <trkpt lat="47.56005" lon="-3.13598"><ele>11</ele></trkpt>      <trkpt lat="47.56001" lon="-3.13599"><ele>12</ele></trkpt>      <trkpt lat="47.55993" lon="-3.13634"><ele>12</ele></trkpt>      <trkpt lat="47.55992" lon="-3.13691"><ele>12</ele></trkpt>      <trkpt lat="47.55973" lon="-3.13773"><ele>12</ele></trkpt>      <trkpt lat="47.55617" lon="-3.13650"><ele>12</ele></trkpt>      <trkpt lat="47.55561" lon="-3.13634"><ele>12</ele></trkpt>      <trkpt lat="47.55347" lon="-3.13540"><ele>12</ele></trkpt>      <trkpt lat="47.55232" lon="-3.13506"><ele>12</ele></trkpt>      <trkpt lat="47.55225" lon="-3.13442"><ele>12</ele></trkpt>      <trkpt lat="47.55217" lon="-3.13430"><ele>13</ele></trkpt>      <trkpt lat="47.54617" lon="-3.13415"><ele>13</ele></trkpt>      <trkpt lat="47.54563" lon="-3.13407"><ele>13</ele></trkpt>      <trkpt lat="47.54532" lon="-3.13413"><ele>13</ele></trkpt>      <trkpt lat="47.53888" lon="-3.13600"><ele>13</ele></trkpt>      <trkpt lat="47.53766" lon="-3.13625"><ele>13</ele></trkpt>      <trkpt lat="47.53625" lon="-3.13664"><ele>13</ele></trkpt>      <trkpt lat="47.53619" lon="-3.13673"><ele>13</ele></trkpt>      <trkpt lat="47.53617" lon="-3.13691"><ele>13</ele></trkpt>      <trkpt lat="47.53608" lon="-3.13688"><ele>14</ele></trkpt>      <trkpt lat="47.53596" lon="-3.13673"><ele>14</ele></trkpt>      <trkpt lat="47.53568" lon="-3.13681"><ele>14</ele></trkpt>      <trkpt lat="47.53016" lon="-3.13836"><ele>14</ele></trkpt>      <trkpt lat="47.52903" lon="-3.13867"><ele>14</ele></trkpt>      <trkpt lat="47.52581" lon="-3.13960"><ele>14</ele></trkpt>      <trkpt lat="47.52478" lon="-3.13973"><ele>14</ele></trkpt>      <trkpt lat="47.52465" lon="-3.13998"><ele>14</ele></trkpt>      <trkpt lat="47.52446" lon="-3.14004"><ele>14</ele></trkpt>      <trkpt lat="47.52451" lon="-3.14044"><ele>15</ele></trkpt>      <trkpt lat="47.52523" lon="-3.14200"><ele>14</ele></trkpt>      <trkpt lat="47.52459" lon="-3.14288"><ele>14</ele></trkpt>      <trkpt lat="47.52411" lon="-3.14397"><ele>14</ele></trkpt>      <trkpt lat="47.52391" lon="-3.14455"><ele>14</ele></trkpt>      <trkpt lat="47.52370" lon="-3.14587"><ele>15</ele></trkpt>      <trkpt lat="47.52383" lon="-3.14639"><ele>15</ele></trkpt>      <trkpt lat="47.52352" lon="-3.14825"><ele>16</ele></trkpt>      <trkpt lat="47.52295" lon="-3.14812"><ele>16</ele></trkpt>      <trkpt lat="47.52184" lon="-3.14820"><ele>16</ele></trkpt>      <trkpt lat="47.52154" lon="-3.14805"><ele>16</ele></trkpt>      <trkpt lat="47.52028" lon="-3.14688"><ele>18</ele></trkpt>      <trkpt lat="47.51987" lon="-3.14669"><ele>19</ele></trkpt>      <trkpt lat="47.51771" lon="-3.14747"><ele>20</ele></trkpt>      <trkpt lat="47.51721" lon="-3.14741"><ele>21</ele></trkpt>      <trkpt lat="47.51647" lon="-3.14695"><ele>22</ele></trkpt>      <trkpt lat="47.51583" lon="-3.14672"><ele>22</ele></trkpt>      <trkpt lat="47.51554" lon="-3.14686"><ele>22</ele></trkpt>      <trkpt lat="47.51527" lon="-3.14741"><ele>21</ele></trkpt>      <trkpt lat="47.51491" lon="-3.14766"><ele>20</ele></trkpt>      <trkpt lat="47.51363" lon="-3.14780"><ele>17</ele></trkpt>      <trkpt lat="47.51326" lon="-3.14801"><ele>14</ele></trkpt>      <trkpt lat="47.51282" lon="-3.14775"><ele>10</ele></trkpt>      <trkpt lat="47.51256" lon="-3.14858"><ele>10</ele></trkpt>      <trkpt lat="47.51247" lon="-3.15031"><ele>10</ele></trkpt>      <trkpt lat="47.51166" lon="-3.15119"><ele>14</ele></trkpt>      <trkpt lat="47.51102" lon="-3.15141"><ele>15</ele></trkpt>      <trkpt lat="47.51093" lon="-3.15134"><ele>15</ele></trkpt>      <trkpt lat="47.50967" lon="-3.14850"><ele>14</ele></trkpt>      <trkpt lat="47.50941" lon="-3.14758"><ele>15</ele></trkpt>      <trkpt lat="47.50892" lon="-3.14698"><ele>17</ele></trkpt>      <trkpt lat="47.50845" lon="-3.14629"><ele>21</ele></trkpt>      <trkpt lat="47.50824" lon="-3.14634"><ele>21</ele></trkpt>      <trkpt lat="47.50717" lon="-3.14799"><ele>18</ele></trkpt>      <trkpt lat="47.50691" lon="-3.14827"><ele>16</ele></trkpt>      <trkpt lat="47.50631" lon="-3.14918"><ele>19</ele></trkpt>      <trkpt lat="47.50590" lon="-3.14952"><ele>19</ele></trkpt>      <trkpt lat="47.50549" lon="-3.14968"><ele>19</ele></trkpt>      <trkpt lat="47.50504" lon="-3.14965"><ele>21</ele></trkpt>      <trkpt lat="47.50091" lon="-3.14824"><ele>22</ele></trkpt>      <trkpt lat="47.50037" lon="-3.14823"><ele>23</ele></trkpt>      <trkpt lat="47.49975" lon="-3.14854"><ele>23</ele></trkpt>      <trkpt lat="47.49958" lon="-3.14848"><ele>22</ele></trkpt>      <trkpt lat="47.49945" lon="-3.14826"><ele>22</ele></trkpt>      <trkpt lat="47.49946" lon="-3.14799"><ele>22</ele></trkpt>      <trkpt lat="47.49971" lon="-3.14712"><ele>21</ele></trkpt>      <trkpt lat="47.49967" lon="-3.14690"><ele>21</ele></trkpt>      <trkpt lat="47.49954" lon="-3.14672"><ele>20</ele></trkpt>      <trkpt lat="47.49962" lon="-3.14645"><ele>20</ele></trkpt>      <trkpt lat="47.49931" lon="-3.14639"><ele>20</ele></trkpt>      <trkpt lat="47.49904" lon="-3.14665"><ele>20</ele></trkpt>      <trkpt lat="47.49796" lon="-3.14663"><ele>21</ele></trkpt>      <trkpt lat="47.49648" lon="-3.14579"><ele>22</ele></trkpt>      <trkpt lat="47.49558" lon="-3.14540"><ele>22</ele></trkpt>      <trkpt lat="47.49454" lon="-3.14509"><ele>22</ele></trkpt>      <trkpt lat="47.49411" lon="-3.14484"><ele>21</ele></trkpt>      <trkpt lat="47.49330" lon="-3.14386"><ele>18</ele></trkpt>      <trkpt lat="47.49302" lon="-3.14385"><ele>17</ele></trkpt>      <trkpt lat="47.49240" lon="-3.14159"><ele>12</ele></trkpt>      <trkpt lat="47.49201" lon="-3.14104"><ele>12</ele></trkpt>      <trkpt lat="47.49183" lon="-3.14103"><ele>12</ele></trkpt>      <trkpt lat="47.49175" lon="-3.14072"><ele>12</ele></trkpt>      <trkpt lat="47.49103" lon="-3.14104"><ele>12</ele></trkpt>      <trkpt lat="47.49030" lon="-3.14060"><ele>13</ele></trkpt>      <trkpt lat="47.49015" lon="-3.13952"><ele>14</ele></trkpt>      <trkpt lat="47.48946" lon="-3.13787"><ele>18</ele></trkpt>      <trkpt lat="47.48798" lon="-3.13871"><ele>20</ele></trkpt>      <trkpt lat="47.48683" lon="-3.13974"><ele>19</ele></trkpt>      <trkpt lat="47.48607" lon="-3.13978"><ele>18</ele></trkpt>      <trkpt lat="47.48539" lon="-3.13809"><ele>17</ele></trkpt>      <trkpt lat="47.48516" lon="-3.13649"><ele>17</ele></trkpt>      <trkpt lat="47.48455" lon="-3.13522"><ele>20</ele></trkpt>      <trkpt lat="47.48441" lon="-3.13472"><ele>21</ele></trkpt>      <trkpt lat="47.48404" lon="-3.13504"><ele>21</ele></trkpt>      <trkpt lat="47.48369" lon="-3.13486"><ele>20</ele></trkpt>      <trkpt lat="47.48339" lon="-3.13483"><ele>20</ele></trkpt>      <trkpt lat="47.48297" lon="-3.13493"><ele>18</ele></trkpt>      <trkpt lat="47.48202" lon="-3.13528"><ele>15</ele></trkpt>      <trkpt lat="47.48106" lon="-3.13599"><ele>12</ele></trkpt>      <trkpt lat="47.48051" lon="-3.13546"><ele>12</ele></trkpt>      <trkpt lat="47.47939" lon="-3.13366"><ele>11</ele></trkpt>      <trkpt lat="47.47902" lon="-3.13276"><ele>15</ele></trkpt>      <trkpt lat="47.47834" lon="-3.13177"><ele>15</ele></trkpt>      <trkpt lat="47.47764" lon="-3.12878"><ele>13</ele></trkpt>      <trkpt lat="47.47852" lon="-3.12779"><ele>11</ele></trkpt>      <trkpt lat="47.47862" lon="-3.12725"><ele>10</ele></trkpt>      <trkpt lat="47.47856" lon="-3.12713"><ele>10</ele></trkpt>      <trkpt lat="47.47805" lon="-3.12698"><ele>9</ele></trkpt>      <trkpt lat="47.47808" lon="-3.12678"><ele>9</ele></trkpt>      <trkpt lat="47.47809" lon="-3.12678"><ele>9</ele></trkpt>    </trkseg>  </trk></gpx>