<?xml version="1.0"?><gpx version="1.0" creator="cycle.travel"  xmlns:xsi="http://www.w3.org/2001/XMLSchema-instance"  xmlns="http://www.topografix.com/GPX/1/0"  xsi:schemaLocation="http://www.topografix.com/GPX/1/0 http://www.topografix.com/GPX/1/0/gpx.xsd">  <trk>    <name>Route 18/8/2026</name>    <trkseg>      <trkpt lat="47.47809" lon="-3.12678"><ele>9</ele></trkpt>      <trkpt lat="47.47859" lon="-3.12692"><ele>9</ele></trkpt>      <trkpt lat="47.47856" lon="-3.12713"><ele>10</ele></trkpt>      <trkpt lat="47.47862" lon="-3.12725"><ele>10</ele></trkpt>      <trkpt lat="47.47856" lon="-3.12769"><ele>11</ele></trkpt>      <trkpt lat="47.47861" lon="-3.12779"><ele>11</ele></trkpt>      <trkpt lat="47.47763" lon="-3.12878"><ele>13</ele></trkpt>      <trkpt lat="47.47834" lon="-3.13177"><ele>15</ele></trkpt>      <trkpt lat="47.47889" lon="-3.13254"><ele>16</ele></trkpt>      <trkpt lat="47.47939" lon="-3.13366"><ele>11</ele></trkpt>      <trkpt lat="47.48034" lon="-3.13519"><ele>12</ele></trkpt>      <trkpt lat="47.48071" lon="-3.13571"><ele>12</ele></trkpt>      <trkpt lat="47.48106" lon="-3.13599"><ele>12</ele></trkpt>      <trkpt lat="47.48202" lon="-3.13528"><ele>15</ele></trkpt>      <trkpt lat="47.48297" lon="-3.13492"><ele>18</ele></trkpt>      <trkpt lat="47.48339" lon="-3.13483"><ele>20</ele></trkpt>      <trkpt lat="47.48362" lon="-3.13483"><ele>20</ele></trkpt>      <trkpt lat="47.48402" lon="-3.13504"><ele>21</ele></trkpt>      <trkpt lat="47.48441" lon="-3.13472"><ele>21</ele></trkpt>      <trkpt lat="47.48455" lon="-3.13521"><ele>20</ele></trkpt>      <trkpt lat="47.48508" lon="-3.13625"><ele>17</ele></trkpt>      <trkpt lat="47.48539" lon="-3.13809"><ele>17</ele></trkpt>      <trkpt lat="47.48607" lon="-3.13978"><ele>18</ele></trkpt>      <trkpt lat="47.48683" lon="-3.13974"><ele>19</ele></trkpt>      <trkpt lat="47.48798" lon="-3.13870"><ele>20</ele></trkpt>      <trkpt lat="47.48946" lon="-3.13787"><ele>18</ele></trkpt>      <trkpt lat="47.49007" lon="-3.13925"><ele>14</ele></trkpt>      <trkpt lat="47.49030" lon="-3.14060"><ele>13</ele></trkpt>      <trkpt lat="47.49093" lon="-3.14103"><ele>12</ele></trkpt>      <trkpt lat="47.49175" lon="-3.14072"><ele>12</ele></trkpt>      <trkpt lat="47.49180" lon="-3.14101"><ele>12</ele></trkpt>      <trkpt lat="47.49189" lon="-3.14104"><ele>12</ele></trkpt>      <trkpt lat="47.49198" lon="-3.14102"><ele>12</ele></trkpt>      <trkpt lat="47.49238" lon="-3.14156"><ele>12</ele></trkpt>      <trkpt lat="47.49300" lon="-3.14382"><ele>17</ele></trkpt>      <trkpt lat="47.49330" lon="-3.14386"><ele>18</ele></trkpt>      <trkpt lat="47.49407" lon="-3.14480"><ele>21</ele></trkpt>      <trkpt lat="47.49448" lon="-3.14506"><ele>21</ele></trkpt>      <trkpt lat="47.49554" lon="-3.14538"><ele>21</ele></trkpt>      <trkpt lat="47.49648" lon="-3.14579"><ele>21</ele></trkpt>      <trkpt lat="47.49796" lon="-3.14662"><ele>21</ele></trkpt>      <trkpt lat="47.49895" lon="-3.14667"><ele>21</ele></trkpt>      <trkpt lat="47.49912" lon="-3.14662"><ele>21</ele></trkpt>      <trkpt lat="47.49931" lon="-3.14639"><ele>21</ele></trkpt>      <trkpt lat="47.49962" lon="-3.14645"><ele>20</ele></trkpt>      <trkpt lat="47.49954" lon="-3.14672"><ele>20</ele></trkpt>      <trkpt lat="47.49963" lon="-3.14681"><ele>20</ele></trkpt>      <trkpt lat="47.49971" lon="-3.14712"><ele>21</ele></trkpt>      <trkpt lat="47.49945" lon="-3.14823"><ele>22</ele></trkpt>      <trkpt lat="47.49951" lon="-3.14840"><ele>22</ele></trkpt>      <trkpt lat="47.49967" lon="-3.14852"><ele>22</ele></trkpt>      <trkpt lat="47.49994" lon="-3.14852"><ele>22</ele></trkpt>      <trkpt lat="47.50037" lon="-3.14823"><ele>22</ele></trkpt>      <trkpt lat="47.50078" lon="-3.14822"><ele>22</ele></trkpt>      <trkpt lat="47.50527" lon="-3.14968"><ele>20</ele></trkpt>      <trkpt lat="47.50571" lon="-3.14962"><ele>19</ele></trkpt>      <trkpt lat="47.50618" lon="-3.14931"><ele>19</ele></trkpt>      <trkpt lat="47.50691" lon="-3.14827"><ele>16</ele></trkpt>      <trkpt lat="47.50717" lon="-3.14799"><ele>18</ele></trkpt>      <trkpt lat="47.50824" lon="-3.14634"><ele>21</ele></trkpt>      <trkpt lat="47.50845" lon="-3.14629"><ele>21</ele></trkpt>      <trkpt lat="47.50868" lon="-3.14668"><ele>20</ele></trkpt>      <trkpt lat="47.50935" lon="-3.14746"><ele>16</ele></trkpt>      <trkpt lat="47.50967" lon="-3.14850"><ele>14</ele></trkpt>      <trkpt lat="47.51097" lon="-3.15139"><ele>15</ele></trkpt>      <trkpt lat="47.51166" lon="-3.15118"><ele>14</ele></trkpt>      <trkpt lat="47.51243" lon="-3.15040"><ele>10</ele></trkpt>      <trkpt lat="47.51248" lon="-3.15027"><ele>10</ele></trkpt>      <trkpt lat="47.51256" lon="-3.14858"><ele>10</ele></trkpt>      <trkpt lat="47.51282" lon="-3.14775"><ele>10</ele></trkpt>      <trkpt lat="47.51295" lon="-3.14776"><ele>12</ele></trkpt>      <trkpt lat="47.51319" lon="-3.14802"><ele>13</ele></trkpt>      <trkpt lat="47.51363" lon="-3.14780"><ele>17</ele></trkpt>      <trkpt lat="47.51469" lon="-3.14768"><ele>20</ele></trkpt>      <trkpt lat="47.51508" lon="-3.14759"><ele>20</ele></trkpt>      <trkpt lat="47.51527" lon="-3.14741"><ele>20</ele></trkpt>      <trkpt lat="47.51545" lon="-3.14697"><ele>21</ele></trkpt>      <trkpt lat="47.51568" lon="-3.14677"><ele>22</ele></trkpt>      <trkpt lat="47.51591" lon="-3.14673"><ele>22</ele></trkpt>      <trkpt lat="47.51647" lon="-3.14695"><ele>22</ele></trkpt>      <trkpt lat="47.51707" lon="-3.14734"><ele>21</ele></trkpt>      <trkpt lat="47.51771" lon="-3.14747"><ele>20</ele></trkpt>      <trkpt lat="47.51987" lon="-3.14669"><ele>19</ele></trkpt>      <trkpt lat="47.52028" lon="-3.14688"><ele>18</ele></trkpt>      <trkpt lat="47.52168" lon="-3.14814"><ele>16</ele></trkpt>      <trkpt lat="47.52184" lon="-3.14820"><ele>16</ele></trkpt>      <trkpt lat="47.52281" lon="-3.14811"><ele>16</ele></trkpt>      <trkpt lat="47.52352" lon="-3.14824"><ele>16</ele></trkpt>      <trkpt lat="47.52383" lon="-3.14639"><ele>15</ele></trkpt>      <trkpt lat="47.52369" lon="-3.14587"><ele>15</ele></trkpt>      <trkpt lat="47.52391" lon="-3.14455"><ele>15</ele></trkpt>      <trkpt lat="47.52405" lon="-3.14412"><ele>15</ele></trkpt>      <trkpt lat="47.52456" lon="-3.14293"><ele>14</ele></trkpt>      <trkpt lat="47.52523" lon="-3.14200"><ele>14</ele></trkpt>      <trkpt lat="47.52578" lon="-3.14316"><ele>13</ele></trkpt>      <trkpt lat="47.52680" lon="-3.14459"><ele>11</ele></trkpt>      <trkpt lat="47.52726" lon="-3.14414"><ele>12</ele></trkpt>      <trkpt lat="47.52751" lon="-3.14354"><ele>14</ele></trkpt>      <trkpt lat="47.52762" lon="-3.14331"><ele>14</ele></trkpt>      <trkpt lat="47.52779" lon="-3.14252"><ele>15</ele></trkpt>      <trkpt lat="47.52795" lon="-3.14220"><ele>15</ele></trkpt>      <trkpt lat="47.52810" lon="-3.14212"><ele>15</ele></trkpt>      <trkpt lat="47.52834" lon="-3.14137"><ele>16</ele></trkpt>      <trkpt lat="47.52887" lon="-3.13960"><ele>15</ele></trkpt>      <trkpt lat="47.52903" lon="-3.13867"><ele>15</ele></trkpt>      <trkpt lat="47.53016" lon="-3.13836"><ele>14</ele></trkpt>      <trkpt lat="47.53568" lon="-3.13681"><ele>10</ele></trkpt>      <trkpt lat="47.53596" lon="-3.13673"><ele>10</ele></trkpt>      <trkpt lat="47.53613" lon="-3.13692"><ele>10</ele></trkpt>      <trkpt lat="47.53625" lon="-3.13663"><ele>9</ele></trkpt>      <trkpt lat="47.53888" lon="-3.13600"><ele>8</ele></trkpt>      <trkpt lat="47.54549" lon="-3.13409"><ele>8</ele></trkpt>      <trkpt lat="47.54863" lon="-3.13419"><ele>6</ele></trkpt>      <trkpt lat="47.55217" lon="-3.13430"><ele>6</ele></trkpt>      <trkpt lat="47.55224" lon="-3.13438"><ele>6</ele></trkpt>      <trkpt lat="47.55232" lon="-3.13506"><ele>6</ele></trkpt>      <trkpt lat="47.55347" lon="-3.13540"><ele>6</ele></trkpt>      <trkpt lat="47.55561" lon="-3.13634"><ele>6</ele></trkpt>      <trkpt lat="47.55617" lon="-3.13650"><ele>6</ele></trkpt>      <trkpt lat="47.55973" lon="-3.13773"><ele>6</ele></trkpt>      <trkpt lat="47.55992" lon="-3.13691"><ele>6</ele></trkpt>      <trkpt lat="47.55993" lon="-3.13633"><ele>6</ele></trkpt>      <trkpt lat="47.56000" lon="-3.13599"><ele>6</ele></trkpt>      <trkpt lat="47.56005" lon="-3.13598"><ele>6</ele></trkpt>      <trkpt lat="47.56000" lon="-3.13521"><ele>6</ele></trkpt>      <trkpt lat="47.56013" lon="-3.13456"><ele>6</ele></trkpt>      <trkpt lat="47.56495" lon="-3.13467"><ele>6</ele></trkpt>      <trkpt lat="47.56528" lon="-3.13483"><ele>7</ele></trkpt>      <trkpt lat="47.56573" lon="-3.13478"><ele>7</ele></trkpt>      <trkpt lat="47.56605" lon="-3.13494"><ele>7</ele></trkpt>      <trkpt lat="47.56667" lon="-3.13461"><ele>7</ele></trkpt>      <trkpt lat="47.56848" lon="-3.13467"><ele>7</ele></trkpt>      <trkpt lat="47.57039" lon="-3.13469"><ele>7</ele></trkpt>      <trkpt lat="47.57063" lon="-3.13486"><ele>7</ele></trkpt>      <trkpt lat="47.57112" lon="-3.13471"><ele>7</ele></trkpt>      <trkpt lat="47.57227" lon="-3.13478"><ele>7</ele></trkpt>      <trkpt lat="47.57300" lon="-3.13497"><ele>7</ele></trkpt>      <trkpt lat="47.57342" lon="-3.13488"><ele>7</ele></trkpt>      <trkpt lat="47.57424" lon="-3.13490"><ele>7</ele></trkpt>      <trkpt lat="47.57483" lon="-3.13505"><ele>7</ele></trkpt>      <trkpt lat="47.57571" lon="-3.13494"><ele>7</ele></trkpt>      <trkpt lat="47.57633" lon="-3.13498"><ele>7</ele></trkpt>      <trkpt lat="47.57652" lon="-3.13514"><ele>8</ele></trkpt>      <trkpt lat="47.57678" lon="-3.13496"><ele>8</ele></trkpt>      <trkpt lat="47.57766" lon="-3.13492"><ele>8</ele></trkpt>      <trkpt lat="47.58114" lon="-3.13492"><ele>8</ele></trkpt>      <trkpt lat="47.58171" lon="-3.13514"><ele>8</ele></trkpt>      <trkpt lat="47.58269" lon="-3.13479"><ele>8</ele></trkpt>      <trkpt lat="47.58740" lon="-3.13353"><ele>8</ele></trkpt>      <trkpt lat="47.59236" lon="-3.13226"><ele>8</ele></trkpt>      <trkpt lat="47.59253" lon="-3.13225"><ele>8</ele></trkpt>      <trkpt lat="47.59274" lon="-3.13245"><ele>8</ele></trkpt>      <trkpt lat="47.59335" lon="-3.13224"><ele>8</ele></trkpt>      <trkpt lat="47.59387" lon="-3.13223"><ele>8</ele></trkpt>      <trkpt lat="47.59420" lon="-3.13206"><ele>8</ele></trkpt>      <trkpt lat="47.59444" lon="-3.13214"><ele>8</ele></trkpt>      <trkpt lat="47.59468" lon="-3.13255"><ele>8</ele></trkpt>      <trkpt lat="47.59499" lon="-3.13228"><ele>8</ele></trkpt>      <trkpt lat="47.59555" lon="-3.13283"><ele>9</ele></trkpt>      <trkpt lat="47.59589" lon="-3.13188"><ele>9</ele></trkpt>      <trkpt lat="47.59599" lon="-3.13187"><ele>9</ele></trkpt>      <trkpt lat="47.59699" lon="-3.13422"><ele>9</ele></trkpt>      <trkpt lat="47.59768" lon="-3.13564"><ele>9</ele></trkpt>      <trkpt lat="47.59820" lon="-3.13655"><ele>9</ele></trkpt>      <trkpt lat="47.59912" lon="-3.13740"><ele>9</ele></trkpt>      <trkpt lat="47.59908" lon="-3.13796"><ele>9</ele></trkpt>      <trkpt lat="47.59913" lon="-3.13813"><ele>9</ele></trkpt>      <trkpt lat="47.60115" lon="-3.13840"><ele>9</ele></trkpt>      <trkpt lat="47.60348" lon="-3.13824"><ele>9</ele></trkpt>      <trkpt lat="47.60539" lon="-3.13864"><ele>9</ele></trkpt>      <trkpt lat="47.60662" lon="-3.13834"><ele>9</ele></trkpt>      <trkpt lat="47.60682" lon="-3.13846"><ele>9</ele></trkpt>      <trkpt lat="47.60701" lon="-3.13877"><ele>9</ele></trkpt>      <trkpt lat="47.60737" lon="-3.13883"><ele>10</ele></trkpt>      <trkpt lat="47.60758" lon="-3.13908"><ele>10</ele></trkpt>      <trkpt lat="47.60825" lon="-3.13922"><ele>11</ele></trkpt>      <trkpt lat="47.60861" lon="-3.13955"><ele>11</ele></trkpt>      <trkpt lat="47.60924" lon="-3.13940"><ele>12</ele></trkpt>      <trkpt lat="47.61003" lon="-3.14108"><ele>11</ele></trkpt>      <trkpt lat="47.61018" lon="-3.14158"><ele>11</ele></trkpt>      <trkpt lat="47.61147" lon="-3.14469"><ele>11</ele></trkpt>      <trkpt lat="47.61201" lon="-3.14566"><ele>11</ele></trkpt>      <trkpt lat="47.61234" lon="-3.14660"><ele>11</ele></trkpt>      <trkpt lat="47.61280" lon="-3.14729"><ele>11</ele></trkpt>      <trkpt lat="47.61392" lon="-3.14646"><ele>11</ele></trkpt>      <trkpt lat="47.61387" lon="-3.14736"><ele>11</ele></trkpt>      <trkpt lat="47.61469" lon="-3.15081"><ele>11</ele></trkpt>      <trkpt lat="47.61602" lon="-3.15761"><ele>10</ele></trkpt>      <trkpt lat="47.61623" lon="-3.15913"><ele>10</ele></trkpt>      <trkpt lat="47.61633" lon="-3.16072"><ele>10</ele></trkpt>      <trkpt lat="47.61565" lon="-3.16153"><ele>10</ele></trkpt>      <trkpt lat="47.61529" lon="-3.16253"><ele>11</ele></trkpt>      <trkpt lat="47.61514" lon="-3.16415"><ele>11</ele></trkpt>      <trkpt lat="47.61489" lon="-3.16453"><ele>11</ele></trkpt>      <trkpt lat="47.61465" lon="-3.16567"><ele>11</ele></trkpt>      <trkpt lat="47.61431" lon="-3.16637"><ele>9</ele></trkpt>      <trkpt lat="47.61426" lon="-3.16678"><ele>8</ele></trkpt>      <trkpt lat="47.61361" lon="-3.16715"><ele>7</ele></trkpt>      <trkpt lat="47.61260" lon="-3.16802"><ele>7</ele></trkpt>      <trkpt lat="47.61252" lon="-3.16806"><ele>6</ele></trkpt>      <trkpt lat="47.61350" lon="-3.17002"><ele>6</ele></trkpt>      <trkpt lat="47.61381" lon="-3.17047"><ele>6</ele></trkpt>      <trkpt lat="47.61405" lon="-3.17067"><ele>6</ele></trkpt>      <trkpt lat="47.61426" lon="-3.17127"><ele>6</ele></trkpt>      <trkpt lat="47.61452" lon="-3.17171"><ele>6</ele></trkpt>      <trkpt lat="47.61521" lon="-3.17224"><ele>7</ele></trkpt>      <trkpt lat="47.61513" lon="-3.17278"><ele>7</ele></trkpt>      <trkpt lat="47.61481" lon="-3.17338"><ele>7</ele></trkpt>      <trkpt lat="47.61475" lon="-3.17440"><ele>7</ele></trkpt>      <trkpt lat="47.61484" lon="-3.17516"><ele>7</ele></trkpt>      <trkpt lat="47.61521" lon="-3.17597"><ele>7</ele></trkpt>      <trkpt lat="47.61531" lon="-3.17604"><ele>7</ele></trkpt>      <trkpt lat="47.61650" lon="-3.17585"><ele>8</ele></trkpt>      <trkpt lat="47.61747" lon="-3.17599"><ele>10</ele></trkpt>      <trkpt lat="47.61824" lon="-3.17629"><ele>10</ele></trkpt>      <trkpt lat="47.61850" lon="-3.17655"><ele>9</ele></trkpt>      <trkpt lat="47.61883" lon="-3.17707"><ele>9</ele></trkpt>      <trkpt lat="47.61983" lon="-3.17810"><ele>9</ele></trkpt>      <trkpt lat="47.62065" lon="-3.17852"><ele>9</ele></trkpt>      <trkpt lat="47.62099" lon="-3.17905"><ele>9</ele></trkpt>      <trkpt lat="47.62186" lon="-3.18001"><ele>9</ele></trkpt>      <trkpt lat="47.62299" lon="-3.17981"><ele>9</ele></trkpt>      <trkpt lat="47.62336" lon="-3.17986"><ele>9</ele></trkpt>      <trkpt lat="47.62370" lon="-3.18003"><ele>8</ele></trkpt>      <trkpt lat="47.62334" lon="-3.18020"><ele>8</ele></trkpt>      <trkpt lat="47.62299" lon="-3.18051"><ele>8</ele></trkpt>      <trkpt lat="47.62283" lon="-3.18088"><ele>8</ele></trkpt>      <trkpt lat="47.62274" lon="-3.18244"><ele>8</ele></trkpt>      <trkpt lat="47.62294" lon="-3.18370"><ele>8</ele></trkpt>      <trkpt lat="47.62237" lon="-3.18681"><ele>8</ele></trkpt>      <trkpt lat="47.62235" lon="-3.18786"><ele>8</ele></trkpt>      <trkpt lat="47.62280" lon="-3.18953"><ele>7</ele></trkpt>      <trkpt lat="47.62256" lon="-3.19156"><ele>7</ele></trkpt>      <trkpt lat="47.62271" lon="-3.19235"><ele>7</ele></trkpt>      <trkpt lat="47.62263" lon="-3.19249"><ele>7</ele></trkpt>      <trkpt lat="47.62247" lon="-3.19252"><ele>7</ele></trkpt>      <trkpt lat="47.62248" lon="-3.19273"><ele>7</ele></trkpt>      <trkpt lat="47.62299" lon="-3.19409"><ele>7</ele></trkpt>      <trkpt lat="47.62405" lon="-3.19640"><ele>7</ele></trkpt>      <trkpt lat="47.62424" lon="-3.19668"><ele>6</ele></trkpt>      <trkpt lat="47.62913" lon="-3.19679"><ele>6</ele></trkpt>      <trkpt lat="47.63037" lon="-3.19783"><ele>6</ele></trkpt>      <trkpt lat="47.63230" lon="-3.19921"><ele>6</ele></trkpt>      <trkpt lat="47.63319" lon="-3.20037"><ele>6</ele></trkpt>      <trkpt lat="47.63342" lon="-3.20046"><ele>6</ele></trkpt>      <trkpt lat="47.63369" lon="-3.20039"><ele>6</ele></trkpt>      <trkpt lat="47.63408" lon="-3.20091"><ele>6</ele></trkpt>      <trkpt lat="47.63711" lon="-3.20342"><ele>6</ele></trkpt>      <trkpt lat="47.63735" lon="-3.20345"><ele>5</ele></trkpt>      <trkpt lat="47.63777" lon="-3.20283"><ele>5</ele></trkpt>      <trkpt lat="47.63835" lon="-3.20237"><ele>5</ele></trkpt>      <trkpt lat="47.63856" lon="-3.20240"><ele>5</ele></trkpt>      <trkpt lat="47.63932" lon="-3.20295"><ele>5</ele></trkpt>      <trkpt lat="47.63976" lon="-3.20302"><ele>4</ele></trkpt>      <trkpt lat="47.64095" lon="-3.20379"><ele>4</ele></trkpt>      <trkpt lat="47.64187" lon="-3.20468"><ele>5</ele></trkpt>      <trkpt lat="47.64372" lon="-3.20688"><ele>5</ele></trkpt>      <trkpt lat="47.64410" lon="-3.20696"><ele>6</ele></trkpt>      <trkpt lat="47.64513" lon="-3.20505"><ele>8</ele></trkpt>      <trkpt lat="47.64566" lon="-3.20424"><ele>9</ele></trkpt>      <trkpt lat="47.64616" lon="-3.20371"><ele>9</ele></trkpt>      <trkpt lat="47.64787" lon="-3.20281"><ele>9</ele></trkpt>      <trkpt lat="47.64955" lon="-3.20154"><ele>8</ele></trkpt>      <trkpt lat="47.65067" lon="-3.20186"><ele>8</ele></trkpt>      <trkpt lat="47.65077" lon="-3.20199"><ele>8</ele></trkpt>      <trkpt lat="47.65174" lon="-3.20198"><ele>5</ele></trkpt>      <trkpt lat="47.65191" lon="-3.20206"><ele>4</ele></trkpt>      <trkpt lat="47.65269" lon="-3.20190"><ele>3</ele></trkpt>      <trkpt lat="47.65340" lon="-3.20200"><ele>3</ele></trkpt>      <trkpt lat="47.65423" lon="-3.20223"><ele>3</ele></trkpt>      <trkpt lat="47.65534" lon="-3.20287"><ele>4</ele></trkpt>      <trkpt lat="47.65547" lon="-3.20306"><ele>4</ele></trkpt>      <trkpt lat="47.65558" lon="-3.20351"><ele>4</ele></trkpt>      <trkpt lat="47.65549" lon="-3.20513"><ele>3</ele></trkpt>      <trkpt lat="47.65554" lon="-3.20517"><ele>3</ele></trkpt>      <trkpt lat="47.65551" lon="-3.20537"><ele>3</ele></trkpt>      <trkpt lat="47.65603" lon="-3.20668"><ele>3</ele></trkpt>      <trkpt lat="47.65645" lon="-3.20701"><ele>3</ele></trkpt>      <trkpt lat="47.65687" lon="-3.20705"><ele>2</ele></trkpt>      <trkpt lat="47.65679" lon="-3.20736"><ele>1</ele></trkpt>      <trkpt lat="47.65652" lon="-3.20733"><ele>1</ele></trkpt>      <trkpt lat="47.65652" lon="-3.20744"><ele>1</ele></trkpt>      <trkpt lat="47.65683" lon="-3.20749"><ele>1</ele></trkpt>      <trkpt lat="47.65983" lon="-3.21136"><ele>1</ele></trkpt>      <trkpt lat="47.65988" lon="-3.21136"><ele>1</ele></trkpt>      <trkpt lat="47.65988" lon="-3.21161"><ele>1</ele></trkpt>      <trkpt lat="47.65963" lon="-3.21162"><ele>1</ele></trkpt>      <trkpt lat="47.65961" lon="-3.21179"><ele>2</ele></trkpt>      <trkpt lat="47.65945" lon="-3.21187"><ele>3</ele></trkpt>      <trkpt lat="47.65956" lon="-3.21299"><ele>9</ele></trkpt>      <trkpt lat="47.65999" lon="-3.21382"><ele>9</ele></trkpt>      <trkpt lat="47.66086" lon="-3.21425"><ele>9</ele></trkpt>      <trkpt lat="47.66106" lon="-3.21448"><ele>9</ele></trkpt>      <trkpt lat="47.66198" lon="-3.21584"><ele>11</ele></trkpt>      <trkpt lat="47.66243" lon="-3.21745"><ele>13</ele></trkpt>      <trkpt lat="47.66268" lon="-3.21795"><ele>13</ele></trkpt>      <trkpt lat="47.66449" lon="-3.22066"><ele>14</ele></trkpt>      <trkpt lat="47.66507" lon="-3.22109"><ele>15</ele></trkpt>      <trkpt lat="47.66540" lon="-3.22117"><ele>15</ele></trkpt>      <trkpt lat="47.66603" lon="-3.22110"><ele>16</ele></trkpt>      <trkpt lat="47.66737" lon="-3.22047"><ele>18</ele></trkpt>      <trkpt lat="47.66801" lon="-3.22046"><ele>17</ele></trkpt>      <trkpt lat="47.66870" lon="-3.22064"><ele>16</ele></trkpt>      <trkpt lat="47.66868" lon="-3.22095"><ele>16</ele></trkpt>      <trkpt lat="47.66967" lon="-3.22443"><ele>19</ele></trkpt>      <trkpt lat="47.67074" lon="-3.22716"><ele>19</ele></trkpt>      <trkpt lat="47.67310" lon="-3.22987"><ele>17</ele></trkpt>      <trkpt lat="47.67568" lon="-3.23166"><ele>16</ele></trkpt>      <trkpt lat="47.67740" lon="-3.23293"><ele>16</ele></trkpt>      <trkpt lat="47.68030" lon="-3.23707"><ele>13</ele></trkpt>      <trkpt lat="47.68110" lon="-3.23811"><ele>13</ele></trkpt>      <trkpt lat="47.68175" lon="-3.23829"><ele>12</ele></trkpt>      <trkpt lat="47.68309" lon="-3.24310"><ele>11</ele></trkpt>      <trkpt lat="47.68385" lon="-3.24511"><ele>12</ele></trkpt>      <trkpt lat="47.68452" lon="-3.24726"><ele>12</ele></trkpt>      <trkpt lat="47.68462" lon="-3.24768"><ele>12</ele></trkpt>      <trkpt lat="47.68455" lon="-3.24891"><ele>11</ele></trkpt>      <trkpt lat="47.68462" lon="-3.24966"><ele>10</ele></trkpt>      <trkpt lat="47.68674" lon="-3.24920"><ele>16</ele></trkpt>      <trkpt lat="47.68745" lon="-3.24954"><ele>18</ele></trkpt>      <trkpt lat="47.68868" lon="-3.24909"><ele>18</ele></trkpt>      <trkpt lat="47.68940" lon="-3.24955"><ele>17</ele></trkpt>      <trkpt lat="47.69027" lon="-3.25072"><ele>15</ele></trkpt>      <trkpt lat="47.69155" lon="-3.25129"><ele>14</ele></trkpt>      <trkpt lat="47.69261" lon="-3.25202"><ele>13</ele></trkpt>      <trkpt lat="47.69327" lon="-3.25224"><ele>14</ele></trkpt>      <trkpt lat="47.69422" lon="-3.25231"><ele>16</ele></trkpt>      <trkpt lat="47.69643" lon="-3.25182"><ele>18</ele></trkpt>      <trkpt lat="47.69680" lon="-3.25179"><ele>18</ele></trkpt>      <trkpt lat="47.69708" lon="-3.25145"><ele>18</ele></trkpt>      <trkpt lat="47.69744" lon="-3.25164"><ele>18</ele></trkpt>      <trkpt lat="47.69774" lon="-3.25235"><ele>18</ele></trkpt>      <trkpt lat="47.69932" lon="-3.25188"><ele>19</ele></trkpt>      <trkpt lat="47.70013" lon="-3.25213"><ele>19</ele></trkpt>      <trkpt lat="47.70103" lon="-3.25224"><ele>19</ele></trkpt>      <trkpt lat="47.70232" lon="-3.25280"><ele>19</ele></trkpt>      <trkpt lat="47.70271" lon="-3.25299"><ele>19</ele></trkpt>      <trkpt lat="47.70327" lon="-3.25325"><ele>19</ele></trkpt>      <trkpt lat="47.70424" lon="-3.25371"><ele>19</ele></trkpt>      <trkpt lat="47.70820" lon="-3.25503"><ele>19</ele></trkpt>      <trkpt lat="47.71256" lon="-3.25665"><ele>19</ele></trkpt>      <trkpt lat="47.71503" lon="-3.25804"><ele>19</ele></trkpt>      <trkpt lat="47.71749" lon="-3.25917"><ele>19</ele></trkpt>      <trkpt lat="47.71968" lon="-3.25968"><ele>19</ele></trkpt>      <trkpt lat="47.72158" lon="-3.25949"><ele>19</ele></trkpt>      <trkpt lat="47.72844" lon="-3.25678"><ele>19</ele></trkpt>      <trkpt lat="47.72905" lon="-3.25600"><ele>19</ele></trkpt>      <trkpt lat="47.72984" lon="-3.25585"><ele>19</ele></trkpt>      <trkpt lat="47.73002" lon="-3.25573"><ele>19</ele></trkpt>      <trkpt lat="47.73032" lon="-3.25635"><ele>19</ele></trkpt>      <trkpt lat="47.73169" lon="-3.25752"><ele>19</ele></trkpt>      <trkpt lat="47.73241" lon="-3.25891"><ele>19</ele></trkpt>      <trkpt lat="47.73477" lon="-3.26179"><ele>19</ele></trkpt>      <trkpt lat="47.73518" lon="-3.26278"><ele>19</ele></trkpt>      <trkpt lat="47.73563" lon="-3.26481"><ele>19</ele></trkpt>      <trkpt lat="47.73652" lon="-3.26677"><ele>25</ele></trkpt>      <trkpt lat="47.73695" lon="-3.26759"><ele>24</ele></trkpt>      <trkpt lat="47.73827" lon="-3.26911"><ele>22</ele></trkpt>      <trkpt lat="47.73888" lon="-3.27093"><ele>25</ele></trkpt>      <trkpt lat="47.73881" lon="-3.27289"><ele>25</ele></trkpt>      <trkpt lat="47.73809" lon="-3.27546"><ele>21</ele></trkpt>      <trkpt lat="47.73792" lon="-3.27701"><ele>16</ele></trkpt>      <trkpt lat="47.73798" lon="-3.27952"><ele>13</ele></trkpt>      <trkpt lat="47.73810" lon="-3.28045"><ele>12</ele></trkpt>      <trkpt lat="47.73860" lon="-3.28168"><ele>15</ele></trkpt>      <trkpt lat="47.73880" lon="-3.28430"><ele>17</ele></trkpt>      <trkpt lat="47.73866" lon="-3.28522"><ele>15</ele></trkpt>      <trkpt lat="47.73842" lon="-3.28584"><ele>14</ele></trkpt>      <trkpt lat="47.73828" lon="-3.28652"><ele>13</ele></trkpt>      <trkpt lat="47.73837" lon="-3.28921"><ele>18</ele></trkpt>      <trkpt lat="47.73847" lon="-3.28986"><ele>19</ele></trkpt>      <trkpt lat="47.73928" lon="-3.29224"><ele>24</ele></trkpt>      <trkpt lat="47.73981" lon="-3.29553"><ele>35</ele></trkpt>      <trkpt lat="47.74193" lon="-3.29516"><ele>38</ele></trkpt>      <trkpt lat="47.74330" lon="-3.29565"><ele>38</ele></trkpt>      <trkpt lat="47.74440" lon="-3.29583"><ele>38</ele></trkpt>      <trkpt lat="47.74501" lon="-3.29562"><ele>36</ele></trkpt>      <trkpt lat="47.74688" lon="-3.29669"><ele>24</ele></trkpt>      <trkpt lat="47.74712" lon="-3.29633"><ele>27</ele></trkpt>      <trkpt lat="47.74848" lon="-3.29322"><ele>33</ele></trkpt>      <trkpt lat="47.74879" lon="-3.29283"><ele>34</ele></trkpt>      <trkpt lat="47.74956" lon="-3.29252"><ele>35</ele></trkpt>      <trkpt lat="47.74995" lon="-3.29210"><ele>37</ele></trkpt>      <trkpt lat="47.75021" lon="-3.29173"><ele>37</ele></trkpt>      <trkpt lat="47.75059" lon="-3.29075"><ele>37</ele></trkpt>      <trkpt lat="47.75066" lon="-3.29056"><ele>36</ele></trkpt>      <trkpt lat="47.75085" lon="-3.29047"><ele>36</ele></trkpt>      <trkpt lat="47.75130" lon="-3.29103"><ele>36</ele></trkpt>      <trkpt lat="47.75141" lon="-3.29153"><ele>34</ele></trkpt>      <trkpt lat="47.75162" lon="-3.29187"><ele>33</ele></trkpt>      <trkpt lat="47.75187" lon="-3.29203"><ele>33</ele></trkpt>      <trkpt lat="47.75211" lon="-3.29203"><ele>33</ele></trkpt>      <trkpt lat="47.75264" lon="-3.29183"><ele>34</ele></trkpt>      <trkpt lat="47.75306" lon="-3.29146"><ele>34</ele></trkpt>      <trkpt lat="47.75376" lon="-3.29029"><ele>34</ele></trkpt>      <trkpt lat="47.75459" lon="-3.28840"><ele>37</ele></trkpt>      <trkpt lat="47.75497" lon="-3.28781"><ele>37</ele></trkpt>      <trkpt lat="47.75593" lon="-3.28667"><ele>37</ele></trkpt>      <trkpt lat="47.75657" lon="-3.28643"><ele>37</ele></trkpt>      <trkpt lat="47.75805" lon="-3.28645"><ele>37</ele></trkpt>      <trkpt lat="47.75965" lon="-3.28615"><ele>37</ele></trkpt>      <trkpt lat="47.76038" lon="-3.29015"><ele>39</ele></trkpt>      <trkpt lat="47.76014" lon="-3.29507"><ele>27</ele></trkpt>      <trkpt lat="47.76123" lon="-3.29468"><ele>25</ele></trkpt>      <trkpt lat="47.76147" lon="-3.29471"><ele>24</ele></trkpt>      <trkpt lat="47.76247" lon="-3.29519"><ele>23</ele></trkpt>      <trkpt lat="47.76278" lon="-3.29519"><ele>23</ele></trkpt>      <trkpt lat="47.76391" lon="-3.29525"><ele>23</ele></trkpt>      <trkpt lat="47.76483" lon="-3.29551"><ele>23</ele></trkpt>      <trkpt lat="47.76473" lon="-3.29610"><ele>23</ele></trkpt>      <trkpt lat="47.76372" lon="-3.29783"><ele>24</ele></trkpt>      <trkpt lat="47.76350" lon="-3.29800"><ele>24</ele></trkpt>      <trkpt lat="47.76385" lon="-3.29898"><ele>25</ele></trkpt>      <trkpt lat="47.76439" lon="-3.30035"><ele>25</ele></trkpt>      <trkpt lat="47.76564" lon="-3.30365"><ele>27</ele></trkpt>      <trkpt lat="47.76613" lon="-3.30508"><ele>28</ele></trkpt>      <trkpt lat="47.76642" lon="-3.30621"><ele>27</ele></trkpt>      <trkpt lat="47.76630" lon="-3.30631"><ele>27</ele></trkpt>      <trkpt lat="47.76628" lon="-3.30620"><ele>27</ele></trkpt>      <trkpt lat="47.76625" lon="-3.30641"><ele>27</ele></trkpt>      <trkpt lat="47.76618" lon="-3.30670"><ele>26</ele></trkpt>      <trkpt lat="47.76642" lon="-3.30954"><ele>24</ele></trkpt>      <trkpt lat="47.76490" lon="-3.31179"><ele>25</ele></trkpt>      <trkpt lat="47.76437" lon="-3.31303"><ele>26</ele></trkpt>      <trkpt lat="47.76401" lon="-3.31490"><ele>33</ele></trkpt>      <trkpt lat="47.76485" lon="-3.31727"><ele>32</ele></trkpt>      <trkpt lat="47.76496" lon="-3.31725"><ele>31</ele></trkpt>      <trkpt lat="47.76493" lon="-3.31745"><ele>31</ele></trkpt>      <trkpt lat="47.76504" lon="-3.31777"><ele>30</ele></trkpt>      <trkpt lat="47.76622" lon="-3.31976"><ele>20</ele></trkpt>      <trkpt lat="47.76640" lon="-3.32027"><ele>18</ele></trkpt>      <trkpt lat="47.76656" lon="-3.32169"><ele>12</ele></trkpt>      <trkpt lat="47.76670" lon="-3.32471"><ele>7</ele></trkpt>      <trkpt lat="47.76618" lon="-3.32668"><ele>5</ele></trkpt>      <trkpt lat="47.76577" lon="-3.32895"><ele>5</ele></trkpt>      <trkpt lat="47.76583" lon="-3.32897"><ele>5</ele></trkpt>      <trkpt lat="47.76592" lon="-3.32900"><ele>5</ele></trkpt>      <trkpt lat="47.76610" lon="-3.32918"><ele>5</ele></trkpt>      <trkpt lat="47.76682" lon="-3.32928"><ele>5</ele></trkpt>      <trkpt lat="47.76785" lon="-3.32966"><ele>4</ele></trkpt>      <trkpt lat="47.77063" lon="-3.33155"><ele>6</ele></trkpt>      <trkpt lat="47.77082" lon="-3.33147"><ele>7</ele></trkpt>      <trkpt lat="47.77097" lon="-3.33175"><ele>7</ele></trkpt>      <trkpt lat="47.77185" lon="-3.33238"><ele>9</ele></trkpt>      <trkpt lat="47.77241" lon="-3.33303"><ele>10</ele></trkpt>      <trkpt lat="47.77280" lon="-3.33368"><ele>12</ele></trkpt>      <trkpt lat="47.77289" lon="-3.33406"><ele>14</ele></trkpt>      <trkpt lat="47.77307" lon="-3.33431"><ele>15</ele></trkpt>      <trkpt lat="47.77308" lon="-3.33451"><ele>16</ele></trkpt>      <trkpt lat="47.77346" lon="-3.33546"><ele>18</ele></trkpt>      <trkpt lat="47.77356" lon="-3.33573"><ele>18</ele></trkpt>      <trkpt lat="47.77408" lon="-3.33707"><ele>17</ele></trkpt>      <trkpt lat="47.77419" lon="-3.33756"><ele>15</ele></trkpt>      <trkpt lat="47.77461" lon="-3.33814"><ele>13</ele></trkpt>      <trkpt lat="47.77455" lon="-3.33840"><ele>12</ele></trkpt>      <trkpt lat="47.77539" lon="-3.33873"><ele>9</ele></trkpt>      <trkpt lat="47.77616" lon="-3.33885"><ele>7</ele></trkpt>      <trkpt lat="47.77625" lon="-3.33906"><ele>7</ele></trkpt>      <trkpt lat="47.77612" lon="-3.33977"><ele>7</ele></trkpt>      <trkpt lat="47.77657" lon="-3.34004"><ele>8</ele></trkpt>      <trkpt lat="47.77682" lon="-3.34048"><ele>9</ele></trkpt>      <trkpt lat="47.77701" lon="-3.34101"><ele>10</ele></trkpt>      <trkpt lat="47.77723" lon="-3.34365"><ele>16</ele></trkpt>      <trkpt lat="47.77719" lon="-3.34448"><ele>16</ele></trkpt>      <trkpt lat="47.77731" lon="-3.34450"><ele>16</ele></trkpt>      <trkpt lat="47.77758" lon="-3.34534"><ele>16</ele></trkpt>      <trkpt lat="47.77817" lon="-3.34548"><ele>15</ele></trkpt>      <trkpt lat="47.77850" lon="-3.34570"><ele>15</ele></trkpt>      <trkpt lat="47.77860" lon="-3.34694"><ele>12</ele></trkpt>      <trkpt lat="47.77890" lon="-3.34695"><ele>12</ele></trkpt>      <trkpt lat="47.77911" lon="-3.34709"><ele>12</ele></trkpt>      <trkpt lat="47.77921" lon="-3.34693"><ele>12</ele></trkpt>      <trkpt lat="47.77908" lon="-3.34648"><ele>13</ele></trkpt>      <trkpt lat="47.77912" lon="-3.34633"><ele>13</ele></trkpt>      <trkpt lat="47.77923" lon="-3.34630"><ele>13</ele></trkpt>      <trkpt lat="47.78002" lon="-3.34677"><ele>13</ele></trkpt>      <trkpt lat="47.78035" lon="-3.34701"><ele>12</ele></trkpt>      <trkpt lat="47.78058" lon="-3.34740"><ele>12</ele></trkpt>      <trkpt lat="47.78102" lon="-3.34751"><ele>12</ele></trkpt>      <trkpt lat="47.78133" lon="-3.34801"><ele>11</ele></trkpt>      <trkpt lat="47.78153" lon="-3.34806"><ele>11</ele></trkpt>      <trkpt lat="47.78378" lon="-3.35036"><ele>13</ele></trkpt>      <trkpt lat="47.78404" lon="-3.35078"><ele>14</ele></trkpt>      <trkpt lat="47.78593" lon="-3.35255"><ele>19</ele></trkpt>      <trkpt lat="47.78713" lon="-3.35301"><ele>23</ele></trkpt>      <trkpt lat="47.78834" lon="-3.35324"><ele>26</ele></trkpt>      <trkpt lat="47.79120" lon="-3.35303"><ele>33</ele></trkpt>      <trkpt lat="47.79229" lon="-3.35334"><ele>32</ele></trkpt>      <trkpt lat="47.79296" lon="-3.35323"><ele>32</ele></trkpt>      <trkpt lat="47.79625" lon="-3.35137"><ele>36</ele></trkpt>      <trkpt lat="47.79676" lon="-3.35181"><ele>36</ele></trkpt>      <trkpt lat="47.79725" lon="-3.35293"><ele>34</ele></trkpt>      <trkpt lat="47.79765" lon="-3.35354"><ele>31</ele></trkpt>      <trkpt lat="47.79806" lon="-3.35398"><ele>29</ele></trkpt>      <trkpt lat="47.79933" lon="-3.35499"><ele>30</ele></trkpt>      <trkpt lat="47.80036" lon="-3.35539"><ele>30</ele></trkpt>      <trkpt lat="47.80071" lon="-3.35577"><ele>29</ele></trkpt>      <trkpt lat="47.80128" lon="-3.35675"><ele>28</ele></trkpt>      <trkpt lat="47.80307" lon="-3.35909"><ele>25</ele></trkpt>      <trkpt lat="47.80361" lon="-3.35960"><ele>20</ele></trkpt>      <trkpt lat="47.80464" lon="-3.36041"><ele>27</ele></trkpt>      <trkpt lat="47.80526" lon="-3.36153"><ele>32</ele></trkpt>      <trkpt lat="47.80665" lon="-3.36250"><ele>38</ele></trkpt>      <trkpt lat="47.80738" lon="-3.36224"><ele>40</ele></trkpt>      <trkpt lat="47.80800" lon="-3.36228"><ele>41</ele></trkpt>      <trkpt lat="47.80838" lon="-3.36235"><ele>41</ele></trkpt>      <trkpt lat="47.80890" lon="-3.36276"><ele>41</ele></trkpt>      <trkpt lat="47.80935" lon="-3.36336"><ele>39</ele></trkpt>      <trkpt lat="47.80966" lon="-3.36359"><ele>38</ele></trkpt>      <trkpt lat="47.81002" lon="-3.36367"><ele>37</ele></trkpt>      <trkpt lat="47.81145" lon="-3.36345"><ele>37</ele></trkpt>      <trkpt lat="47.81196" lon="-3.36358"><ele>37</ele></trkpt>      <trkpt lat="47.81537" lon="-3.36291"><ele>38</ele></trkpt>      <trkpt lat="47.81608" lon="-3.36313"><ele>38</ele></trkpt>      <trkpt lat="47.81783" lon="-3.36313"><ele>38</ele></trkpt>      <trkpt lat="47.81849" lon="-3.36333"><ele>37</ele></trkpt>      <trkpt lat="47.81906" lon="-3.36366"><ele>37</ele></trkpt>      <trkpt lat="47.81964" lon="-3.36377"><ele>36</ele></trkpt>      <trkpt lat="47.81996" lon="-3.36378"><ele>36</ele></trkpt>      <trkpt lat="47.82121" lon="-3.36345"><ele>36</ele></trkpt>      <trkpt lat="47.82179" lon="-3.36317"><ele>34</ele></trkpt>      <trkpt lat="47.82200" lon="-3.36290"><ele>32</ele></trkpt>      <trkpt lat="47.82223" lon="-3.36229"><ele>31</ele></trkpt>      <trkpt lat="47.82413" lon="-3.36404"><ele>28</ele></trkpt>      <trkpt lat="47.82530" lon="-3.36453"><ele>27</ele></trkpt>      <trkpt lat="47.82683" lon="-3.36580"><ele>31</ele></trkpt>      <trkpt lat="47.82737" lon="-3.36583"><ele>36</ele></trkpt>      <trkpt lat="47.82765" lon="-3.36597"><ele>37</ele></trkpt>      <trkpt lat="47.82821" lon="-3.36652"><ele>37</ele></trkpt>      <trkpt lat="47.82979" lon="-3.36691"><ele>35</ele></trkpt>      <trkpt lat="47.83136" lon="-3.36792"><ele>36</ele></trkpt>      <trkpt lat="47.83174" lon="-3.36827"><ele>37</ele></trkpt>      <trkpt lat="47.83234" lon="-3.36978"><ele>37</ele></trkpt>      <trkpt lat="47.83255" lon="-3.37020"><ele>37</ele></trkpt>      <trkpt lat="47.83324" lon="-3.37091"><ele>37</ele></trkpt>      <trkpt lat="47.83408" lon="-3.37137"><ele>35</ele></trkpt>      <trkpt lat="47.83401" lon="-3.37240"><ele>33</ele></trkpt>      <trkpt lat="47.83407" lon="-3.37648"><ele>39</ele></trkpt>      <trkpt lat="47.83402" lon="-3.37686"><ele>40</ele></trkpt>      <trkpt lat="47.83171" lon="-3.38230"><ele>36</ele></trkpt>      <trkpt lat="47.83166" lon="-3.38316"><ele>34</ele></trkpt>      <trkpt lat="47.83198" lon="-3.38458"><ele>30</ele></trkpt>      <trkpt lat="47.83228" lon="-3.38590"><ele>27</ele></trkpt>      <trkpt lat="47.83286" lon="-3.38734"><ele>23</ele></trkpt>      <trkpt lat="47.83387" lon="-3.38818"><ele>19</ele></trkpt>      <trkpt lat="47.83507" lon="-3.38998"><ele>15</ele></trkpt>      <trkpt lat="47.83620" lon="-3.39236"><ele>12</ele></trkpt>      <trkpt lat="47.83646" lon="-3.39367"><ele>12</ele></trkpt>      <trkpt lat="47.83655" lon="-3.39417"><ele>13</ele></trkpt>      <trkpt lat="47.83657" lon="-3.39445"><ele>13</ele></trkpt>      <trkpt lat="47.83647" lon="-3.39480"><ele>14</ele></trkpt>      <trkpt lat="47.83574" lon="-3.39516"><ele>17</ele></trkpt>      <trkpt lat="47.83558" lon="-3.39545"><ele>18</ele></trkpt>      <trkpt lat="47.83561" lon="-3.39599"><ele>20</ele></trkpt>      <trkpt lat="47.83598" lon="-3.39829"><ele>28</ele></trkpt>      <trkpt lat="47.83595" lon="-3.39889"><ele>30</ele></trkpt>      <trkpt lat="47.83539" lon="-3.39972"><ele>33</ele></trkpt>      <trkpt lat="47.83474" lon="-3.40015"><ele>36</ele></trkpt>      <trkpt lat="47.83722" lon="-3.40301"><ele>37</ele></trkpt>      <trkpt lat="47.83715" lon="-3.40313"><ele>37</ele></trkpt>      <trkpt lat="47.83744" lon="-3.40323"><ele>38</ele></trkpt>      <trkpt lat="47.83814" lon="-3.40381"><ele>40</ele></trkpt>      <trkpt lat="47.83837" lon="-3.40380"><ele>41</ele></trkpt>      <trkpt lat="47.83835" lon="-3.40418"><ele>41</ele></trkpt>      <trkpt lat="47.83821" lon="-3.40477"><ele>41</ele></trkpt>      <trkpt lat="47.83826" lon="-3.40482"><ele>41</ele></trkpt>      <trkpt lat="47.83835" lon="-3.40471"><ele>42</ele></trkpt>      <trkpt lat="47.83847" lon="-3.40391"><ele>42</ele></trkpt>      <trkpt lat="47.83854" lon="-3.40387"><ele>42</ele></trkpt>      <trkpt lat="47.83856" lon="-3.40396"><ele>42</ele></trkpt>      <trkpt lat="47.83870" lon="-3.40378"><ele>42</ele></trkpt>      <trkpt lat="47.84105" lon="-3.40294"><ele>51</ele></trkpt>      <trkpt lat="47.84138" lon="-3.40308"><ele>51</ele></trkpt>      <trkpt lat="47.84164" lon="-3.40347"><ele>50</ele></trkpt>      <trkpt lat="47.84247" lon="-3.40648"><ele>51</ele></trkpt>      <trkpt lat="47.84357" lon="-3.40815"><ele>52</ele></trkpt>      <trkpt lat="47.84421" lon="-3.40935"><ele>52</ele></trkpt>      <trkpt lat="47.84454" lon="-3.40966"><ele>52</ele></trkpt>      <trkpt lat="47.84589" lon="-3.41018"><ele>52</ele></trkpt>      <trkpt lat="47.84754" lon="-3.41086"><ele>52</ele></trkpt>      <trkpt lat="47.84869" lon="-3.41149"><ele>53</ele></trkpt>      <trkpt lat="47.85055" lon="-3.41214"><ele>55</ele></trkpt>      <trkpt lat="47.85158" lon="-3.41267"><ele>57</ele></trkpt>      <trkpt lat="47.85316" lon="-3.41478"><ele>62</ele></trkpt>      <trkpt lat="47.85343" lon="-3.41518"><ele>63</ele></trkpt>      <trkpt lat="47.85392" lon="-3.41631"><ele>64</ele></trkpt>      <trkpt lat="47.85487" lon="-3.41874"><ele>65</ele></trkpt>      <trkpt lat="47.85628" lon="-3.42170"><ele>65</ele></trkpt>      <trkpt lat="47.85943" lon="-3.43129"><ele>66</ele></trkpt>      <trkpt lat="47.86138" lon="-3.43716"><ele>68</ele></trkpt>      <trkpt lat="47.86435" lon="-3.44237"><ele>67</ele></trkpt>      <trkpt lat="47.86496" lon="-3.44353"><ele>67</ele></trkpt>      <trkpt lat="47.86626" lon="-3.44472"><ele>67</ele></trkpt>      <trkpt lat="47.86852" lon="-3.44602"><ele>67</ele></trkpt>      <trkpt lat="47.86973" lon="-3.44645"><ele>67</ele></trkpt>      <trkpt lat="47.87250" lon="-3.44834"><ele>67</ele></trkpt>      <trkpt lat="47.87468" lon="-3.44983"><ele>70</ele></trkpt>      <trkpt lat="47.87557" lon="-3.45032"><ele>72</ele></trkpt>      <trkpt lat="47.87669" lon="-3.45128"><ele>73</ele></trkpt>      <trkpt lat="47.87717" lon="-3.45151"><ele>74</ele></trkpt>      <trkpt lat="47.87853" lon="-3.45161"><ele>75</ele></trkpt>      <trkpt lat="47.87853" lon="-3.45248"><ele>74</ele></trkpt>      <trkpt lat="47.87878" lon="-3.45556"><ele>69</ele></trkpt>      <trkpt lat="47.87862" lon="-3.45776"><ele>70</ele></trkpt>      <trkpt lat="47.87880" lon="-3.46052"><ele>73</ele></trkpt>      <trkpt lat="47.88014" lon="-3.46026"><ele>72</ele></trkpt>      <trkpt lat="47.88112" lon="-3.45987"><ele>72</ele></trkpt>      <trkpt lat="47.88393" lon="-3.45910"><ele>73</ele></trkpt>      <trkpt lat="47.88473" lon="-3.45894"><ele>68</ele></trkpt>      <trkpt lat="47.88600" lon="-3.45900"><ele>70</ele></trkpt>      <trkpt lat="47.88716" lon="-3.45885"><ele>71</ele></trkpt>      <trkpt lat="47.88811" lon="-3.45867"><ele>70</ele></trkpt>      <trkpt lat="47.88944" lon="-3.45814"><ele>76</ele></trkpt>      <trkpt lat="47.88980" lon="-3.45811"><ele>77</ele></trkpt>      <trkpt lat="47.89049" lon="-3.45689"><ele>77</ele></trkpt>      <trkpt lat="47.89115" lon="-3.45601"><ele>78</ele></trkpt>      <trkpt lat="47.89151" lon="-3.45562"><ele>78</ele></trkpt>      <trkpt lat="47.89347" lon="-3.45404"><ele>80</ele></trkpt>      <trkpt lat="47.89446" lon="-3.45264"><ele>80</ele></trkpt>      <trkpt lat="47.89915" lon="-3.45336"><ele>74</ele></trkpt>      <trkpt lat="47.89905" lon="-3.45416"><ele>73</ele></trkpt>      <trkpt lat="47.89849" lon="-3.45555"><ele>72</ele></trkpt>      <trkpt lat="47.89819" lon="-3.45740"><ele>75</ele></trkpt>      <trkpt lat="47.89818" lon="-3.45860"><ele>74</ele></trkpt>      <trkpt lat="47.89838" lon="-3.46070"><ele>74</ele></trkpt>      <trkpt lat="47.89834" lon="-3.46179"><ele>73</ele></trkpt>      <trkpt lat="47.89850" lon="-3.46373"><ele>68</ele></trkpt>      <trkpt lat="47.89849" lon="-3.46677"><ele>60</ele></trkpt>      <trkpt lat="47.89897" lon="-3.46865"><ele>51</ele></trkpt>      <trkpt lat="47.89917" lon="-3.46895"><ele>49</ele></trkpt>      <trkpt lat="47.89944" lon="-3.46909"><ele>48</ele></trkpt>      <trkpt lat="47.89984" lon="-3.46906"><ele>46</ele></trkpt>      <trkpt lat="47.90103" lon="-3.46855"><ele>41</ele></trkpt>      <trkpt lat="47.90135" lon="-3.46862"><ele>40</ele></trkpt>      <trkpt lat="47.90189" lon="-3.46915"><ele>37</ele></trkpt>      <trkpt lat="47.90221" lon="-3.46930"><ele>35</ele></trkpt>      <trkpt lat="47.90254" lon="-3.46915"><ele>33</ele></trkpt>      <trkpt lat="47.90296" lon="-3.46875"><ele>31</ele></trkpt>      <trkpt lat="47.90383" lon="-3.46852"><ele>27</ele></trkpt>      <trkpt lat="47.90416" lon="-3.46853"><ele>26</ele></trkpt>      <trkpt lat="47.90429" lon="-3.46877"><ele>25</ele></trkpt>      <trkpt lat="47.90427" lon="-3.47334"><ele>26</ele></trkpt>      <trkpt lat="47.90436" lon="-3.47395"><ele>26</ele></trkpt>      <trkpt lat="47.90513" lon="-3.47553"><ele>26</ele></trkpt>      <trkpt lat="47.90538" lon="-3.47587"><ele>26</ele></trkpt>      <trkpt lat="47.90902" lon="-3.47580"><ele>31</ele></trkpt>      <trkpt lat="47.90915" lon="-3.47630"><ele>31</ele></trkpt>      <trkpt lat="47.90918" lon="-3.47689"><ele>33</ele></trkpt>      <trkpt lat="47.90931" lon="-3.47762"><ele>40</ele></trkpt>      <trkpt lat="47.90956" lon="-3.47785"><ele>43</ele></trkpt>      <trkpt lat="47.91008" lon="-3.47802"><ele>48</ele></trkpt>      <trkpt lat="47.91023" lon="-3.47818"><ele>50</ele></trkpt>      <trkpt lat="47.91033" lon="-3.47850"><ele>51</ele></trkpt>      <trkpt lat="47.91025" lon="-3.48065"><ele>63</ele></trkpt>      <trkpt lat="47.90985" lon="-3.48168"><ele>69</ele></trkpt>      <trkpt lat="47.90981" lon="-3.48288"><ele>75</ele></trkpt>      <trkpt lat="47.90988" lon="-3.48360"><ele>78</ele></trkpt>      <trkpt lat="47.91032" lon="-3.48505"><ele>82</ele></trkpt>      <trkpt lat="47.91052" lon="-3.48610"><ele>83</ele></trkpt>      <trkpt lat="47.91063" lon="-3.48602"><ele>83</ele></trkpt>      <trkpt lat="47.91173" lon="-3.48597"><ele>84</ele></trkpt>      <trkpt lat="47.91423" lon="-3.48681"><ele>85</ele></trkpt>      <trkpt lat="47.91447" lon="-3.48698"><ele>85</ele></trkpt>      <trkpt lat="47.91586" lon="-3.48851"><ele>82</ele></trkpt>      <trkpt lat="47.91636" lon="-3.48874"><ele>81</ele></trkpt>      <trkpt lat="47.91741" lon="-3.48866"><ele>82</ele></trkpt>      <trkpt lat="47.91791" lon="-3.48875"><ele>82</ele></trkpt>      <trkpt lat="47.91821" lon="-3.48909"><ele>84</ele></trkpt>      <trkpt lat="47.91851" lon="-3.48978"><ele>87</ele></trkpt>      <trkpt lat="47.91924" lon="-3.49047"><ele>91</ele></trkpt>      <trkpt lat="47.92042" lon="-3.49161"><ele>95</ele></trkpt>      <trkpt lat="47.92143" lon="-3.49286"><ele>92</ele></trkpt>      <trkpt lat="47.92165" lon="-3.49332"><ele>90</ele></trkpt>      <trkpt lat="47.92181" lon="-3.49449"><ele>88</ele></trkpt>      <trkpt lat="47.92202" lon="-3.49503"><ele>87</ele></trkpt>      <trkpt lat="47.92270" lon="-3.49601"><ele>88</ele></trkpt>      <trkpt lat="47.92339" lon="-3.49676"><ele>89</ele></trkpt>      <trkpt lat="47.92420" lon="-3.49829"><ele>90</ele></trkpt>      <trkpt lat="47.92430" lon="-3.49821"><ele>90</ele></trkpt>      <trkpt lat="47.92447" lon="-3.49843"><ele>91</ele></trkpt>      <trkpt lat="47.92574" lon="-3.49904"><ele>92</ele></trkpt>      <trkpt lat="47.92671" lon="-3.49973"><ele>90</ele></trkpt>      <trkpt lat="47.92651" lon="-3.50109"><ele>89</ele></trkpt>      <trkpt lat="47.92611" lon="-3.50250"><ele>91</ele></trkpt>      <trkpt lat="47.92591" lon="-3.50450"><ele>91</ele></trkpt>      <trkpt lat="47.92620" lon="-3.50541"><ele>90</ele></trkpt>      <trkpt lat="47.92619" lon="-3.50575"><ele>88</ele></trkpt>      <trkpt lat="47.92606" lon="-3.50621"><ele>88</ele></trkpt>      <trkpt lat="47.92607" lon="-3.50658"><ele>87</ele></trkpt>      <trkpt lat="47.92614" lon="-3.50685"><ele>87</ele></trkpt>      <trkpt lat="47.92655" lon="-3.50730"><ele>86</ele></trkpt>      <trkpt lat="47.92693" lon="-3.50836"><ele>85</ele></trkpt>      <trkpt lat="47.92678" lon="-3.51002"><ele>84</ele></trkpt>      <trkpt lat="47.92664" lon="-3.51074"><ele>84</ele></trkpt>      <trkpt lat="47.92711" lon="-3.51132"><ele>85</ele></trkpt>      <trkpt lat="47.92747" lon="-3.51151"><ele>85</ele></trkpt>      <trkpt lat="47.92780" lon="-3.51364"><ele>87</ele></trkpt>      <trkpt lat="47.93014" lon="-3.51275"><ele>88</ele></trkpt>      <trkpt lat="47.93137" lon="-3.51192"><ele>90</ele></trkpt>      <trkpt lat="47.93198" lon="-3.51165"><ele>93</ele></trkpt>      <trkpt lat="47.93272" lon="-3.51140"><ele>98</ele></trkpt>      <trkpt lat="47.93458" lon="-3.51115"><ele>95</ele></trkpt>      <trkpt lat="47.93692" lon="-3.50999"><ele>96</ele></trkpt>      <trkpt lat="47.93795" lon="-3.50947"><ele>99</ele></trkpt>      <trkpt lat="47.93892" lon="-3.50912"><ele>104</ele></trkpt>      <trkpt lat="47.93966" lon="-3.50908"><ele>108</ele></trkpt>      <trkpt lat="47.94273" lon="-3.50936"><ele>99</ele></trkpt>      <trkpt lat="47.94340" lon="-3.50898"><ele>98</ele></trkpt>      <trkpt lat="47.94427" lon="-3.50884"><ele>98</ele></trkpt>      <trkpt lat="47.94599" lon="-3.50807"><ele>103</ele></trkpt>      <trkpt lat="47.94621" lon="-3.50980"><ele>101</ele></trkpt>      <trkpt lat="47.94668" lon="-3.51073"><ele>100</ele></trkpt>      <trkpt lat="47.94720" lon="-3.51158"><ele>103</ele></trkpt>      <trkpt lat="47.94834" lon="-3.51235"><ele>107</ele></trkpt>      <trkpt lat="47.94902" lon="-3.51299"><ele>109</ele></trkpt>      <trkpt lat="47.94914" lon="-3.51364"><ele>111</ele></trkpt>      <trkpt lat="47.94912" lon="-3.51655"><ele>120</ele></trkpt>      <trkpt lat="47.94921" lon="-3.51697"><ele>122</ele></trkpt>      <trkpt lat="47.95030" lon="-3.51971"><ele>127</ele></trkpt>      <trkpt lat="47.95041" lon="-3.51996"><ele>127</ele></trkpt>      <trkpt lat="47.95042" lon="-3.52026"><ele>127</ele></trkpt>      <trkpt lat="47.95081" lon="-3.52068"><ele>128</ele></trkpt>      <trkpt lat="47.95104" lon="-3.52131"><ele>132</ele></trkpt>      <trkpt lat="47.95108" lon="-3.52287"><ele>138</ele></trkpt>      <trkpt lat="47.95129" lon="-3.52529"><ele>135</ele></trkpt>      <trkpt lat="47.95153" lon="-3.52652"><ele>133</ele></trkpt>      <trkpt lat="47.95199" lon="-3.52761"><ele>137</ele></trkpt>      <trkpt lat="47.95332" lon="-3.53026"><ele>139</ele></trkpt>      <trkpt lat="47.95359" lon="-3.53068"><ele>139</ele></trkpt>      <trkpt lat="47.95474" lon="-3.53200"><ele>140</ele></trkpt>      <trkpt lat="47.95512" lon="-3.53238"><ele>141</ele></trkpt>      <trkpt lat="47.95752" lon="-3.53421"><ele>149</ele></trkpt>      <trkpt lat="47.95953" lon="-3.53627"><ele>155</ele></trkpt>      <trkpt lat="47.95991" lon="-3.53659"><ele>156</ele></trkpt>      <trkpt lat="47.95990" lon="-3.53730"><ele>155</ele></trkpt>      <trkpt lat="47.95991" lon="-3.53841"><ele>152</ele></trkpt>      <trkpt lat="47.95957" lon="-3.54011"><ele>146</ele></trkpt>      <trkpt lat="47.95958" lon="-3.54050"><ele>144</ele></trkpt>      <trkpt lat="47.95996" lon="-3.54149"><ele>140</ele></trkpt>      <trkpt lat="47.96073" lon="-3.54259"><ele>134</ele></trkpt>      <trkpt lat="47.96107" lon="-3.54350"><ele>133</ele></trkpt>      <trkpt lat="47.96186" lon="-3.54434"><ele>135</ele></trkpt>      <trkpt lat="47.96282" lon="-3.54577"><ele>139</ele></trkpt>      <trkpt lat="47.96426" lon="-3.54707"><ele>149</ele></trkpt>      <trkpt lat="47.96488" lon="-3.54777"><ele>153</ele></trkpt>      <trkpt lat="47.96508" lon="-3.54833"><ele>155</ele></trkpt>      <trkpt lat="47.96511" lon="-3.55070"><ele>159</ele></trkpt>      <trkpt lat="47.96533" lon="-3.55257"><ele>162</ele></trkpt>      <trkpt lat="47.96544" lon="-3.55287"><ele>163</ele></trkpt>      <trkpt lat="47.96615" lon="-3.55373"><ele>165</ele></trkpt>      <trkpt lat="47.96661" lon="-3.55494"><ele>163</ele></trkpt>      <trkpt lat="47.96746" lon="-3.55631"><ele>162</ele></trkpt>      <trkpt lat="47.96823" lon="-3.55728"><ele>162</ele></trkpt>      <trkpt lat="47.96901" lon="-3.55866"><ele>157</ele></trkpt>      <trkpt lat="47.97148" lon="-3.56247"><ele>143</ele></trkpt>      <trkpt lat="47.97183" lon="-3.56317"><ele>142</ele></trkpt>      <trkpt lat="47.97229" lon="-3.56440"><ele>145</ele></trkpt>      <trkpt lat="47.97304" lon="-3.56605"><ele>149</ele></trkpt>      <trkpt lat="47.97451" lon="-3.57048"><ele>146</ele></trkpt>      <trkpt lat="47.97469" lon="-3.57090"><ele>145</ele></trkpt>      <trkpt lat="47.97573" lon="-3.57227"><ele>143</ele></trkpt>      <trkpt lat="47.97655" lon="-3.57420"><ele>141</ele></trkpt>      <trkpt lat="47.97748" lon="-3.57576"><ele>134</ele></trkpt>      <trkpt lat="47.97770" lon="-3.57646"><ele>133</ele></trkpt>      <trkpt lat="47.97803" lon="-3.57837"><ele>132</ele></trkpt>      <trkpt lat="47.97832" lon="-3.57954"><ele>130</ele></trkpt>      <trkpt lat="47.97830" lon="-3.57971"><ele>130</ele></trkpt>      <trkpt lat="47.97930" lon="-3.58182"><ele>131</ele></trkpt>      <trkpt lat="47.98012" lon="-3.58333"><ele>131</ele></trkpt>      <trkpt lat="47.98301" lon="-3.58557"><ele>122</ele></trkpt>      <trkpt lat="47.98420" lon="-3.58599"><ele>119</ele></trkpt>      <trkpt lat="47.98514" lon="-3.58603"><ele>119</ele></trkpt>      <trkpt lat="47.98668" lon="-3.58712"><ele>122</ele></trkpt>      <trkpt lat="47.98914" lon="-3.58960"><ele>133</ele></trkpt>      <trkpt lat="47.98938" lon="-3.58995"><ele>135</ele></trkpt>      <trkpt lat="47.98952" lon="-3.59037"><ele>136</ele></trkpt>      <trkpt lat="47.98992" lon="-3.59278"><ele>143</ele></trkpt>      <trkpt lat="47.99005" lon="-3.59324"><ele>144</ele></trkpt>      <trkpt lat="47.99067" lon="-3.59361"><ele>147</ele></trkpt>      <trkpt lat="47.99149" lon="-3.59351"><ele>150</ele></trkpt>      <trkpt lat="47.99219" lon="-3.59301"><ele>154</ele></trkpt>      <trkpt lat="47.99256" lon="-3.59308"><ele>156</ele></trkpt>      <trkpt lat="47.99306" lon="-3.59360"><ele>159</ele></trkpt>      <trkpt lat="47.99314" lon="-3.59380"><ele>160</ele></trkpt>      <trkpt lat="47.99313" lon="-3.59428"><ele>162</ele></trkpt>      <trkpt lat="47.99321" lon="-3.59469"><ele>164</ele></trkpt>      <trkpt lat="47.99387" lon="-3.59572"><ele>170</ele></trkpt>      <trkpt lat="47.99424" lon="-3.59596"><ele>173</ele></trkpt>      <trkpt lat="47.99559" lon="-3.59611"><ele>176</ele></trkpt>      <trkpt lat="47.99593" lon="-3.59643"><ele>176</ele></trkpt>      <trkpt lat="47.99647" lon="-3.59746"><ele>177</ele></trkpt>      <trkpt lat="47.99767" lon="-3.59898"><ele>180</ele></trkpt>      <trkpt lat="47.99911" lon="-3.60070"><ele>184</ele></trkpt>      <trkpt lat="47.99942" lon="-3.60078"><ele>183</ele></trkpt>      <trkpt lat="47.99970" lon="-3.60064"><ele>183</ele></trkpt>      <trkpt lat="48.00055" lon="-3.59974"><ele>182</ele></trkpt>      <trkpt lat="48.00128" lon="-3.59962"><ele>183</ele></trkpt>      <trkpt lat="48.00183" lon="-3.59977"><ele>185</ele></trkpt>      <trkpt lat="48.00318" lon="-3.60127"><ele>181</ele></trkpt>      <trkpt lat="48.00403" lon="-3.60131"><ele>179</ele></trkpt>      <trkpt lat="48.00510" lon="-3.60171"><ele>181</ele></trkpt>      <trkpt lat="48.00701" lon="-3.60295"><ele>187</ele></trkpt>      <trkpt lat="48.00822" lon="-3.60401"><ele>192</ele></trkpt>      <trkpt lat="48.00948" lon="-3.60514"><ele>196</ele></trkpt>      <trkpt lat="48.01132" lon="-3.60725"><ele>200</ele></trkpt>      <trkpt lat="48.01304" lon="-3.60875"><ele>205</ele></trkpt>      <trkpt lat="48.01468" lon="-3.61020"><ele>208</ele></trkpt>      <trkpt lat="48.01551" lon="-3.61108"><ele>213</ele></trkpt>      <trkpt lat="48.01660" lon="-3.61143"><ele>213</ele></trkpt>      <trkpt lat="48.01728" lon="-3.61190"><ele>215</ele></trkpt>      <trkpt lat="48.01762" lon="-3.61222"><ele>216</ele></trkpt>      <trkpt lat="48.01849" lon="-3.61343"><ele>217</ele></trkpt>      <trkpt lat="48.01970" lon="-3.61505"><ele>213</ele></trkpt>      <trkpt lat="48.02047" lon="-3.61539"><ele>216</ele></trkpt>      <trkpt lat="48.02095" lon="-3.61573"><ele>217</ele></trkpt>      <trkpt lat="48.02264" lon="-3.61779"><ele>217</ele></trkpt>      <trkpt lat="48.02379" lon="-3.61938"><ele>210</ele></trkpt>      <trkpt lat="48.02447" lon="-3.61977"><ele>206</ele></trkpt>      <trkpt lat="48.02535" lon="-3.61997"><ele>201</ele></trkpt>      <trkpt lat="48.02574" lon="-3.62031"><ele>198</ele></trkpt>      <trkpt lat="48.02585" lon="-3.62056"><ele>199</ele></trkpt>      <trkpt lat="48.02582" lon="-3.62099"><ele>199</ele></trkpt>      <trkpt lat="48.02558" lon="-3.62142"><ele>195</ele></trkpt>      <trkpt lat="48.02524" lon="-3.62271"><ele>190</ele></trkpt>      <trkpt lat="48.02535" lon="-3.62369"><ele>186</ele></trkpt>      <trkpt lat="48.02599" lon="-3.62568"><ele>180</ele></trkpt>      <trkpt lat="48.02628" lon="-3.62636"><ele>179</ele></trkpt>      <trkpt lat="48.02669" lon="-3.62675"><ele>178</ele></trkpt>      <trkpt lat="48.03257" lon="-3.63015"><ele>184</ele></trkpt>      <trkpt lat="48.03422" lon="-3.63137"><ele>185</ele></trkpt>      <trkpt lat="48.03506" lon="-3.63194"><ele>186</ele></trkpt>      <trkpt lat="48.03506" lon="-3.63213"><ele>186</ele></trkpt>      <trkpt lat="48.03519" lon="-3.63218"><ele>187</ele></trkpt>      <trkpt lat="48.03783" lon="-3.63507"><ele>189</ele></trkpt>      <trkpt lat="48.03817" lon="-3.63535"><ele>189</ele></trkpt>      <trkpt lat="48.03937" lon="-3.63596"><ele>186</ele></trkpt>      <trkpt lat="48.04290" lon="-3.63695"><ele>177</ele></trkpt>      <trkpt lat="48.04347" lon="-3.63744"><ele>177</ele></trkpt>      <trkpt lat="48.04676" lon="-3.64162"><ele>184</ele></trkpt>      <trkpt lat="48.04820" lon="-3.64386"><ele>189</ele></trkpt>      <trkpt lat="48.04901" lon="-3.64414"><ele>191</ele></trkpt>      <trkpt lat="48.04957" lon="-3.64418"><ele>191</ele></trkpt>      <trkpt lat="48.04992" lon="-3.64440"><ele>191</ele></trkpt>      <trkpt lat="48.05050" lon="-3.64543"><ele>189</ele></trkpt>      <trkpt lat="48.05123" lon="-3.64705"><ele>178</ele></trkpt>      <trkpt lat="48.05148" lon="-3.64737"><ele>177</ele></trkpt>      <trkpt lat="48.05453" lon="-3.65053"><ele>174</ele></trkpt>      <trkpt lat="48.05565" lon="-3.65147"><ele>175</ele></trkpt>      <trkpt lat="48.05706" lon="-3.65310"><ele>175</ele></trkpt>      <trkpt lat="48.05818" lon="-3.65436"><ele>176</ele></trkpt>      <trkpt lat="48.05866" lon="-3.65493"><ele>177</ele></trkpt>      <trkpt lat="48.05926" lon="-3.65543"><ele>177</ele></trkpt>      <trkpt lat="48.06050" lon="-3.65583"><ele>175</ele></trkpt>      <trkpt lat="48.06127" lon="-3.65621"><ele>176</ele></trkpt>      <trkpt lat="48.06415" lon="-3.65887"><ele>180</ele></trkpt>      <trkpt lat="48.06463" lon="-3.65940"><ele>181</ele></trkpt>      <trkpt lat="48.06500" lon="-3.66001"><ele>183</ele></trkpt>      <trkpt lat="48.06528" lon="-3.66069"><ele>184</ele></trkpt>      <trkpt lat="48.06559" lon="-3.66192"><ele>186</ele></trkpt>      <trkpt lat="48.06578" lon="-3.66244"><ele>187</ele></trkpt>      <trkpt lat="48.06683" lon="-3.66197"><ele>190</ele></trkpt>      <trkpt lat="48.06775" lon="-3.66204"><ele>191</ele></trkpt>      <trkpt lat="48.06781" lon="-3.66220"><ele>191</ele></trkpt>      <trkpt lat="48.06955" lon="-3.66376"><ele>195</ele></trkpt>      <trkpt lat="48.07010" lon="-3.66438"><ele>196</ele></trkpt>      <trkpt lat="48.07076" lon="-3.66587"><ele>194</ele></trkpt>      <trkpt lat="48.07161" lon="-3.66710"><ele>192</ele></trkpt>      <trkpt lat="48.07190" lon="-3.66738"><ele>191</ele></trkpt>      <trkpt lat="48.07276" lon="-3.66785"><ele>189</ele></trkpt>      <trkpt lat="48.07546" lon="-3.67037"><ele>183</ele></trkpt>      <trkpt lat="48.07574" lon="-3.67063"><ele>183</ele></trkpt>      <trkpt lat="48.08045" lon="-3.67740"><ele>193</ele></trkpt>      <trkpt lat="48.08081" lon="-3.67776"><ele>193</ele></trkpt>      <trkpt lat="48.08134" lon="-3.67795"><ele>194</ele></trkpt>      <trkpt lat="48.08607" lon="-3.67815"><ele>200</ele></trkpt>      <trkpt lat="48.09035" lon="-3.67833"><ele>198</ele></trkpt>      <trkpt lat="48.09153" lon="-3.67855"><ele>198</ele></trkpt>      <trkpt lat="48.09220" lon="-3.67891"><ele>198</ele></trkpt>      <trkpt lat="48.09311" lon="-3.67974"><ele>194</ele></trkpt>      <trkpt lat="48.09392" lon="-3.68057"><ele>191</ele></trkpt>      <trkpt lat="48.09464" lon="-3.68159"><ele>190</ele></trkpt>      <trkpt lat="48.09698" lon="-3.68610"><ele>192</ele></trkpt>      <trkpt lat="48.09805" lon="-3.68965"><ele>190</ele></trkpt>      <trkpt lat="48.09842" lon="-3.69064"><ele>190</ele></trkpt>      <trkpt lat="48.10011" lon="-3.69218"><ele>193</ele></trkpt>      <trkpt lat="48.10106" lon="-3.69299"><ele>195</ele></trkpt>      <trkpt lat="48.10238" lon="-3.69360"><ele>197</ele></trkpt>      <trkpt lat="48.10365" lon="-3.69455"><ele>194</ele></trkpt>      <trkpt lat="48.10484" lon="-3.69517"><ele>191</ele></trkpt>      <trkpt lat="48.10573" lon="-3.69587"><ele>189</ele></trkpt>      <trkpt lat="48.10692" lon="-3.69653"><ele>188</ele></trkpt>      <trkpt lat="48.10776" lon="-3.69689"><ele>187</ele></trkpt>      <trkpt lat="48.10985" lon="-3.69730"><ele>187</ele></trkpt>      <trkpt lat="48.11049" lon="-3.69757"><ele>186</ele></trkpt>      <trkpt lat="48.11373" lon="-3.69959"><ele>182</ele></trkpt>      <trkpt lat="48.11626" lon="-3.70196"><ele>177</ele></trkpt>      <trkpt lat="48.11676" lon="-3.70285"><ele>176</ele></trkpt>      <trkpt lat="48.11777" lon="-3.70600"><ele>171</ele></trkpt>      <trkpt lat="48.11833" lon="-3.70752"><ele>171</ele></trkpt>      <trkpt lat="48.11979" lon="-3.71014"><ele>170</ele></trkpt>      <trkpt lat="48.12071" lon="-3.71206"><ele>169</ele></trkpt>      <trkpt lat="48.12085" lon="-3.71260"><ele>168</ele></trkpt>      <trkpt lat="48.12097" lon="-3.71356"><ele>167</ele></trkpt>      <trkpt lat="48.12113" lon="-3.71402"><ele>167</ele></trkpt>      <trkpt lat="48.12130" lon="-3.71424"><ele>166</ele></trkpt>      <trkpt lat="48.12169" lon="-3.71446"><ele>165</ele></trkpt>      <trkpt lat="48.12392" lon="-3.71513"><ele>165</ele></trkpt>      <trkpt lat="48.12416" lon="-3.71523"><ele>166</ele></trkpt>      <trkpt lat="48.12450" lon="-3.71559"><ele>166</ele></trkpt>      <trkpt lat="48.12504" lon="-3.71690"><ele>167</ele></trkpt>      <trkpt lat="48.12533" lon="-3.71735"><ele>167</ele></trkpt>      <trkpt lat="48.12557" lon="-3.71749"><ele>168</ele></trkpt>      <trkpt lat="48.12622" lon="-3.71745"><ele>168</ele></trkpt>      <trkpt lat="48.12659" lon="-3.71768"><ele>169</ele></trkpt>      <trkpt lat="48.12637" lon="-3.71836"><ele>169</ele></trkpt>      <trkpt lat="48.12622" lon="-3.71997"><ele>169</ele></trkpt>      <trkpt lat="48.12669" lon="-3.72036"><ele>169</ele></trkpt>      <trkpt lat="48.12739" lon="-3.72161"><ele>169</ele></trkpt>      <trkpt lat="48.12777" lon="-3.72186"><ele>169</ele></trkpt>      <trkpt lat="48.13078" lon="-3.72302"><ele>172</ele></trkpt>      <trkpt lat="48.13755" lon="-3.72455"><ele>198</ele></trkpt>      <trkpt lat="48.13875" lon="-3.72482"><ele>205</ele></trkpt>      <trkpt lat="48.13906" lon="-3.72499"><ele>206</ele></trkpt>      <trkpt lat="48.13934" lon="-3.72543"><ele>209</ele></trkpt>      <trkpt lat="48.14149" lon="-3.73147"><ele>234</ele></trkpt>      <trkpt lat="48.14242" lon="-3.73319"><ele>241</ele></trkpt>      <trkpt lat="48.14255" lon="-3.73383"><ele>242</ele></trkpt>      <trkpt lat="48.14254" lon="-3.73607"><ele>243</ele></trkpt>      <trkpt lat="48.14263" lon="-3.73734"><ele>244</ele></trkpt>      <trkpt lat="48.14396" lon="-3.74447"><ele>234</ele></trkpt>      <trkpt lat="48.14394" lon="-3.74578"><ele>234</ele></trkpt>      <trkpt lat="48.14364" lon="-3.74969"><ele>237</ele></trkpt>      <trkpt lat="48.14298" lon="-3.75306"><ele>235</ele></trkpt>      <trkpt lat="48.14238" lon="-3.75494"><ele>233</ele></trkpt>      <trkpt lat="48.14385" lon="-3.75479"><ele>224</ele></trkpt>      <trkpt lat="48.14449" lon="-3.75454"><ele>222</ele></trkpt>      <trkpt lat="48.14730" lon="-3.75427"><ele>223</ele></trkpt>      <trkpt lat="48.14817" lon="-3.75446"><ele>224</ele></trkpt>      <trkpt lat="48.15016" lon="-3.75537"><ele>221</ele></trkpt>      <trkpt lat="48.15043" lon="-3.75527"><ele>221</ele></trkpt>      <trkpt lat="48.15134" lon="-3.75449"><ele>218</ele></trkpt>      <trkpt lat="48.15233" lon="-3.75465"><ele>214</ele></trkpt>      <trkpt lat="48.15263" lon="-3.75492"><ele>212</ele></trkpt>      <trkpt lat="48.15326" lon="-3.75705"><ele>204</ele></trkpt>      <trkpt lat="48.15442" lon="-3.75909"><ele>195</ele></trkpt>      <trkpt lat="48.15466" lon="-3.76011"><ele>192</ele></trkpt>      <trkpt lat="48.15551" lon="-3.76636"><ele>178</ele></trkpt>      <trkpt lat="48.15589" lon="-3.76908"><ele>172</ele></trkpt>      <trkpt lat="48.15587" lon="-3.77057"><ele>167</ele></trkpt>      <trkpt lat="48.15601" lon="-3.77231"><ele>159</ele></trkpt>      <trkpt lat="48.15675" lon="-3.77349"><ele>147</ele></trkpt>      <trkpt lat="48.15707" lon="-3.77378"><ele>142</ele></trkpt>      <trkpt lat="48.15779" lon="-3.77418"><ele>134</ele></trkpt>      <trkpt lat="48.15833" lon="-3.77411"><ele>130</ele></trkpt>      <trkpt lat="48.15877" lon="-3.77326"><ele>124</ele></trkpt>      <trkpt lat="48.15907" lon="-3.77307"><ele>121</ele></trkpt>      <trkpt lat="48.16096" lon="-3.77295"><ele>105</ele></trkpt>      <trkpt lat="48.16062" lon="-3.77635"><ele>85</ele></trkpt>      <trkpt lat="48.16063" lon="-3.77691"><ele>82</ele></trkpt>      <trkpt lat="48.16092" lon="-3.77892"><ele>76</ele></trkpt>      <trkpt lat="48.16196" lon="-3.77701"><ele>74</ele></trkpt>      <trkpt lat="48.16274" lon="-3.77640"><ele>69</ele></trkpt>      <trkpt lat="48.16302" lon="-3.77643"><ele>68</ele></trkpt>      <trkpt lat="48.16333" lon="-3.77699"><ele>65</ele></trkpt>      <trkpt lat="48.16396" lon="-3.77701"><ele>63</ele></trkpt>      <trkpt lat="48.16453" lon="-3.77691"><ele>63</ele></trkpt>      <trkpt lat="48.16621" lon="-3.77587"><ele>59</ele></trkpt>      <trkpt lat="48.16684" lon="-3.77585"><ele>62</ele></trkpt>      <trkpt lat="48.16747" lon="-3.77603"><ele>64</ele></trkpt>      <trkpt lat="48.16818" lon="-3.77583"><ele>56</ele></trkpt>      <trkpt lat="48.17005" lon="-3.77564"><ele>49</ele></trkpt>      <trkpt lat="48.17058" lon="-3.77548"><ele>48</ele></trkpt>      <trkpt lat="48.17118" lon="-3.77593"><ele>45</ele></trkpt>      <trkpt lat="48.17106" lon="-3.77621"><ele>45</ele></trkpt>      <trkpt lat="48.17066" lon="-3.77818"><ele>45</ele></trkpt>      <trkpt lat="48.17069" lon="-3.77890"><ele>45</ele></trkpt>      <trkpt lat="48.17097" lon="-3.77928"><ele>45</ele></trkpt>      <trkpt lat="48.17115" lon="-3.77933"><ele>45</ele></trkpt>      <trkpt lat="48.17148" lon="-3.77924"><ele>45</ele></trkpt>      <trkpt lat="48.17217" lon="-3.77876"><ele>45</ele></trkpt>      <trkpt lat="48.17270" lon="-3.77856"><ele>45</ele></trkpt>      <trkpt lat="48.17486" lon="-3.77881"><ele>45</ele></trkpt>      <trkpt lat="48.17842" lon="-3.77956"><ele>45</ele></trkpt>      <trkpt lat="48.17963" lon="-3.77998"><ele>45</ele></trkpt>      <trkpt lat="48.18018" lon="-3.78029"><ele>45</ele></trkpt>      <trkpt lat="48.18119" lon="-3.78139"><ele>45</ele></trkpt>      <trkpt lat="48.18185" lon="-3.78225"><ele>45</ele></trkpt>      <trkpt lat="48.18211" lon="-3.78276"><ele>45</ele></trkpt>      <trkpt lat="48.18234" lon="-3.78359"><ele>45</ele></trkpt>      <trkpt lat="48.18250" lon="-3.78510"><ele>45</ele></trkpt>      <trkpt lat="48.18236" lon="-3.78658"><ele>45</ele></trkpt>      <trkpt lat="48.18207" lon="-3.78841"><ele>45</ele></trkpt>      <trkpt lat="48.18190" lon="-3.78923"><ele>45</ele></trkpt>      <trkpt lat="48.18162" lon="-3.78997"><ele>45</ele></trkpt>      <trkpt lat="48.18059" lon="-3.79165"><ele>45</ele></trkpt>      <trkpt lat="48.18020" lon="-3.79210"><ele>45</ele></trkpt>      <trkpt lat="48.17988" lon="-3.79226"><ele>45</ele></trkpt>      <trkpt lat="48.17891" lon="-3.79210"><ele>45</ele></trkpt>      <trkpt lat="48.17810" lon="-3.79174"><ele>45</ele></trkpt>      <trkpt lat="48.17530" lon="-3.79092"><ele>45</ele></trkpt>      <trkpt lat="48.17287" lon="-3.79108"><ele>45</ele></trkpt>      <trkpt lat="48.17144" lon="-3.79122"><ele>45</ele></trkpt>      <trkpt lat="48.17072" lon="-3.79144"><ele>45</ele></trkpt>      <trkpt lat="48.16822" lon="-3.79300"><ele>45</ele></trkpt>      <trkpt lat="48.16787" lon="-3.79343"><ele>45</ele></trkpt>      <trkpt lat="48.16701" lon="-3.79497"><ele>45</ele></trkpt>      <trkpt lat="48.16682" lon="-3.79546"><ele>45</ele></trkpt>      <trkpt lat="48.16644" lon="-3.79612"><ele>45</ele></trkpt>      <trkpt lat="48.16559" lon="-3.79825"><ele>45</ele></trkpt>      <trkpt lat="48.16546" lon="-3.79901"><ele>45</ele></trkpt>      <trkpt lat="48.16579" lon="-3.80158"><ele>45</ele></trkpt>      <trkpt lat="48.16598" lon="-3.80266"><ele>45</ele></trkpt>      <trkpt lat="48.16632" lon="-3.80340"><ele>45</ele></trkpt>      <trkpt lat="48.16693" lon="-3.80376"><ele>45</ele></trkpt>      <trkpt lat="48.16978" lon="-3.80608"><ele>45</ele></trkpt>      <trkpt lat="48.17119" lon="-3.80669"><ele>44</ele></trkpt>      <trkpt lat="48.17314" lon="-3.80726"><ele>44</ele></trkpt>      <trkpt lat="48.17448" lon="-3.80742"><ele>44</ele></trkpt>      <trkpt lat="48.17772" lon="-3.80736"><ele>44</ele></trkpt>      <trkpt lat="48.18044" lon="-3.80693"><ele>44</ele></trkpt>      <trkpt lat="48.18149" lon="-3.80687"><ele>44</ele></trkpt>      <trkpt lat="48.18261" lon="-3.80705"><ele>44</ele></trkpt>      <trkpt lat="48.18359" lon="-3.80742"><ele>44</ele></trkpt>      <trkpt lat="48.18413" lon="-3.80798"><ele>44</ele></trkpt>      <trkpt lat="48.18420" lon="-3.80793"><ele>44</ele></trkpt>      <trkpt lat="48.18463" lon="-3.80899"><ele>44</ele></trkpt>      <trkpt lat="48.18483" lon="-3.81036"><ele>44</ele></trkpt>      <trkpt lat="48.18403" lon="-3.81038"><ele>44</ele></trkpt>      <trkpt lat="48.18373" lon="-3.81017"><ele>44</ele></trkpt>      <trkpt lat="48.18358" lon="-3.81066"><ele>44</ele></trkpt>      <trkpt lat="48.18369" lon="-3.81109"><ele>44</ele></trkpt>      <trkpt lat="48.18375" lon="-3.81181"><ele>44</ele></trkpt>      <trkpt lat="48.18349" lon="-3.81265"><ele>44</ele></trkpt>      <trkpt lat="48.18304" lon="-3.81531"><ele>44</ele></trkpt>      <trkpt lat="48.18279" lon="-3.81582"><ele>44</ele></trkpt>      <trkpt lat="48.18244" lon="-3.81622"><ele>44</ele></trkpt>      <trkpt lat="48.18160" lon="-3.81682"><ele>44</ele></trkpt>      <trkpt lat="48.18155" lon="-3.81694"><ele>44</ele></trkpt>      <trkpt lat="48.18172" lon="-3.81714"><ele>41</ele></trkpt>      <trkpt lat="48.18187" lon="-3.81729"><ele>39</ele></trkpt>      <trkpt lat="48.18161" lon="-3.81754"><ele>39</ele></trkpt>      <trkpt lat="48.18096" lon="-3.81781"><ele>38</ele></trkpt>      <trkpt lat="48.18095" lon="-3.81793"><ele>38</ele></trkpt>      <trkpt lat="48.18052" lon="-3.81798"><ele>38</ele></trkpt>      <trkpt lat="48.17949" lon="-3.81754"><ele>38</ele></trkpt>      <trkpt lat="48.17855" lon="-3.81739"><ele>38</ele></trkpt>    </trkseg>  </trk></gpx>