<?xml version="1.0"?><gpx version="1.0" creator="cycle.travel"  xmlns:xsi="http://www.w3.org/2001/XMLSchema-instance"  xmlns="http://www.topografix.com/GPX/1/0"  xsi:schemaLocation="http://www.topografix.com/GPX/1/0 http://www.topografix.com/GPX/1/0/gpx.xsd">  <trk>    <name>Route 18/8/2026</name>    <trkseg>      <trkpt lat="48.17855" lon="-3.81739"><ele>38</ele></trkpt>      <trkpt lat="48.17949" lon="-3.81755"><ele>38</ele></trkpt>      <trkpt lat="48.18052" lon="-3.81798"><ele>38</ele></trkpt>      <trkpt lat="48.18095" lon="-3.81793"><ele>38</ele></trkpt>      <trkpt lat="48.18096" lon="-3.81781"><ele>38</ele></trkpt>      <trkpt lat="48.18161" lon="-3.81754"><ele>39</ele></trkpt>      <trkpt lat="48.18187" lon="-3.81729"><ele>40</ele></trkpt>      <trkpt lat="48.18160" lon="-3.81704"><ele>43</ele></trkpt>      <trkpt lat="48.18154" lon="-3.81694"><ele>44</ele></trkpt>      <trkpt lat="48.18160" lon="-3.81682"><ele>45</ele></trkpt>      <trkpt lat="48.18244" lon="-3.81622"><ele>46</ele></trkpt>      <trkpt lat="48.18279" lon="-3.81582"><ele>47</ele></trkpt>      <trkpt lat="48.18304" lon="-3.81531"><ele>47</ele></trkpt>      <trkpt lat="48.18349" lon="-3.81265"><ele>47</ele></trkpt>      <trkpt lat="48.18375" lon="-3.81181"><ele>46</ele></trkpt>      <trkpt lat="48.18372" lon="-3.81126"><ele>46</ele></trkpt>      <trkpt lat="48.18357" lon="-3.81066"><ele>45</ele></trkpt>      <trkpt lat="48.18373" lon="-3.81017"><ele>45</ele></trkpt>      <trkpt lat="48.18400" lon="-3.81037"><ele>44</ele></trkpt>      <trkpt lat="48.18483" lon="-3.81036"><ele>43</ele></trkpt>      <trkpt lat="48.18463" lon="-3.80899"><ele>42</ele></trkpt>      <trkpt lat="48.18420" lon="-3.80793"><ele>40</ele></trkpt>      <trkpt lat="48.18413" lon="-3.80798"><ele>40</ele></trkpt>      <trkpt lat="48.18366" lon="-3.80746"><ele>40</ele></trkpt>      <trkpt lat="48.18273" lon="-3.80709"><ele>39</ele></trkpt>      <trkpt lat="48.18179" lon="-3.80690"><ele>39</ele></trkpt>      <trkpt lat="48.18044" lon="-3.80693"><ele>39</ele></trkpt>      <trkpt lat="48.17812" lon="-3.80734"><ele>39</ele></trkpt>      <trkpt lat="48.17448" lon="-3.80742"><ele>40</ele></trkpt>      <trkpt lat="48.17344" lon="-3.80733"><ele>40</ele></trkpt>      <trkpt lat="48.17119" lon="-3.80669"><ele>40</ele></trkpt>      <trkpt lat="48.16978" lon="-3.80608"><ele>40</ele></trkpt>      <trkpt lat="48.16693" lon="-3.80376"><ele>41</ele></trkpt>      <trkpt lat="48.16632" lon="-3.80340"><ele>41</ele></trkpt>      <trkpt lat="48.16605" lon="-3.80288"><ele>42</ele></trkpt>      <trkpt lat="48.16586" lon="-3.80213"><ele>43</ele></trkpt>      <trkpt lat="48.16545" lon="-3.79901"><ele>42</ele></trkpt>      <trkpt lat="48.16546" lon="-3.79880"><ele>42</ele></trkpt>      <trkpt lat="48.16574" lon="-3.79781"><ele>42</ele></trkpt>      <trkpt lat="48.16701" lon="-3.79497"><ele>43</ele></trkpt>      <trkpt lat="48.16787" lon="-3.79343"><ele>43</ele></trkpt>      <trkpt lat="48.16821" lon="-3.79300"><ele>42</ele></trkpt>      <trkpt lat="48.17072" lon="-3.79144"><ele>42</ele></trkpt>      <trkpt lat="48.17143" lon="-3.79122"><ele>42</ele></trkpt>      <trkpt lat="48.17425" lon="-3.79093"><ele>43</ele></trkpt>      <trkpt lat="48.17530" lon="-3.79092"><ele>43</ele></trkpt>      <trkpt lat="48.17810" lon="-3.79174"><ele>44</ele></trkpt>      <trkpt lat="48.17891" lon="-3.79210"><ele>45</ele></trkpt>      <trkpt lat="48.17988" lon="-3.79226"><ele>45</ele></trkpt>      <trkpt lat="48.18006" lon="-3.79221"><ele>45</ele></trkpt>      <trkpt lat="48.18045" lon="-3.79183"><ele>45</ele></trkpt>      <trkpt lat="48.18153" lon="-3.79013"><ele>45</ele></trkpt>      <trkpt lat="48.18178" lon="-3.78958"><ele>45</ele></trkpt>      <trkpt lat="48.18206" lon="-3.78841"><ele>44</ele></trkpt>      <trkpt lat="48.18236" lon="-3.78658"><ele>43</ele></trkpt>      <trkpt lat="48.18250" lon="-3.78489"><ele>43</ele></trkpt>      <trkpt lat="48.18233" lon="-3.78359"><ele>43</ele></trkpt>      <trkpt lat="48.18211" lon="-3.78276"><ele>43</ele></trkpt>      <trkpt lat="48.18185" lon="-3.78225"><ele>43</ele></trkpt>      <trkpt lat="48.18079" lon="-3.78093"><ele>44</ele></trkpt>      <trkpt lat="48.17991" lon="-3.78009"><ele>45</ele></trkpt>      <trkpt lat="48.17895" lon="-3.77972"><ele>44</ele></trkpt>      <trkpt lat="48.17727" lon="-3.77931"><ele>44</ele></trkpt>      <trkpt lat="48.17486" lon="-3.77881"><ele>45</ele></trkpt>      <trkpt lat="48.17270" lon="-3.77856"><ele>46</ele></trkpt>      <trkpt lat="48.17242" lon="-3.77862"><ele>47</ele></trkpt>      <trkpt lat="48.17148" lon="-3.77924"><ele>47</ele></trkpt>      <trkpt lat="48.17097" lon="-3.77928"><ele>47</ele></trkpt>      <trkpt lat="48.17069" lon="-3.77890"><ele>47</ele></trkpt>      <trkpt lat="48.17069" lon="-3.77792"><ele>47</ele></trkpt>      <trkpt lat="48.17106" lon="-3.77621"><ele>47</ele></trkpt>      <trkpt lat="48.17158" lon="-3.77500"><ele>47</ele></trkpt>      <trkpt lat="48.17229" lon="-3.77402"><ele>47</ele></trkpt>      <trkpt lat="48.17318" lon="-3.77322"><ele>47</ele></trkpt>      <trkpt lat="48.17393" lon="-3.77234"><ele>47</ele></trkpt>      <trkpt lat="48.17439" lon="-3.77168"><ele>47</ele></trkpt>      <trkpt lat="48.17486" lon="-3.77078"><ele>47</ele></trkpt>      <trkpt lat="48.17603" lon="-3.76912"><ele>48</ele></trkpt>      <trkpt lat="48.17635" lon="-3.76855"><ele>48</ele></trkpt>      <trkpt lat="48.17712" lon="-3.76670"><ele>48</ele></trkpt>      <trkpt lat="48.17765" lon="-3.76500"><ele>48</ele></trkpt>      <trkpt lat="48.17907" lon="-3.76040"><ele>48</ele></trkpt>      <trkpt lat="48.17918" lon="-3.75911"><ele>48</ele></trkpt>      <trkpt lat="48.17951" lon="-3.75810"><ele>48</ele></trkpt>      <trkpt lat="48.17999" lon="-3.75676"><ele>48</ele></trkpt>      <trkpt lat="48.18129" lon="-3.75390"><ele>48</ele></trkpt>      <trkpt lat="48.18186" lon="-3.75300"><ele>48</ele></trkpt>      <trkpt lat="48.18217" lon="-3.75265"><ele>48</ele></trkpt>      <trkpt lat="48.18332" lon="-3.75189"><ele>48</ele></trkpt>      <trkpt lat="48.18527" lon="-3.75118"><ele>49</ele></trkpt>      <trkpt lat="48.18601" lon="-3.75113"><ele>49</ele></trkpt>      <trkpt lat="48.18815" lon="-3.75320"><ele>49</ele></trkpt>      <trkpt lat="48.18917" lon="-3.75641"><ele>49</ele></trkpt>      <trkpt lat="48.19048" lon="-3.75962"><ele>49</ele></trkpt>      <trkpt lat="48.19132" lon="-3.76088"><ele>49</ele></trkpt>      <trkpt lat="48.19198" lon="-3.76224"><ele>49</ele></trkpt>      <trkpt lat="48.19244" lon="-3.76280"><ele>49</ele></trkpt>      <trkpt lat="48.19311" lon="-3.76298"><ele>49</ele></trkpt>      <trkpt lat="48.19428" lon="-3.76276"><ele>49</ele></trkpt>      <trkpt lat="48.19596" lon="-3.76165"><ele>49</ele></trkpt>      <trkpt lat="48.19713" lon="-3.76108"><ele>49</ele></trkpt>      <trkpt lat="48.19786" lon="-3.76054"><ele>50</ele></trkpt>      <trkpt lat="48.19966" lon="-3.75957"><ele>50</ele></trkpt>      <trkpt lat="48.20193" lon="-3.75811"><ele>50</ele></trkpt>      <trkpt lat="48.20309" lon="-3.75760"><ele>50</ele></trkpt>      <trkpt lat="48.20503" lon="-3.75580"><ele>50</ele></trkpt>      <trkpt lat="48.20765" lon="-3.75410"><ele>50</ele></trkpt>      <trkpt lat="48.20819" lon="-3.75327"><ele>50</ele></trkpt>      <trkpt lat="48.20838" lon="-3.75268"><ele>50</ele></trkpt>      <trkpt lat="48.20848" lon="-3.75156"><ele>50</ele></trkpt>      <trkpt lat="48.20834" lon="-3.75034"><ele>50</ele></trkpt>      <trkpt lat="48.20729" lon="-3.74663"><ele>50</ele></trkpt>      <trkpt lat="48.20687" lon="-3.74545"><ele>50</ele></trkpt>      <trkpt lat="48.20640" lon="-3.74429"><ele>51</ele></trkpt>      <trkpt lat="48.20581" lon="-3.74334"><ele>51</ele></trkpt>      <trkpt lat="48.20399" lon="-3.74155"><ele>51</ele></trkpt>      <trkpt lat="48.20284" lon="-3.74059"><ele>52</ele></trkpt>      <trkpt lat="48.20253" lon="-3.74006"><ele>53</ele></trkpt>      <trkpt lat="48.20239" lon="-3.73964"><ele>53</ele></trkpt>      <trkpt lat="48.20223" lon="-3.73859"><ele>51</ele></trkpt>      <trkpt lat="48.20226" lon="-3.73666"><ele>51</ele></trkpt>      <trkpt lat="48.20241" lon="-3.73581"><ele>51</ele></trkpt>      <trkpt lat="48.20278" lon="-3.73511"><ele>52</ele></trkpt>      <trkpt lat="48.20298" lon="-3.73479"><ele>52</ele></trkpt>      <trkpt lat="48.20324" lon="-3.73405"><ele>52</ele></trkpt>      <trkpt lat="48.20365" lon="-3.73372"><ele>52</ele></trkpt>      <trkpt lat="48.20445" lon="-3.73351"><ele>52</ele></trkpt>      <trkpt lat="48.20639" lon="-3.73392"><ele>52</ele></trkpt>      <trkpt lat="48.20789" lon="-3.73485"><ele>52</ele></trkpt>      <trkpt lat="48.20882" lon="-3.73581"><ele>52</ele></trkpt>      <trkpt lat="48.21035" lon="-3.73708"><ele>54</ele></trkpt>      <trkpt lat="48.21182" lon="-3.73856"><ele>55</ele></trkpt>      <trkpt lat="48.21321" lon="-3.74018"><ele>55</ele></trkpt>      <trkpt lat="48.21396" lon="-3.74041"><ele>54</ele></trkpt>      <trkpt lat="48.21435" lon="-3.74040"><ele>54</ele></trkpt>      <trkpt lat="48.21523" lon="-3.74012"><ele>54</ele></trkpt>      <trkpt lat="48.21656" lon="-3.73948"><ele>53</ele></trkpt>      <trkpt lat="48.21798" lon="-3.73840"><ele>53</ele></trkpt>      <trkpt lat="48.21918" lon="-3.73765"><ele>54</ele></trkpt>      <trkpt lat="48.21989" lon="-3.73691"><ele>56</ele></trkpt>      <trkpt lat="48.22009" lon="-3.73658"><ele>57</ele></trkpt>      <trkpt lat="48.22073" lon="-3.73492"><ele>57</ele></trkpt>      <trkpt lat="48.22147" lon="-3.73256"><ele>57</ele></trkpt>      <trkpt lat="48.22170" lon="-3.73151"><ele>57</ele></trkpt>      <trkpt lat="48.22177" lon="-3.73026"><ele>57</ele></trkpt>      <trkpt lat="48.22173" lon="-3.72925"><ele>57</ele></trkpt>      <trkpt lat="48.22145" lon="-3.72791"><ele>57</ele></trkpt>      <trkpt lat="48.22116" lon="-3.72566"><ele>57</ele></trkpt>      <trkpt lat="48.22072" lon="-3.72449"><ele>57</ele></trkpt>      <trkpt lat="48.22044" lon="-3.72402"><ele>57</ele></trkpt>      <trkpt lat="48.21986" lon="-3.72334"><ele>58</ele></trkpt>      <trkpt lat="48.21874" lon="-3.72221"><ele>58</ele></trkpt>      <trkpt lat="48.21744" lon="-3.72068"><ele>58</ele></trkpt>      <trkpt lat="48.21602" lon="-3.71761"><ele>58</ele></trkpt>      <trkpt lat="48.21581" lon="-3.71696"><ele>58</ele></trkpt>      <trkpt lat="48.21536" lon="-3.71443"><ele>58</ele></trkpt>      <trkpt lat="48.21543" lon="-3.71356"><ele>58</ele></trkpt>      <trkpt lat="48.21577" lon="-3.71166"><ele>58</ele></trkpt>      <trkpt lat="48.21591" lon="-3.71029"><ele>58</ele></trkpt>      <trkpt lat="48.21602" lon="-3.70811"><ele>58</ele></trkpt>      <trkpt lat="48.21614" lon="-3.70714"><ele>59</ele></trkpt>      <trkpt lat="48.21638" lon="-3.70600"><ele>59</ele></trkpt>      <trkpt lat="48.21679" lon="-3.70517"><ele>59</ele></trkpt>      <trkpt lat="48.21702" lon="-3.70488"><ele>59</ele></trkpt>      <trkpt lat="48.21796" lon="-3.70421"><ele>59</ele></trkpt>      <trkpt lat="48.21836" lon="-3.70417"><ele>59</ele></trkpt>      <trkpt lat="48.21853" lon="-3.70339"><ele>59</ele></trkpt>      <trkpt lat="48.21871" lon="-3.70265"><ele>59</ele></trkpt>      <trkpt lat="48.21920" lon="-3.70329"><ele>59</ele></trkpt>      <trkpt lat="48.22040" lon="-3.70148"><ele>59</ele></trkpt>      <trkpt lat="48.22146" lon="-3.69887"><ele>60</ele></trkpt>      <trkpt lat="48.22183" lon="-3.69867"><ele>60</ele></trkpt>      <trkpt lat="48.22401" lon="-3.69814"><ele>60</ele></trkpt>      <trkpt lat="48.22454" lon="-3.69767"><ele>60</ele></trkpt>      <trkpt lat="48.22487" lon="-3.69716"><ele>60</ele></trkpt>      <trkpt lat="48.22518" lon="-3.69637"><ele>60</ele></trkpt>      <trkpt lat="48.22520" lon="-3.69589"><ele>60</ele></trkpt>      <trkpt lat="48.22485" lon="-3.69481"><ele>60</ele></trkpt>      <trkpt lat="48.22410" lon="-3.69345"><ele>60</ele></trkpt>      <trkpt lat="48.22360" lon="-3.69182"><ele>60</ele></trkpt>      <trkpt lat="48.22329" lon="-3.69056"><ele>61</ele></trkpt>      <trkpt lat="48.22284" lon="-3.68958"><ele>61</ele></trkpt>      <trkpt lat="48.22201" lon="-3.68883"><ele>61</ele></trkpt>      <trkpt lat="48.21995" lon="-3.68761"><ele>61</ele></trkpt>      <trkpt lat="48.21861" lon="-3.68670"><ele>61</ele></trkpt>      <trkpt lat="48.21818" lon="-3.68628"><ele>61</ele></trkpt>      <trkpt lat="48.21796" lon="-3.68605"><ele>61</ele></trkpt>      <trkpt lat="48.21801" lon="-3.68574"><ele>61</ele></trkpt>      <trkpt lat="48.21853" lon="-3.68467"><ele>61</ele></trkpt>      <trkpt lat="48.21976" lon="-3.68256"><ele>61</ele></trkpt>      <trkpt lat="48.22011" lon="-3.68175"><ele>62</ele></trkpt>      <trkpt lat="48.22030" lon="-3.68098"><ele>62</ele></trkpt>      <trkpt lat="48.22067" lon="-3.67910"><ele>62</ele></trkpt>      <trkpt lat="48.22057" lon="-3.67666"><ele>62</ele></trkpt>      <trkpt lat="48.22061" lon="-3.67604"><ele>62</ele></trkpt>      <trkpt lat="48.22170" lon="-3.67253"><ele>62</ele></trkpt>      <trkpt lat="48.22192" lon="-3.67128"><ele>62</ele></trkpt>      <trkpt lat="48.22202" lon="-3.66981"><ele>62</ele></trkpt>      <trkpt lat="48.22203" lon="-3.66910"><ele>62</ele></trkpt>      <trkpt lat="48.22189" lon="-3.66862"><ele>62</ele></trkpt>      <trkpt lat="48.22103" lon="-3.66663"><ele>63</ele></trkpt>      <trkpt lat="48.22015" lon="-3.66547"><ele>63</ele></trkpt>      <trkpt lat="48.21969" lon="-3.66389"><ele>63</ele></trkpt>      <trkpt lat="48.21815" lon="-3.66169"><ele>63</ele></trkpt>      <trkpt lat="48.21791" lon="-3.66128"><ele>63</ele></trkpt>      <trkpt lat="48.21778" lon="-3.66088"><ele>63</ele></trkpt>      <trkpt lat="48.21789" lon="-3.65966"><ele>63</ele></trkpt>      <trkpt lat="48.21841" lon="-3.65810"><ele>63</ele></trkpt>      <trkpt lat="48.21884" lon="-3.65753"><ele>63</ele></trkpt>      <trkpt lat="48.21906" lon="-3.65740"><ele>63</ele></trkpt>      <trkpt lat="48.21953" lon="-3.65738"><ele>64</ele></trkpt>      <trkpt lat="48.21979" lon="-3.65723"><ele>64</ele></trkpt>      <trkpt lat="48.22042" lon="-3.65643"><ele>64</ele></trkpt>      <trkpt lat="48.22111" lon="-3.65603"><ele>64</ele></trkpt>      <trkpt lat="48.22189" lon="-3.65583"><ele>64</ele></trkpt>      <trkpt lat="48.22255" lon="-3.65589"><ele>64</ele></trkpt>      <trkpt lat="48.22322" lon="-3.65544"><ele>64</ele></trkpt>      <trkpt lat="48.22329" lon="-3.65543"><ele>64</ele></trkpt>      <trkpt lat="48.22349" lon="-3.65574"><ele>64</ele></trkpt>      <trkpt lat="48.22388" lon="-3.65532"><ele>64</ele></trkpt>      <trkpt lat="48.22475" lon="-3.65524"><ele>65</ele></trkpt>      <trkpt lat="48.22538" lon="-3.65491"><ele>65</ele></trkpt>      <trkpt lat="48.22629" lon="-3.65383"><ele>65</ele></trkpt>      <trkpt lat="48.22648" lon="-3.65342"><ele>65</ele></trkpt>      <trkpt lat="48.22658" lon="-3.65245"><ele>65</ele></trkpt>      <trkpt lat="48.22651" lon="-3.65167"><ele>65</ele></trkpt>      <trkpt lat="48.22673" lon="-3.64963"><ele>65</ele></trkpt>      <trkpt lat="48.22611" lon="-3.64604"><ele>65</ele></trkpt>      <trkpt lat="48.22605" lon="-3.64505"><ele>65</ele></trkpt>      <trkpt lat="48.22555" lon="-3.64019"><ele>65</ele></trkpt>      <trkpt lat="48.22557" lon="-3.63924"><ele>66</ele></trkpt>      <trkpt lat="48.22584" lon="-3.63797"><ele>66</ele></trkpt>      <trkpt lat="48.22606" lon="-3.63750"><ele>66</ele></trkpt>      <trkpt lat="48.22737" lon="-3.63655"><ele>66</ele></trkpt>      <trkpt lat="48.22850" lon="-3.63520"><ele>66</ele></trkpt>      <trkpt lat="48.23010" lon="-3.63453"><ele>66</ele></trkpt>      <trkpt lat="48.23221" lon="-3.63423"><ele>67</ele></trkpt>      <trkpt lat="48.23253" lon="-3.63403"><ele>67</ele></trkpt>      <trkpt lat="48.23312" lon="-3.63321"><ele>66</ele></trkpt>      <trkpt lat="48.23335" lon="-3.63239"><ele>66</ele></trkpt>      <trkpt lat="48.23389" lon="-3.63118"><ele>65</ele></trkpt>      <trkpt lat="48.23472" lon="-3.62809"><ele>65</ele></trkpt>      <trkpt lat="48.23533" lon="-3.62552"><ele>65</ele></trkpt>      <trkpt lat="48.23588" lon="-3.62380"><ele>66</ele></trkpt>      <trkpt lat="48.23617" lon="-3.62300"><ele>66</ele></trkpt>      <trkpt lat="48.23657" lon="-3.62135"><ele>66</ele></trkpt>      <trkpt lat="48.23747" lon="-3.61946"><ele>67</ele></trkpt>      <trkpt lat="48.23776" lon="-3.61920"><ele>67</ele></trkpt>      <trkpt lat="48.23865" lon="-3.61899"><ele>67</ele></trkpt>      <trkpt lat="48.24002" lon="-3.61941"><ele>67</ele></trkpt>      <trkpt lat="48.24138" lon="-3.61932"><ele>67</ele></trkpt>      <trkpt lat="48.24178" lon="-3.61939"><ele>67</ele></trkpt>      <trkpt lat="48.24240" lon="-3.61970"><ele>67</ele></trkpt>      <trkpt lat="48.24320" lon="-3.61967"><ele>67</ele></trkpt>      <trkpt lat="48.24427" lon="-3.61976"><ele>68</ele></trkpt>      <trkpt lat="48.24467" lon="-3.61966"><ele>68</ele></trkpt>      <trkpt lat="48.24517" lon="-3.61938"><ele>67</ele></trkpt>      <trkpt lat="48.24609" lon="-3.61832"><ele>67</ele></trkpt>      <trkpt lat="48.24651" lon="-3.61765"><ele>68</ele></trkpt>      <trkpt lat="48.24636" lon="-3.61740"><ele>68</ele></trkpt>      <trkpt lat="48.24707" lon="-3.61600"><ele>69</ele></trkpt>      <trkpt lat="48.24735" lon="-3.61531"><ele>69</ele></trkpt>      <trkpt lat="48.24742" lon="-3.61477"><ele>69</ele></trkpt>      <trkpt lat="48.24694" lon="-3.61293"><ele>69</ele></trkpt>      <trkpt lat="48.24381" lon="-3.60614"><ele>71</ele></trkpt>      <trkpt lat="48.24365" lon="-3.60565"><ele>71</ele></trkpt>      <trkpt lat="48.24332" lon="-3.60510"><ele>73</ele></trkpt>      <trkpt lat="48.24200" lon="-3.60225"><ele>75</ele></trkpt>      <trkpt lat="48.24224" lon="-3.60201"><ele>75</ele></trkpt>      <trkpt lat="48.24259" lon="-3.60208"><ele>76</ele></trkpt>      <trkpt lat="48.24284" lon="-3.60198"><ele>76</ele></trkpt>      <trkpt lat="48.24317" lon="-3.60256"><ele>77</ele></trkpt>      <trkpt lat="48.24378" lon="-3.60362"><ele>78</ele></trkpt>      <trkpt lat="48.24457" lon="-3.60571"><ele>78</ele></trkpt>      <trkpt lat="48.24479" lon="-3.60625"><ele>78</ele></trkpt>      <trkpt lat="48.24498" lon="-3.60700"><ele>78</ele></trkpt>      <trkpt lat="48.24546" lon="-3.60855"><ele>78</ele></trkpt>      <trkpt lat="48.24580" lon="-3.60921"><ele>78</ele></trkpt>      <trkpt lat="48.24612" lon="-3.60950"><ele>78</ele></trkpt>      <trkpt lat="48.24661" lon="-3.60957"><ele>78</ele></trkpt>      <trkpt lat="48.24710" lon="-3.60932"><ele>78</ele></trkpt>      <trkpt lat="48.24848" lon="-3.60788"><ele>77</ele></trkpt>      <trkpt lat="48.24957" lon="-3.60704"><ele>77</ele></trkpt>      <trkpt lat="48.25091" lon="-3.60639"><ele>77</ele></trkpt>      <trkpt lat="48.25293" lon="-3.60591"><ele>77</ele></trkpt>      <trkpt lat="48.25573" lon="-3.60565"><ele>78</ele></trkpt>      <trkpt lat="48.25723" lon="-3.60601"><ele>77</ele></trkpt>      <trkpt lat="48.25806" lon="-3.60641"><ele>77</ele></trkpt>      <trkpt lat="48.25981" lon="-3.60762"><ele>78</ele></trkpt>      <trkpt lat="48.26059" lon="-3.60784"><ele>78</ele></trkpt>      <trkpt lat="48.26114" lon="-3.60786"><ele>79</ele></trkpt>      <trkpt lat="48.26186" lon="-3.60768"><ele>80</ele></trkpt>      <trkpt lat="48.26250" lon="-3.60724"><ele>80</ele></trkpt>      <trkpt lat="48.26360" lon="-3.60592"><ele>80</ele></trkpt>      <trkpt lat="48.26596" lon="-3.60244"><ele>81</ele></trkpt>      <trkpt lat="48.26622" lon="-3.60221"><ele>81</ele></trkpt>      <trkpt lat="48.26624" lon="-3.60216"><ele>81</ele></trkpt>      <trkpt lat="48.26631" lon="-3.60203"><ele>81</ele></trkpt>      <trkpt lat="48.26645" lon="-3.60210"><ele>81</ele></trkpt>      <trkpt lat="48.26642" lon="-3.60267"><ele>81</ele></trkpt>      <trkpt lat="48.26668" lon="-3.60366"><ele>81</ele></trkpt>      <trkpt lat="48.26668" lon="-3.60412"><ele>81</ele></trkpt>      <trkpt lat="48.26682" lon="-3.60392"><ele>81</ele></trkpt>      <trkpt lat="48.26749" lon="-3.60340"><ele>82</ele></trkpt>      <trkpt lat="48.26861" lon="-3.60308"><ele>83</ele></trkpt>      <trkpt lat="48.26899" lon="-3.60277"><ele>83</ele></trkpt>      <trkpt lat="48.26985" lon="-3.60232"><ele>82</ele></trkpt>      <trkpt lat="48.27121" lon="-3.60196"><ele>80</ele></trkpt>      <trkpt lat="48.27181" lon="-3.60202"><ele>80</ele></trkpt>      <trkpt lat="48.27417" lon="-3.60283"><ele>82</ele></trkpt>      <trkpt lat="48.27545" lon="-3.60298"><ele>82</ele></trkpt>      <trkpt lat="48.27603" lon="-3.60332"><ele>82</ele></trkpt>      <trkpt lat="48.27991" lon="-3.60435"><ele>79</ele></trkpt>      <trkpt lat="48.28062" lon="-3.60441"><ele>79</ele></trkpt>      <trkpt lat="48.28199" lon="-3.60423"><ele>79</ele></trkpt>      <trkpt lat="48.28255" lon="-3.60400"><ele>79</ele></trkpt>      <trkpt lat="48.28285" lon="-3.60368"><ele>79</ele></trkpt>      <trkpt lat="48.28324" lon="-3.60300"><ele>79</ele></trkpt>      <trkpt lat="48.28372" lon="-3.60181"><ele>80</ele></trkpt>      <trkpt lat="48.28396" lon="-3.60120"><ele>80</ele></trkpt>      <trkpt lat="48.28437" lon="-3.60096"><ele>81</ele></trkpt>      <trkpt lat="48.28433" lon="-3.60009"><ele>82</ele></trkpt>      <trkpt lat="48.28465" lon="-3.60054"><ele>83</ele></trkpt>      <trkpt lat="48.28517" lon="-3.60183"><ele>85</ele></trkpt>      <trkpt lat="48.28545" lon="-3.60295"><ele>87</ele></trkpt>      <trkpt lat="48.28565" lon="-3.60471"><ele>90</ele></trkpt>      <trkpt lat="48.28579" lon="-3.60515"><ele>91</ele></trkpt>      <trkpt lat="48.28615" lon="-3.60557"><ele>91</ele></trkpt>      <trkpt lat="48.28639" lon="-3.60558"><ele>92</ele></trkpt>      <trkpt lat="48.28744" lon="-3.60526"><ele>94</ele></trkpt>      <trkpt lat="48.28772" lon="-3.60525"><ele>94</ele></trkpt>      <trkpt lat="48.28814" lon="-3.60546"><ele>94</ele></trkpt>      <trkpt lat="48.28846" lon="-3.60589"><ele>94</ele></trkpt>      <trkpt lat="48.28898" lon="-3.60726"><ele>94</ele></trkpt>      <trkpt lat="48.28931" lon="-3.60763"><ele>94</ele></trkpt>      <trkpt lat="48.28963" lon="-3.60772"><ele>94</ele></trkpt>      <trkpt lat="48.29154" lon="-3.60750"><ele>94</ele></trkpt>      <trkpt lat="48.29227" lon="-3.60758"><ele>94</ele></trkpt>      <trkpt lat="48.29339" lon="-3.60791"><ele>95</ele></trkpt>      <trkpt lat="48.29386" lon="-3.60791"><ele>95</ele></trkpt>      <trkpt lat="48.29419" lon="-3.60777"><ele>96</ele></trkpt>      <trkpt lat="48.29463" lon="-3.60737"><ele>96</ele></trkpt>      <trkpt lat="48.29569" lon="-3.60569"><ele>97</ele></trkpt>      <trkpt lat="48.29589" lon="-3.60553"><ele>97</ele></trkpt>      <trkpt lat="48.29627" lon="-3.60551"><ele>97</ele></trkpt>      <trkpt lat="48.29645" lon="-3.60558"><ele>97</ele></trkpt>      <trkpt lat="48.29670" lon="-3.60592"><ele>98</ele></trkpt>      <trkpt lat="48.29723" lon="-3.60776"><ele>99</ele></trkpt>      <trkpt lat="48.29764" lon="-3.60860"><ele>99</ele></trkpt>      <trkpt lat="48.29961" lon="-3.61048"><ele>101</ele></trkpt>      <trkpt lat="48.30030" lon="-3.61078"><ele>101</ele></trkpt>      <trkpt lat="48.30096" lon="-3.61078"><ele>102</ele></trkpt>      <trkpt lat="48.30245" lon="-3.61043"><ele>103</ele></trkpt>      <trkpt lat="48.30394" lon="-3.61105"><ele>104</ele></trkpt>      <trkpt lat="48.30675" lon="-3.61100"><ele>105</ele></trkpt>      <trkpt lat="48.30694" lon="-3.61094"><ele>105</ele></trkpt>      <trkpt lat="48.30734" lon="-3.61059"><ele>107</ele></trkpt>      <trkpt lat="48.30819" lon="-3.60923"><ele>107</ele></trkpt>      <trkpt lat="48.30962" lon="-3.60811"><ele>108</ele></trkpt>      <trkpt lat="48.30991" lon="-3.60791"><ele>108</ele></trkpt>      <trkpt lat="48.31026" lon="-3.60783"><ele>109</ele></trkpt>      <trkpt lat="48.31077" lon="-3.60813"><ele>110</ele></trkpt>      <trkpt lat="48.31091" lon="-3.60832"><ele>110</ele></trkpt>      <trkpt lat="48.31153" lon="-3.60987"><ele>111</ele></trkpt>      <trkpt lat="48.31197" lon="-3.61063"><ele>112</ele></trkpt>      <trkpt lat="48.31228" lon="-3.61220"><ele>114</ele></trkpt>      <trkpt lat="48.31260" lon="-3.61287"><ele>115</ele></trkpt>      <trkpt lat="48.31493" lon="-3.61558"><ele>119</ele></trkpt>      <trkpt lat="48.31633" lon="-3.61657"><ele>123</ele></trkpt>      <trkpt lat="48.31761" lon="-3.61748"><ele>132</ele></trkpt>      <trkpt lat="48.32440" lon="-3.62406"><ele>150</ele></trkpt>      <trkpt lat="48.32510" lon="-3.62461"><ele>150</ele></trkpt>      <trkpt lat="48.32585" lon="-3.62504"><ele>149</ele></trkpt>      <trkpt lat="48.32787" lon="-3.62571"><ele>151</ele></trkpt>      <trkpt lat="48.33139" lon="-3.62737"><ele>159</ele></trkpt>      <trkpt lat="48.33201" lon="-3.62859"><ele>160</ele></trkpt>      <trkpt lat="48.33361" lon="-3.63073"><ele>157</ele></trkpt>      <trkpt lat="48.33448" lon="-3.63271"><ele>156</ele></trkpt>      <trkpt lat="48.33505" lon="-3.63438"><ele>156</ele></trkpt>      <trkpt lat="48.33513" lon="-3.63486"><ele>156</ele></trkpt>      <trkpt lat="48.33583" lon="-3.63651"><ele>155</ele></trkpt>      <trkpt lat="48.33596" lon="-3.63666"><ele>155</ele></trkpt>      <trkpt lat="48.33608" lon="-3.63663"><ele>155</ele></trkpt>      <trkpt lat="48.33680" lon="-3.63833"><ele>154</ele></trkpt>      <trkpt lat="48.33695" lon="-3.63920"><ele>152</ele></trkpt>      <trkpt lat="48.33693" lon="-3.64020"><ele>151</ele></trkpt>      <trkpt lat="48.33678" lon="-3.64226"><ele>148</ele></trkpt>      <trkpt lat="48.33682" lon="-3.64340"><ele>147</ele></trkpt>      <trkpt lat="48.33712" lon="-3.64448"><ele>145</ele></trkpt>      <trkpt lat="48.33743" lon="-3.64503"><ele>144</ele></trkpt>      <trkpt lat="48.33937" lon="-3.64750"><ele>138</ele></trkpt>      <trkpt lat="48.33956" lon="-3.64783"><ele>138</ele></trkpt>      <trkpt lat="48.33986" lon="-3.64868"><ele>136</ele></trkpt>      <trkpt lat="48.33999" lon="-3.64954"><ele>135</ele></trkpt>      <trkpt lat="48.33998" lon="-3.65031"><ele>133</ele></trkpt>      <trkpt lat="48.33958" lon="-3.65304"><ele>128</ele></trkpt>      <trkpt lat="48.33959" lon="-3.65350"><ele>127</ele></trkpt>      <trkpt lat="48.33976" lon="-3.65427"><ele>126</ele></trkpt>      <trkpt lat="48.33999" lon="-3.65478"><ele>126</ele></trkpt>      <trkpt lat="48.34034" lon="-3.65526"><ele>125</ele></trkpt>      <trkpt lat="48.34165" lon="-3.65634"><ele>122</ele></trkpt>      <trkpt lat="48.34224" lon="-3.65762"><ele>120</ele></trkpt>      <trkpt lat="48.34296" lon="-3.65979"><ele>117</ele></trkpt>      <trkpt lat="48.34304" lon="-3.66077"><ele>115</ele></trkpt>      <trkpt lat="48.34287" lon="-3.66521"><ele>108</ele></trkpt>      <trkpt lat="48.34290" lon="-3.66598"><ele>107</ele></trkpt>      <trkpt lat="48.34314" lon="-3.66750"><ele>105</ele></trkpt>      <trkpt lat="48.34318" lon="-3.66821"><ele>104</ele></trkpt>      <trkpt lat="48.34274" lon="-3.67038"><ele>101</ele></trkpt>      <trkpt lat="48.34279" lon="-3.67184"><ele>99</ele></trkpt>      <trkpt lat="48.34271" lon="-3.67251"><ele>98</ele></trkpt>      <trkpt lat="48.34256" lon="-3.67299"><ele>98</ele></trkpt>      <trkpt lat="48.34116" lon="-3.67611"><ele>93</ele></trkpt>      <trkpt lat="48.34110" lon="-3.67701"><ele>93</ele></trkpt>      <trkpt lat="48.34135" lon="-3.67918"><ele>93</ele></trkpt>      <trkpt lat="48.34150" lon="-3.67987"><ele>94</ele></trkpt>      <trkpt lat="48.34200" lon="-3.68076"><ele>94</ele></trkpt>      <trkpt lat="48.34254" lon="-3.68117"><ele>94</ele></trkpt>      <trkpt lat="48.34455" lon="-3.68204"><ele>94</ele></trkpt>      <trkpt lat="48.34600" lon="-3.68352"><ele>94</ele></trkpt>      <trkpt lat="48.34742" lon="-3.68412"><ele>95</ele></trkpt>      <trkpt lat="48.34838" lon="-3.68431"><ele>95</ele></trkpt>      <trkpt lat="48.34904" lon="-3.68431"><ele>95</ele></trkpt>      <trkpt lat="48.34943" lon="-3.68428"><ele>95</ele></trkpt>      <trkpt lat="48.35152" lon="-3.68377"><ele>95</ele></trkpt>      <trkpt lat="48.35191" lon="-3.68381"><ele>95</ele></trkpt>      <trkpt lat="48.35254" lon="-3.68405"><ele>96</ele></trkpt>      <trkpt lat="48.35288" lon="-3.68396"><ele>96</ele></trkpt>      <trkpt lat="48.35381" lon="-3.68335"><ele>96</ele></trkpt>      <trkpt lat="48.35584" lon="-3.68291"><ele>96</ele></trkpt>      <trkpt lat="48.35641" lon="-3.68303"><ele>96</ele></trkpt>      <trkpt lat="48.35714" lon="-3.68340"><ele>97</ele></trkpt>      <trkpt lat="48.35853" lon="-3.68457"><ele>97</ele></trkpt>      <trkpt lat="48.36057" lon="-3.68558"><ele>97</ele></trkpt>      <trkpt lat="48.36266" lon="-3.68614"><ele>97</ele></trkpt>      <trkpt lat="48.36348" lon="-3.68594"><ele>97</ele></trkpt>      <trkpt lat="48.36632" lon="-3.68462"><ele>98</ele></trkpt>      <trkpt lat="48.36689" lon="-3.68427"><ele>98</ele></trkpt>      <trkpt lat="48.36744" lon="-3.68375"><ele>98</ele></trkpt>      <trkpt lat="48.36961" lon="-3.68086"><ele>98</ele></trkpt>      <trkpt lat="48.37001" lon="-3.68053"><ele>98</ele></trkpt>      <trkpt lat="48.37081" lon="-3.68037"><ele>98</ele></trkpt>      <trkpt lat="48.37159" lon="-3.68076"><ele>99</ele></trkpt>      <trkpt lat="48.37199" lon="-3.68129"><ele>99</ele></trkpt>      <trkpt lat="48.37279" lon="-3.68341"><ele>99</ele></trkpt>      <trkpt lat="48.37320" lon="-3.68421"><ele>99</ele></trkpt>      <trkpt lat="48.37375" lon="-3.68484"><ele>99</ele></trkpt>      <trkpt lat="48.37461" lon="-3.68539"><ele>100</ele></trkpt>      <trkpt lat="48.38005" lon="-3.68819"><ele>100</ele></trkpt>      <trkpt lat="48.38394" lon="-3.68872"><ele>100</ele></trkpt>      <trkpt lat="48.38494" lon="-3.68882"><ele>100</ele></trkpt>      <trkpt lat="48.38585" lon="-3.68892"><ele>100</ele></trkpt>      <trkpt lat="48.38680" lon="-3.68896"><ele>101</ele></trkpt>      <trkpt lat="48.38741" lon="-3.68872"><ele>101</ele></trkpt>      <trkpt lat="48.39063" lon="-3.68571"><ele>101</ele></trkpt>      <trkpt lat="48.39145" lon="-3.68519"><ele>101</ele></trkpt>      <trkpt lat="48.39436" lon="-3.68404"><ele>101</ele></trkpt>      <trkpt lat="48.39527" lon="-3.68418"><ele>101</ele></trkpt>      <trkpt lat="48.39586" lon="-3.68449"><ele>102</ele></trkpt>      <trkpt lat="48.39672" lon="-3.68501"><ele>102</ele></trkpt>      <trkpt lat="48.39858" lon="-3.68576"><ele>103</ele></trkpt>      <trkpt lat="48.40013" lon="-3.68712"><ele>105</ele></trkpt>      <trkpt lat="48.40063" lon="-3.68731"><ele>105</ele></trkpt>      <trkpt lat="48.40199" lon="-3.68751"><ele>106</ele></trkpt>      <trkpt lat="48.40352" lon="-3.68846"><ele>106</ele></trkpt>      <trkpt lat="48.40448" lon="-3.68886"><ele>106</ele></trkpt>      <trkpt lat="48.40582" lon="-3.68909"><ele>107</ele></trkpt>      <trkpt lat="48.40611" lon="-3.68928"><ele>107</ele></trkpt>      <trkpt lat="48.40651" lon="-3.68973"><ele>107</ele></trkpt>      <trkpt lat="48.40670" lon="-3.69005"><ele>108</ele></trkpt>      <trkpt lat="48.40695" lon="-3.69077"><ele>108</ele></trkpt>      <trkpt lat="48.40730" lon="-3.69280"><ele>110</ele></trkpt>      <trkpt lat="48.40766" lon="-3.69385"><ele>111</ele></trkpt>      <trkpt lat="48.40798" lon="-3.69429"><ele>111</ele></trkpt>      <trkpt lat="48.40994" lon="-3.69585"><ele>113</ele></trkpt>      <trkpt lat="48.41028" lon="-3.69631"><ele>113</ele></trkpt>      <trkpt lat="48.41079" lon="-3.69760"><ele>114</ele></trkpt>      <trkpt lat="48.41191" lon="-3.70126"><ele>114</ele></trkpt>      <trkpt lat="48.41330" lon="-3.70505"><ele>115</ele></trkpt>      <trkpt lat="48.41367" lon="-3.70680"><ele>117</ele></trkpt>      <trkpt lat="48.41399" lon="-3.70908"><ele>118</ele></trkpt>      <trkpt lat="48.41427" lon="-3.70988"><ele>119</ele></trkpt>      <trkpt lat="48.41450" lon="-3.71030"><ele>119</ele></trkpt>      <trkpt lat="48.41562" lon="-3.71186"><ele>120</ele></trkpt>      <trkpt lat="48.41705" lon="-3.71543"><ele>121</ele></trkpt>      <trkpt lat="48.41729" lon="-3.71583"><ele>121</ele></trkpt>      <trkpt lat="48.41789" lon="-3.71634"><ele>121</ele></trkpt>      <trkpt lat="48.41837" lon="-3.71644"><ele>121</ele></trkpt>      <trkpt lat="48.41956" lon="-3.71629"><ele>121</ele></trkpt>      <trkpt lat="48.42166" lon="-3.71696"><ele>121</ele></trkpt>      <trkpt lat="48.42431" lon="-3.71801"><ele>123</ele></trkpt>      <trkpt lat="48.42538" lon="-3.71880"><ele>124</ele></trkpt>      <trkpt lat="48.42589" lon="-3.71963"><ele>125</ele></trkpt>      <trkpt lat="48.42630" lon="-3.72080"><ele>125</ele></trkpt>      <trkpt lat="48.42653" lon="-3.72188"><ele>125</ele></trkpt>      <trkpt lat="48.42678" lon="-3.72389"><ele>125</ele></trkpt>      <trkpt lat="48.42718" lon="-3.72478"><ele>125</ele></trkpt>      <trkpt lat="48.42808" lon="-3.72567"><ele>125</ele></trkpt>      <trkpt lat="48.42993" lon="-3.72740"><ele>127</ele></trkpt>      <trkpt lat="48.43029" lon="-3.72760"><ele>128</ele></trkpt>      <trkpt lat="48.43065" lon="-3.72771"><ele>128</ele></trkpt>      <trkpt lat="48.43249" lon="-3.72762"><ele>130</ele></trkpt>      <trkpt lat="48.43358" lon="-3.72808"><ele>131</ele></trkpt>      <trkpt lat="48.43372" lon="-3.72822"><ele>131</ele></trkpt>      <trkpt lat="48.43452" lon="-3.72848"><ele>132</ele></trkpt>      <trkpt lat="48.43494" lon="-3.72850"><ele>133</ele></trkpt>      <trkpt lat="48.43555" lon="-3.72827"><ele>134</ele></trkpt>      <trkpt lat="48.43601" lon="-3.72777"><ele>135</ele></trkpt>      <trkpt lat="48.43694" lon="-3.72629"><ele>137</ele></trkpt>      <trkpt lat="48.43943" lon="-3.72231"><ele>139</ele></trkpt>      <trkpt lat="48.43976" lon="-3.72196"><ele>140</ele></trkpt>      <trkpt lat="48.44040" lon="-3.72156"><ele>141</ele></trkpt>      <trkpt lat="48.44093" lon="-3.72148"><ele>142</ele></trkpt>      <trkpt lat="48.44132" lon="-3.72154"><ele>142</ele></trkpt>      <trkpt lat="48.44486" lon="-3.72293"><ele>147</ele></trkpt>      <trkpt lat="48.44624" lon="-3.72352"><ele>149</ele></trkpt>      <trkpt lat="48.44661" lon="-3.72382"><ele>149</ele></trkpt>      <trkpt lat="48.44849" lon="-3.72603"><ele>152</ele></trkpt>      <trkpt lat="48.44873" lon="-3.72622"><ele>153</ele></trkpt>      <trkpt lat="48.44935" lon="-3.72645"><ele>153</ele></trkpt>      <trkpt lat="48.44999" lon="-3.72638"><ele>154</ele></trkpt>      <trkpt lat="48.45051" lon="-3.72611"><ele>154</ele></trkpt>      <trkpt lat="48.45266" lon="-3.72326"><ele>157</ele></trkpt>      <trkpt lat="48.45317" lon="-3.72296"><ele>158</ele></trkpt>      <trkpt lat="48.45390" lon="-3.72289"><ele>158</ele></trkpt>      <trkpt lat="48.45429" lon="-3.72301"><ele>159</ele></trkpt>      <trkpt lat="48.45621" lon="-3.72425"><ele>162</ele></trkpt>      <trkpt lat="48.45734" lon="-3.72460"><ele>164</ele></trkpt>      <trkpt lat="48.45858" lon="-3.72476"><ele>166</ele></trkpt>      <trkpt lat="48.45957" lon="-3.72472"><ele>168</ele></trkpt>      <trkpt lat="48.46036" lon="-3.72445"><ele>170</ele></trkpt>      <trkpt lat="48.46141" lon="-3.72352"><ele>172</ele></trkpt>      <trkpt lat="48.46245" lon="-3.72236"><ele>175</ele></trkpt>      <trkpt lat="48.46294" lon="-3.72206"><ele>176</ele></trkpt>      <trkpt lat="48.46327" lon="-3.72197"><ele>177</ele></trkpt>      <trkpt lat="48.46378" lon="-3.72202"><ele>178</ele></trkpt>      <trkpt lat="48.46414" lon="-3.72220"><ele>179</ele></trkpt>      <trkpt lat="48.46452" lon="-3.72255"><ele>180</ele></trkpt>      <trkpt lat="48.46499" lon="-3.72340"><ele>182</ele></trkpt>      <trkpt lat="48.46621" lon="-3.72770"><ele>190</ele></trkpt>      <trkpt lat="48.46660" lon="-3.72973"><ele>193</ele></trkpt>      <trkpt lat="48.46676" lon="-3.73124"><ele>195</ele></trkpt>      <trkpt lat="48.46679" lon="-3.73317"><ele>198</ele></trkpt>      <trkpt lat="48.46659" lon="-3.73548"><ele>202</ele></trkpt>      <trkpt lat="48.46636" lon="-3.73678"><ele>204</ele></trkpt>      <trkpt lat="48.46557" lon="-3.73959"><ele>208</ele></trkpt>      <trkpt lat="48.46519" lon="-3.74143"><ele>212</ele></trkpt>      <trkpt lat="48.46514" lon="-3.74299"><ele>215</ele></trkpt>      <trkpt lat="48.46536" lon="-3.74473"><ele>217</ele></trkpt>      <trkpt lat="48.46569" lon="-3.74586"><ele>217</ele></trkpt>      <trkpt lat="48.46610" lon="-3.74673"><ele>217</ele></trkpt>      <trkpt lat="48.46793" lon="-3.74900"><ele>215</ele></trkpt>      <trkpt lat="48.46860" lon="-3.74963"><ele>214</ele></trkpt>      <trkpt lat="48.46910" lon="-3.74991"><ele>214</ele></trkpt>      <trkpt lat="48.47011" lon="-3.75016"><ele>213</ele></trkpt>      <trkpt lat="48.47314" lon="-3.74994"><ele>210</ele></trkpt>      <trkpt lat="48.47451" lon="-3.74985"><ele>206</ele></trkpt>      <trkpt lat="48.47522" lon="-3.74994"><ele>204</ele></trkpt>      <trkpt lat="48.47631" lon="-3.75034"><ele>200</ele></trkpt>      <trkpt lat="48.47755" lon="-3.75106"><ele>197</ele></trkpt>      <trkpt lat="48.47805" lon="-3.75156"><ele>197</ele></trkpt>      <trkpt lat="48.47874" lon="-3.75254"><ele>195</ele></trkpt>      <trkpt lat="48.48026" lon="-3.75546"><ele>191</ele></trkpt>      <trkpt lat="48.48113" lon="-3.75635"><ele>190</ele></trkpt>      <trkpt lat="48.48495" lon="-3.75883"><ele>181</ele></trkpt>      <trkpt lat="48.48600" lon="-3.75903"><ele>179</ele></trkpt>      <trkpt lat="48.48710" lon="-3.75882"><ele>176</ele></trkpt>      <trkpt lat="48.48737" lon="-3.75870"><ele>176</ele></trkpt>      <trkpt lat="48.48800" lon="-3.75834"><ele>175</ele></trkpt>      <trkpt lat="48.48925" lon="-3.75738"><ele>171</ele></trkpt>      <trkpt lat="48.49009" lon="-3.75699"><ele>169</ele></trkpt>      <trkpt lat="48.49124" lon="-3.75689"><ele>166</ele></trkpt>      <trkpt lat="48.49357" lon="-3.75741"><ele>161</ele></trkpt>      <trkpt lat="48.49446" lon="-3.75743"><ele>159</ele></trkpt>      <trkpt lat="48.49664" lon="-3.75683"><ele>156</ele></trkpt>      <trkpt lat="48.49813" lon="-3.75651"><ele>155</ele></trkpt>      <trkpt lat="48.50062" lon="-3.75687"><ele>154</ele></trkpt>      <trkpt lat="48.50113" lon="-3.75683"><ele>153</ele></trkpt>      <trkpt lat="48.50180" lon="-3.75664"><ele>152</ele></trkpt>      <trkpt lat="48.50480" lon="-3.75510"><ele>144</ele></trkpt>      <trkpt lat="48.50562" lon="-3.75487"><ele>142</ele></trkpt>      <trkpt lat="48.50658" lon="-3.75491"><ele>141</ele></trkpt>      <trkpt lat="48.50727" lon="-3.75512"><ele>139</ele></trkpt>      <trkpt lat="48.50975" lon="-3.75614"><ele>132</ele></trkpt>      <trkpt lat="48.51042" lon="-3.75652"><ele>130</ele></trkpt>      <trkpt lat="48.51130" lon="-3.75728"><ele>129</ele></trkpt>      <trkpt lat="48.51272" lon="-3.75907"><ele>126</ele></trkpt>      <trkpt lat="48.51423" lon="-3.76074"><ele>122</ele></trkpt>      <trkpt lat="48.51507" lon="-3.76170"><ele>121</ele></trkpt>      <trkpt lat="48.51595" lon="-3.76236"><ele>120</ele></trkpt>      <trkpt lat="48.51695" lon="-3.76274"><ele>119</ele></trkpt>      <trkpt lat="48.51846" lon="-3.76288"><ele>117</ele></trkpt>      <trkpt lat="48.51959" lon="-3.76311"><ele>116</ele></trkpt>      <trkpt lat="48.52050" lon="-3.76355"><ele>114</ele></trkpt>      <trkpt lat="48.52250" lon="-3.76511"><ele>114</ele></trkpt>      <trkpt lat="48.52279" lon="-3.76522"><ele>114</ele></trkpt>      <trkpt lat="48.52370" lon="-3.76592"><ele>113</ele></trkpt>      <trkpt lat="48.52412" lon="-3.76601"><ele>113</ele></trkpt>      <trkpt lat="48.52462" lon="-3.76591"><ele>112</ele></trkpt>      <trkpt lat="48.52770" lon="-3.76431"><ele>107</ele></trkpt>      <trkpt lat="48.52809" lon="-3.76396"><ele>106</ele></trkpt>      <trkpt lat="48.52901" lon="-3.76271"><ele>103</ele></trkpt>      <trkpt lat="48.52965" lon="-3.76224"><ele>101</ele></trkpt>      <trkpt lat="48.53019" lon="-3.76221"><ele>100</ele></trkpt>      <trkpt lat="48.53073" lon="-3.76236"><ele>98</ele></trkpt>      <trkpt lat="48.53151" lon="-3.76299"><ele>96</ele></trkpt>      <trkpt lat="48.53205" lon="-3.76345"><ele>95</ele></trkpt>      <trkpt lat="48.53280" lon="-3.76367"><ele>93</ele></trkpt>      <trkpt lat="48.53328" lon="-3.76360"><ele>92</ele></trkpt>      <trkpt lat="48.53469" lon="-3.76293"><ele>88</ele></trkpt>      <trkpt lat="48.53536" lon="-3.76295"><ele>86</ele></trkpt>      <trkpt lat="48.53587" lon="-3.76323"><ele>86</ele></trkpt>      <trkpt lat="48.53703" lon="-3.76448"><ele>85</ele></trkpt>      <trkpt lat="48.53916" lon="-3.76503"><ele>84</ele></trkpt>      <trkpt lat="48.53952" lon="-3.76526"><ele>84</ele></trkpt>      <trkpt lat="48.53999" lon="-3.76587"><ele>84</ele></trkpt>      <trkpt lat="48.54025" lon="-3.76651"><ele>84</ele></trkpt>      <trkpt lat="48.54070" lon="-3.76835"><ele>84</ele></trkpt>      <trkpt lat="48.54100" lon="-3.76899"><ele>84</ele></trkpt>      <trkpt lat="48.54149" lon="-3.76951"><ele>84</ele></trkpt>      <trkpt lat="48.54194" lon="-3.76987"><ele>84</ele></trkpt>      <trkpt lat="48.54529" lon="-3.77208"><ele>81</ele></trkpt>      <trkpt lat="48.54557" lon="-3.77237"><ele>80</ele></trkpt>      <trkpt lat="48.54591" lon="-3.77292"><ele>79</ele></trkpt>      <trkpt lat="48.54702" lon="-3.77562"><ele>73</ele></trkpt>      <trkpt lat="48.54797" lon="-3.77730"><ele>69</ele></trkpt>      <trkpt lat="48.54880" lon="-3.77842"><ele>67</ele></trkpt>      <trkpt lat="48.55072" lon="-3.78035"><ele>62</ele></trkpt>      <trkpt lat="48.55105" lon="-3.78083"><ele>61</ele></trkpt>      <trkpt lat="48.55136" lon="-3.78139"><ele>60</ele></trkpt>      <trkpt lat="48.55256" lon="-3.78477"><ele>54</ele></trkpt>      <trkpt lat="48.55299" lon="-3.78555"><ele>52</ele></trkpt>      <trkpt lat="48.55503" lon="-3.78835"><ele>47</ele></trkpt>      <trkpt lat="48.55565" lon="-3.78941"><ele>45</ele></trkpt>      <trkpt lat="48.55612" lon="-3.79066"><ele>42</ele></trkpt>      <trkpt lat="48.55656" lon="-3.79138"><ele>41</ele></trkpt>      <trkpt lat="48.55740" lon="-3.79236"><ele>38</ele></trkpt>      <trkpt lat="48.55877" lon="-3.79369"><ele>36</ele></trkpt>      <trkpt lat="48.55947" lon="-3.79481"><ele>34</ele></trkpt>      <trkpt lat="48.56027" lon="-3.79634"><ele>32</ele></trkpt>      <trkpt lat="48.56055" lon="-3.79667"><ele>31</ele></trkpt>      <trkpt lat="48.56115" lon="-3.79718"><ele>30</ele></trkpt>      <trkpt lat="48.56180" lon="-3.79742"><ele>29</ele></trkpt>      <trkpt lat="48.56442" lon="-3.79802"><ele>28</ele></trkpt>      <trkpt lat="48.56590" lon="-3.79877"><ele>28</ele></trkpt>      <trkpt lat="48.56605" lon="-3.79853"><ele>28</ele></trkpt>      <trkpt lat="48.56617" lon="-3.79857"><ele>28</ele></trkpt>      <trkpt lat="48.56696" lon="-3.79966"><ele>28</ele></trkpt>      <trkpt lat="48.56726" lon="-3.79989"><ele>28</ele></trkpt>      <trkpt lat="48.56998" lon="-3.80205"><ele>34</ele></trkpt>      <trkpt lat="48.57037" lon="-3.80244"><ele>34</ele></trkpt>      <trkpt lat="48.57066" lon="-3.80288"><ele>34</ele></trkpt>      <trkpt lat="48.57099" lon="-3.80369"><ele>35</ele></trkpt>      <trkpt lat="48.57121" lon="-3.80465"><ele>36</ele></trkpt>      <trkpt lat="48.57127" lon="-3.80696"><ele>40</ele></trkpt>      <trkpt lat="48.57139" lon="-3.80784"><ele>42</ele></trkpt>      <trkpt lat="48.57162" lon="-3.80860"><ele>42</ele></trkpt>      <trkpt lat="48.57193" lon="-3.80923"><ele>42</ele></trkpt>      <trkpt lat="48.57190" lon="-3.80961"><ele>41</ele></trkpt>      <trkpt lat="48.57252" lon="-3.81191"><ele>26</ele></trkpt>      <trkpt lat="48.57315" lon="-3.81388"><ele>19</ele></trkpt>      <trkpt lat="48.57349" lon="-3.81472"><ele>17</ele></trkpt>      <trkpt lat="48.57436" lon="-3.81597"><ele>16</ele></trkpt>      <trkpt lat="48.57486" lon="-3.81647"><ele>16</ele></trkpt>      <trkpt lat="48.57529" lon="-3.81742"><ele>14</ele></trkpt>      <trkpt lat="48.57483" lon="-3.81795"><ele>14</ele></trkpt>      <trkpt lat="48.57500" lon="-3.81957"><ele>13</ele></trkpt>      <trkpt lat="48.57542" lon="-3.82119"><ele>12</ele></trkpt>      <trkpt lat="48.57555" lon="-3.82129"><ele>12</ele></trkpt>      <trkpt lat="48.57550" lon="-3.82170"><ele>12</ele></trkpt>      <trkpt lat="48.57635" lon="-3.82510"><ele>9</ele></trkpt>      <trkpt lat="48.57681" lon="-3.82569"><ele>9</ele></trkpt>      <trkpt lat="48.57750" lon="-3.82711"><ele>8</ele></trkpt>      <trkpt lat="48.57774" lon="-3.82765"><ele>7</ele></trkpt>      <trkpt lat="48.57829" lon="-3.82871"><ele>6</ele></trkpt>      <trkpt lat="48.57865" lon="-3.82902"><ele>6</ele></trkpt>      <trkpt lat="48.57905" lon="-3.82925"><ele>6</ele></trkpt>      <trkpt lat="48.58041" lon="-3.83007"><ele>5</ele></trkpt>      <trkpt lat="48.58064" lon="-3.83023"><ele>5</ele></trkpt>      <trkpt lat="48.58136" lon="-3.83129"><ele>5</ele></trkpt>      <trkpt lat="48.58152" lon="-3.83166"><ele>5</ele></trkpt>      <trkpt lat="48.58162" lon="-3.83182"><ele>6</ele></trkpt>      <trkpt lat="48.58157" lon="-3.83232"><ele>6</ele></trkpt>      <trkpt lat="48.58206" lon="-3.83312"><ele>6</ele></trkpt>      <trkpt lat="48.58424" lon="-3.83505"><ele>6</ele></trkpt>      <trkpt lat="48.58431" lon="-3.83531"><ele>6</ele></trkpt>      <trkpt lat="48.58433" lon="-3.83603"><ele>7</ele></trkpt>      <trkpt lat="48.58486" lon="-3.83648"><ele>7</ele></trkpt>      <trkpt lat="48.58492" lon="-3.83644"><ele>7</ele></trkpt>      <trkpt lat="48.58496" lon="-3.83657"><ele>7</ele></trkpt>      <trkpt lat="48.58543" lon="-3.83694"><ele>7</ele></trkpt>      <trkpt lat="48.58617" lon="-3.83715"><ele>8</ele></trkpt>      <trkpt lat="48.58686" lon="-3.83766"><ele>9</ele></trkpt>      <trkpt lat="48.58691" lon="-3.83843"><ele>12</ele></trkpt>      <trkpt lat="48.58597" lon="-3.84144"><ele>27</ele></trkpt>      <trkpt lat="48.58588" lon="-3.84277"><ele>32</ele></trkpt>      <trkpt lat="48.58591" lon="-3.84296"><ele>33</ele></trkpt>      <trkpt lat="48.58533" lon="-3.84379"><ele>36</ele></trkpt>      <trkpt lat="48.58269" lon="-3.84647"><ele>51</ele></trkpt>      <trkpt lat="48.58258" lon="-3.84669"><ele>52</ele></trkpt>      <trkpt lat="48.58266" lon="-3.84708"><ele>54</ele></trkpt>      <trkpt lat="48.58379" lon="-3.84819"><ele>58</ele></trkpt>      <trkpt lat="48.58386" lon="-3.84810"><ele>59</ele></trkpt>      <trkpt lat="48.58404" lon="-3.84838"><ele>59</ele></trkpt>      <trkpt lat="48.58501" lon="-3.84867"><ele>63</ele></trkpt>      <trkpt lat="48.58534" lon="-3.84896"><ele>66</ele></trkpt>      <trkpt lat="48.58600" lon="-3.84988"><ele>72</ele></trkpt>      <trkpt lat="48.58558" lon="-3.85074"><ele>77</ele></trkpt>      <trkpt lat="48.58477" lon="-3.85186"><ele>83</ele></trkpt>      <trkpt lat="48.58383" lon="-3.85184"><ele>85</ele></trkpt>      <trkpt lat="48.58273" lon="-3.85291"><ele>88</ele></trkpt>      <trkpt lat="48.58241" lon="-3.85327"><ele>89</ele></trkpt>      <trkpt lat="48.58232" lon="-3.85350"><ele>89</ele></trkpt>      <trkpt lat="48.58181" lon="-3.85475"><ele>90</ele></trkpt>      <trkpt lat="48.58154" lon="-3.85586"><ele>90</ele></trkpt>      <trkpt lat="48.58209" lon="-3.85609"><ele>90</ele></trkpt>      <trkpt lat="48.58339" lon="-3.85638"><ele>91</ele></trkpt>      <trkpt lat="48.58483" lon="-3.85766"><ele>90</ele></trkpt>      <trkpt lat="48.58515" lon="-3.85828"><ele>90</ele></trkpt>      <trkpt lat="48.58561" lon="-3.85956"><ele>90</ele></trkpt>      <trkpt lat="48.58615" lon="-3.86026"><ele>89</ele></trkpt>      <trkpt lat="48.58661" lon="-3.86111"><ele>89</ele></trkpt>      <trkpt lat="48.58737" lon="-3.86209"><ele>89</ele></trkpt>      <trkpt lat="48.58551" lon="-3.86398"><ele>84</ele></trkpt>      <trkpt lat="48.58446" lon="-3.86588"><ele>73</ele></trkpt>      <trkpt lat="48.58237" lon="-3.86810"><ele>47</ele></trkpt>      <trkpt lat="48.58310" lon="-3.87026"><ele>42</ele></trkpt>      <trkpt lat="48.58323" lon="-3.87051"><ele>43</ele></trkpt>      <trkpt lat="48.58314" lon="-3.87173"><ele>40</ele></trkpt>      <trkpt lat="48.58297" lon="-3.87216"><ele>39</ele></trkpt>      <trkpt lat="48.58219" lon="-3.87330"><ele>40</ele></trkpt>      <trkpt lat="48.58222" lon="-3.87349"><ele>41</ele></trkpt>      <trkpt lat="48.58211" lon="-3.87371"><ele>41</ele></trkpt>      <trkpt lat="48.58257" lon="-3.87443"><ele>44</ele></trkpt>      <trkpt lat="48.58272" lon="-3.87495"><ele>45</ele></trkpt>      <trkpt lat="48.58281" lon="-3.87564"><ele>48</ele></trkpt>      <trkpt lat="48.58279" lon="-3.87685"><ele>53</ele></trkpt>      <trkpt lat="48.58214" lon="-3.87840"><ele>60</ele></trkpt>      <trkpt lat="48.58211" lon="-3.87877"><ele>62</ele></trkpt>      <trkpt lat="48.58220" lon="-3.87929"><ele>63</ele></trkpt>      <trkpt lat="48.58241" lon="-3.87971"><ele>65</ele></trkpt>      <trkpt lat="48.58271" lon="-3.87996"><ele>66</ele></trkpt>      <trkpt lat="48.58478" lon="-3.87994"><ele>78</ele></trkpt>      <trkpt lat="48.58496" lon="-3.88006"><ele>79</ele></trkpt>      <trkpt lat="48.58500" lon="-3.88022"><ele>80</ele></trkpt>      <trkpt lat="48.58496" lon="-3.88196"><ele>85</ele></trkpt>      <trkpt lat="48.58521" lon="-3.88287"><ele>87</ele></trkpt>      <trkpt lat="48.58602" lon="-3.88556"><ele>87</ele></trkpt>      <trkpt lat="48.58670" lon="-3.88821"><ele>73</ele></trkpt>      <trkpt lat="48.58734" lon="-3.88925"><ele>76</ele></trkpt>      <trkpt lat="48.58770" lon="-3.88974"><ele>78</ele></trkpt>      <trkpt lat="48.58807" lon="-3.89004"><ele>81</ele></trkpt>      <trkpt lat="48.58829" lon="-3.89083"><ele>84</ele></trkpt>      <trkpt lat="48.58869" lon="-3.89172"><ele>87</ele></trkpt>      <trkpt lat="48.59249" lon="-3.89525"><ele>90</ele></trkpt>      <trkpt lat="48.59324" lon="-3.89795"><ele>89</ele></trkpt>      <trkpt lat="48.59387" lon="-3.89933"><ele>88</ele></trkpt>      <trkpt lat="48.59416" lon="-3.90016"><ele>88</ele></trkpt>      <trkpt lat="48.59430" lon="-3.90061"><ele>87</ele></trkpt>      <trkpt lat="48.59469" lon="-3.90278"><ele>85</ele></trkpt>      <trkpt lat="48.59454" lon="-3.90388"><ele>83</ele></trkpt>      <trkpt lat="48.59468" lon="-3.90581"><ele>81</ele></trkpt>      <trkpt lat="48.59452" lon="-3.90792"><ele>74</ele></trkpt>      <trkpt lat="48.59466" lon="-3.90883"><ele>72</ele></trkpt>      <trkpt lat="48.59519" lon="-3.91079"><ele>69</ele></trkpt>      <trkpt lat="48.59513" lon="-3.91251"><ele>68</ele></trkpt>      <trkpt lat="48.59487" lon="-3.91284"><ele>68</ele></trkpt>      <trkpt lat="48.59341" lon="-3.91406"><ele>68</ele></trkpt>      <trkpt lat="48.59320" lon="-3.91433"><ele>67</ele></trkpt>      <trkpt lat="48.59302" lon="-3.91479"><ele>67</ele></trkpt>      <trkpt lat="48.59231" lon="-3.91849"><ele>63</ele></trkpt>      <trkpt lat="48.59234" lon="-3.91911"><ele>62</ele></trkpt>      <trkpt lat="48.59273" lon="-3.92033"><ele>59</ele></trkpt>      <trkpt lat="48.59280" lon="-3.92085"><ele>57</ele></trkpt>      <trkpt lat="48.59244" lon="-3.92444"><ele>48</ele></trkpt>      <trkpt lat="48.59245" lon="-3.92528"><ele>46</ele></trkpt>      <trkpt lat="48.59321" lon="-3.92690"><ele>40</ele></trkpt>      <trkpt lat="48.59350" lon="-3.92793"><ele>36</ele></trkpt>      <trkpt lat="48.59368" lon="-3.92820"><ele>35</ele></trkpt>      <trkpt lat="48.59424" lon="-3.92854"><ele>32</ele></trkpt>      <trkpt lat="48.59436" lon="-3.92878"><ele>31</ele></trkpt>      <trkpt lat="48.59440" lon="-3.92904"><ele>31</ele></trkpt>      <trkpt lat="48.59433" lon="-3.92938"><ele>30</ele></trkpt>      <trkpt lat="48.59419" lon="-3.92957"><ele>30</ele></trkpt>      <trkpt lat="48.59368" lon="-3.92984"><ele>27</ele></trkpt>      <trkpt lat="48.59346" lon="-3.93015"><ele>26</ele></trkpt>      <trkpt lat="48.59341" lon="-3.93050"><ele>25</ele></trkpt>      <trkpt lat="48.59347" lon="-3.93098"><ele>23</ele></trkpt>      <trkpt lat="48.59403" lon="-3.93183"><ele>20</ele></trkpt>      <trkpt lat="48.59449" lon="-3.93232"><ele>19</ele></trkpt>      <trkpt lat="48.59624" lon="-3.93286"><ele>11</ele></trkpt>      <trkpt lat="48.59737" lon="-3.93367"><ele>8</ele></trkpt>      <trkpt lat="48.59770" lon="-3.93402"><ele>8</ele></trkpt>      <trkpt lat="48.59830" lon="-3.93535"><ele>8</ele></trkpt>      <trkpt lat="48.59899" lon="-3.93583"><ele>8</ele></trkpt>      <trkpt lat="48.59960" lon="-3.93660"><ele>8</ele></trkpt>      <trkpt lat="48.60040" lon="-3.93829"><ele>9</ele></trkpt>      <trkpt lat="48.60156" lon="-3.94008"><ele>9</ele></trkpt>      <trkpt lat="48.60328" lon="-3.94143"><ele>9</ele></trkpt>      <trkpt lat="48.60370" lon="-3.94163"><ele>9</ele></trkpt>      <trkpt lat="48.60487" lon="-3.94184"><ele>9</ele></trkpt>      <trkpt lat="48.60570" lon="-3.94150"><ele>9</ele></trkpt>      <trkpt lat="48.60648" lon="-3.94136"><ele>9</ele></trkpt>      <trkpt lat="48.60710" lon="-3.94133"><ele>9</ele></trkpt>      <trkpt lat="48.60788" lon="-3.94150"><ele>10</ele></trkpt>      <trkpt lat="48.60890" lon="-3.94235"><ele>10</ele></trkpt>      <trkpt lat="48.60974" lon="-3.94268"><ele>10</ele></trkpt>      <trkpt lat="48.61154" lon="-3.94430"><ele>10</ele></trkpt>      <trkpt lat="48.61239" lon="-3.94531"><ele>10</ele></trkpt>      <trkpt lat="48.61338" lon="-3.94622"><ele>10</ele></trkpt>      <trkpt lat="48.61444" lon="-3.94687"><ele>10</ele></trkpt>      <trkpt lat="48.61476" lon="-3.94719"><ele>10</ele></trkpt>      <trkpt lat="48.61572" lon="-3.94874"><ele>11</ele></trkpt>      <trkpt lat="48.61709" lon="-3.94980"><ele>11</ele></trkpt>      <trkpt lat="48.61734" lon="-3.95022"><ele>11</ele></trkpt>      <trkpt lat="48.61827" lon="-3.95268"><ele>11</ele></trkpt>      <trkpt lat="48.61865" lon="-3.95342"><ele>11</ele></trkpt>      <trkpt lat="48.61924" lon="-3.95377"><ele>11</ele></trkpt>      <trkpt lat="48.62062" lon="-3.95347"><ele>11</ele></trkpt>      <trkpt lat="48.62193" lon="-3.95355"><ele>11</ele></trkpt>      <trkpt lat="48.62227" lon="-3.95366"><ele>12</ele></trkpt>      <trkpt lat="48.62305" lon="-3.95413"><ele>12</ele></trkpt>      <trkpt lat="48.62562" lon="-3.95447"><ele>12</ele></trkpt>      <trkpt lat="48.62633" lon="-3.95472"><ele>12</ele></trkpt>      <trkpt lat="48.62653" lon="-3.95519"><ele>12</ele></trkpt>      <trkpt lat="48.62649" lon="-3.95640"><ele>12</ele></trkpt>      <trkpt lat="48.62662" lon="-3.95746"><ele>12</ele></trkpt>      <trkpt lat="48.62655" lon="-3.95840"><ele>12</ele></trkpt>      <trkpt lat="48.62673" lon="-3.95984"><ele>13</ele></trkpt>      <trkpt lat="48.62698" lon="-3.96102"><ele>13</ele></trkpt>      <trkpt lat="48.62713" lon="-3.96126"><ele>13</ele></trkpt>      <trkpt lat="48.62762" lon="-3.96161"><ele>13</ele></trkpt>      <trkpt lat="48.62836" lon="-3.96259"><ele>13</ele></trkpt>      <trkpt lat="48.62961" lon="-3.96359"><ele>18</ele></trkpt>      <trkpt lat="48.63072" lon="-3.96422"><ele>23</ele></trkpt>      <trkpt lat="48.63183" lon="-3.96540"><ele>26</ele></trkpt>      <trkpt lat="48.63600" lon="-3.96818"><ele>46</ele></trkpt>      <trkpt lat="48.63826" lon="-3.96949"><ele>57</ele></trkpt>      <trkpt lat="48.63853" lon="-3.96945"><ele>58</ele></trkpt>      <trkpt lat="48.63903" lon="-3.96898"><ele>59</ele></trkpt>      <trkpt lat="48.63951" lon="-3.96818"><ele>58</ele></trkpt>      <trkpt lat="48.64373" lon="-3.96218"><ele>47</ele></trkpt>      <trkpt lat="48.64356" lon="-3.96181"><ele>46</ele></trkpt>      <trkpt lat="48.64347" lon="-3.96102"><ele>44</ele></trkpt>      <trkpt lat="48.64343" lon="-3.96047"><ele>42</ele></trkpt>      <trkpt lat="48.64353" lon="-3.95994"><ele>39</ele></trkpt>      <trkpt lat="48.64433" lon="-3.95815"><ele>31</ele></trkpt>      <trkpt lat="48.64571" lon="-3.95644"><ele>14</ele></trkpt>      <trkpt lat="48.64574" lon="-3.95631"><ele>14</ele></trkpt>      <trkpt lat="48.64558" lon="-3.95607"><ele>14</ele></trkpt>      <trkpt lat="48.64534" lon="-3.95578"><ele>15</ele></trkpt>      <trkpt lat="48.64505" lon="-3.95516"><ele>14</ele></trkpt>      <trkpt lat="48.64490" lon="-3.95448"><ele>13</ele></trkpt>      <trkpt lat="48.64483" lon="-3.95389"><ele>13</ele></trkpt>      <trkpt lat="48.64487" lon="-3.95371"><ele>12</ele></trkpt>      <trkpt lat="48.64638" lon="-3.95607"><ele>8</ele></trkpt>      <trkpt lat="48.64662" lon="-3.95630"><ele>8</ele></trkpt>      <trkpt lat="48.64717" lon="-3.95638"><ele>8</ele></trkpt>      <trkpt lat="48.64761" lon="-3.95670"><ele>8</ele></trkpt>      <trkpt lat="48.64774" lon="-3.95695"><ele>8</ele></trkpt>      <trkpt lat="48.64789" lon="-3.95773"><ele>8</ele></trkpt>      <trkpt lat="48.64819" lon="-3.95791"><ele>8</ele></trkpt>      <trkpt lat="48.64880" lon="-3.95624"><ele>9</ele></trkpt>      <trkpt lat="48.64916" lon="-3.95643"><ele>9</ele></trkpt>      <trkpt lat="48.64954" lon="-3.95748"><ele>11</ele></trkpt>      <trkpt lat="48.65000" lon="-3.95783"><ele>12</ele></trkpt>      <trkpt lat="48.65037" lon="-3.95789"><ele>12</ele></trkpt>      <trkpt lat="48.65047" lon="-3.95781"><ele>12</ele></trkpt>      <trkpt lat="48.65087" lon="-3.95788"><ele>11</ele></trkpt>      <trkpt lat="48.65095" lon="-3.95759"><ele>10</ele></trkpt>      <trkpt lat="48.65144" lon="-3.95758"><ele>12</ele></trkpt>      <trkpt lat="48.65167" lon="-3.95872"><ele>16</ele></trkpt>      <trkpt lat="48.65530" lon="-3.95610"><ele>17</ele></trkpt>      <trkpt lat="48.65629" lon="-3.95594"><ele>19</ele></trkpt>      <trkpt lat="48.65750" lon="-3.95525"><ele>20</ele></trkpt>      <trkpt lat="48.65847" lon="-3.95430"><ele>18</ele></trkpt>      <trkpt lat="48.65933" lon="-3.95432"><ele>19</ele></trkpt>      <trkpt lat="48.66030" lon="-3.95491"><ele>21</ele></trkpt>      <trkpt lat="48.66085" lon="-3.95532"><ele>21</ele></trkpt>      <trkpt lat="48.66101" lon="-3.95626"><ele>24</ele></trkpt>      <trkpt lat="48.66116" lon="-3.95653"><ele>24</ele></trkpt>      <trkpt lat="48.66257" lon="-3.95774"><ele>21</ele></trkpt>      <trkpt lat="48.66352" lon="-3.95987"><ele>26</ele></trkpt>      <trkpt lat="48.66411" lon="-3.96147"><ele>30</ele></trkpt>      <trkpt lat="48.66482" lon="-3.96239"><ele>30</ele></trkpt>      <trkpt lat="48.66546" lon="-3.96269"><ele>29</ele></trkpt>      <trkpt lat="48.66587" lon="-3.96319"><ele>29</ele></trkpt>      <trkpt lat="48.66634" lon="-3.96358"><ele>30</ele></trkpt>      <trkpt lat="48.66675" lon="-3.96427"><ele>28</ele></trkpt>      <trkpt lat="48.66714" lon="-3.96492"><ele>26</ele></trkpt>      <trkpt lat="48.66784" lon="-3.96524"><ele>22</ele></trkpt>      <trkpt lat="48.66846" lon="-3.96615"><ele>18</ele></trkpt>      <trkpt lat="48.66863" lon="-3.96683"><ele>16</ele></trkpt>      <trkpt lat="48.66884" lon="-3.96720"><ele>15</ele></trkpt>      <trkpt lat="48.66940" lon="-3.96780"><ele>15</ele></trkpt>      <trkpt lat="48.67015" lon="-3.96806"><ele>15</ele></trkpt>      <trkpt lat="48.67098" lon="-3.97010"><ele>12</ele></trkpt>      <trkpt lat="48.67205" lon="-3.97311"><ele>6</ele></trkpt>      <trkpt lat="48.67232" lon="-3.97374"><ele>9</ele></trkpt>      <trkpt lat="48.67270" lon="-3.97421"><ele>11</ele></trkpt>      <trkpt lat="48.67469" lon="-3.97602"><ele>11</ele></trkpt>      <trkpt lat="48.67543" lon="-3.97722"><ele>11</ele></trkpt>      <trkpt lat="48.67632" lon="-3.97939"><ele>12</ele></trkpt>      <trkpt lat="48.67643" lon="-3.98010"><ele>13</ele></trkpt>      <trkpt lat="48.67641" lon="-3.98077"><ele>13</ele></trkpt>      <trkpt lat="48.67835" lon="-3.98124"><ele>18</ele></trkpt>      <trkpt lat="48.67963" lon="-3.98205"><ele>21</ele></trkpt>      <trkpt lat="48.68129" lon="-3.98371"><ele>25</ele></trkpt>      <trkpt lat="48.68184" lon="-3.98367"><ele>26</ele></trkpt>      <trkpt lat="48.68305" lon="-3.98698"><ele>32</ele></trkpt>      <trkpt lat="48.68439" lon="-3.98653"><ele>37</ele></trkpt>      <trkpt lat="48.68458" lon="-3.98654"><ele>37</ele></trkpt>      <trkpt lat="48.68474" lon="-3.98683"><ele>37</ele></trkpt>      <trkpt lat="48.68495" lon="-3.98729"><ele>38</ele></trkpt>      <trkpt lat="48.68500" lon="-3.98740"><ele>38</ele></trkpt>      <trkpt lat="48.68537" lon="-3.98750"><ele>39</ele></trkpt>      <trkpt lat="48.68563" lon="-3.98664"><ele>42</ele></trkpt>      <trkpt lat="48.68639" lon="-3.98670"><ele>46</ele></trkpt>      <trkpt lat="48.68728" lon="-3.98676"><ele>49</ele></trkpt>      <trkpt lat="48.68781" lon="-3.98656"><ele>51</ele></trkpt>      <trkpt lat="48.68829" lon="-3.98665"><ele>51</ele></trkpt>      <trkpt lat="48.68930" lon="-3.98766"><ele>51</ele></trkpt>      <trkpt lat="48.69000" lon="-3.98877"><ele>51</ele></trkpt>      <trkpt lat="48.69019" lon="-3.98878"><ele>51</ele></trkpt>      <trkpt lat="48.69030" lon="-3.98877"><ele>51</ele></trkpt>      <trkpt lat="48.69035" lon="-3.98893"><ele>51</ele></trkpt>      <trkpt lat="48.69025" lon="-3.98906"><ele>51</ele></trkpt>      <trkpt lat="48.69015" lon="-3.99033"><ele>51</ele></trkpt>      <trkpt lat="48.68987" lon="-3.99191"><ele>52</ele></trkpt>      <trkpt lat="48.69046" lon="-3.99245"><ele>52</ele></trkpt>      <trkpt lat="48.69082" lon="-3.99255"><ele>52</ele></trkpt>      <trkpt lat="48.69231" lon="-3.99404"><ele>53</ele></trkpt>      <trkpt lat="48.69315" lon="-3.99548"><ele>49</ele></trkpt>      <trkpt lat="48.69353" lon="-3.99668"><ele>46</ele></trkpt>      <trkpt lat="48.69376" lon="-3.99704"><ele>44</ele></trkpt>      <trkpt lat="48.69562" lon="-3.99692"><ele>41</ele></trkpt>      <trkpt lat="48.69589" lon="-3.99680"><ele>41</ele></trkpt>      <trkpt lat="48.69610" lon="-3.99649"><ele>40</ele></trkpt>      <trkpt lat="48.69628" lon="-3.99690"><ele>40</ele></trkpt>      <trkpt lat="48.69653" lon="-3.99714"><ele>38</ele></trkpt>      <trkpt lat="48.69759" lon="-3.99764"><ele>37</ele></trkpt>      <trkpt lat="48.69805" lon="-3.99776"><ele>37</ele></trkpt>      <trkpt lat="48.69882" lon="-3.99822"><ele>37</ele></trkpt>      <trkpt lat="48.69915" lon="-3.99829"><ele>36</ele></trkpt>      <trkpt lat="48.69946" lon="-3.99826"><ele>35</ele></trkpt>      <trkpt lat="48.70037" lon="-3.99781"><ele>32</ele></trkpt>      <trkpt lat="48.70112" lon="-3.99789"><ele>29</ele></trkpt>      <trkpt lat="48.70177" lon="-3.99767"><ele>28</ele></trkpt>      <trkpt lat="48.70300" lon="-3.99559"><ele>36</ele></trkpt>      <trkpt lat="48.70330" lon="-3.99615"><ele>38</ele></trkpt>      <trkpt lat="48.70350" lon="-3.99690"><ele>40</ele></trkpt>      <trkpt lat="48.70402" lon="-3.99751"><ele>40</ele></trkpt>      <trkpt lat="48.70493" lon="-4.00062"><ele>31</ele></trkpt>      <trkpt lat="48.70648" lon="-4.00346"><ele>15</ele></trkpt>      <trkpt lat="48.70753" lon="-4.00564"><ele>7</ele></trkpt>      <trkpt lat="48.70782" lon="-4.00539"><ele>7</ele></trkpt>      <trkpt lat="48.70864" lon="-4.00505"><ele>5</ele></trkpt>      <trkpt lat="48.70952" lon="-4.00474"><ele>4</ele></trkpt>      <trkpt lat="48.70986" lon="-4.00478"><ele>4</ele></trkpt>      <trkpt lat="48.71420" lon="-4.00752"><ele>3</ele></trkpt>      <trkpt lat="48.71451" lon="-4.00742"><ele>4</ele></trkpt>      <trkpt lat="48.71486" lon="-4.00707"><ele>4</ele></trkpt>      <trkpt lat="48.71532" lon="-4.00701"><ele>5</ele></trkpt>      <trkpt lat="48.71771" lon="-4.00876"><ele>6</ele></trkpt>      <trkpt lat="48.71818" lon="-4.00928"><ele>6</ele></trkpt>      <trkpt lat="48.71932" lon="-4.01035"><ele>7</ele></trkpt>      <trkpt lat="48.71958" lon="-4.01035"><ele>7</ele></trkpt>      <trkpt lat="48.71985" lon="-4.01012"><ele>7</ele></trkpt>      <trkpt lat="48.72079" lon="-4.00883"><ele>6</ele></trkpt>      <trkpt lat="48.72154" lon="-4.00826"><ele>7</ele></trkpt>      <trkpt lat="48.72220" lon="-4.00736"><ele>8</ele></trkpt>      <trkpt lat="48.72233" lon="-4.00685"><ele>7</ele></trkpt>      <trkpt lat="48.72203" lon="-4.00675"><ele>5</ele></trkpt>      <trkpt lat="48.72239" lon="-4.00608"><ele>4</ele></trkpt>      <trkpt lat="48.72254" lon="-4.00549"><ele>4</ele></trkpt>      <trkpt lat="48.72256" lon="-4.00505"><ele>4</ele></trkpt>      <trkpt lat="48.72247" lon="-4.00510"><ele>4</ele></trkpt>    </trkseg>  </trk></gpx>