<?xml version="1.0"?><gpx version="1.0" creator="cycle.travel"  xmlns:xsi="http://www.w3.org/2001/XMLSchema-instance"  xmlns="http://www.topografix.com/GPX/1/0"  xsi:schemaLocation="http://www.topografix.com/GPX/1/0 http://www.topografix.com/GPX/1/0/gpx.xsd">  <trk>    <name>Route 18/8/2026</name>    <trkseg>      <trkpt lat="48.18187" lon="-3.81729"><ele>42</ele></trkpt>      <trkpt lat="48.18172" lon="-3.81714"><ele>42</ele></trkpt>      <trkpt lat="48.18154" lon="-3.81694"><ele>43</ele></trkpt>      <trkpt lat="48.18160" lon="-3.81682"><ele>43</ele></trkpt>      <trkpt lat="48.18244" lon="-3.81622"><ele>46</ele></trkpt>      <trkpt lat="48.18279" lon="-3.81582"><ele>47</ele></trkpt>      <trkpt lat="48.18304" lon="-3.81531"><ele>47</ele></trkpt>      <trkpt lat="48.18349" lon="-3.81265"><ele>48</ele></trkpt>      <trkpt lat="48.18375" lon="-3.81181"><ele>46</ele></trkpt>      <trkpt lat="48.18372" lon="-3.81126"><ele>46</ele></trkpt>      <trkpt lat="48.18357" lon="-3.81066"><ele>45</ele></trkpt>      <trkpt lat="48.18373" lon="-3.81017"><ele>45</ele></trkpt>      <trkpt lat="48.18400" lon="-3.81037"><ele>45</ele></trkpt>      <trkpt lat="48.18483" lon="-3.81036"><ele>44</ele></trkpt>      <trkpt lat="48.18463" lon="-3.80899"><ele>44</ele></trkpt>      <trkpt lat="48.18420" lon="-3.80793"><ele>44</ele></trkpt>      <trkpt lat="48.18407" lon="-3.80756"><ele>45</ele></trkpt>      <trkpt lat="48.18489" lon="-3.80678"><ele>47</ele></trkpt>      <trkpt lat="48.18528" lon="-3.80661"><ele>48</ele></trkpt>      <trkpt lat="48.18552" lon="-3.80692"><ele>49</ele></trkpt>      <trkpt lat="48.18598" lon="-3.80817"><ele>53</ele></trkpt>      <trkpt lat="48.18644" lon="-3.80868"><ele>54</ele></trkpt>      <trkpt lat="48.18645" lon="-3.80857"><ele>54</ele></trkpt>      <trkpt lat="48.18718" lon="-3.80779"><ele>54</ele></trkpt>      <trkpt lat="48.18759" lon="-3.80691"><ele>56</ele></trkpt>      <trkpt lat="48.18827" lon="-3.80541"><ele>59</ele></trkpt>      <trkpt lat="48.18868" lon="-3.80542"><ele>62</ele></trkpt>      <trkpt lat="48.18902" lon="-3.80589"><ele>65</ele></trkpt>      <trkpt lat="48.18914" lon="-3.80593"><ele>67</ele></trkpt>      <trkpt lat="48.18906" lon="-3.80573"><ele>68</ele></trkpt>      <trkpt lat="48.18909" lon="-3.80541"><ele>69</ele></trkpt>      <trkpt lat="48.18930" lon="-3.80522"><ele>71</ele></trkpt>      <trkpt lat="48.18958" lon="-3.80523"><ele>73</ele></trkpt>      <trkpt lat="48.18958" lon="-3.80563"><ele>74</ele></trkpt>      <trkpt lat="48.19004" lon="-3.80642"><ele>76</ele></trkpt>      <trkpt lat="48.19006" lon="-3.80674"><ele>77</ele></trkpt>      <trkpt lat="48.19001" lon="-3.80693"><ele>78</ele></trkpt>      <trkpt lat="48.19018" lon="-3.80683"><ele>79</ele></trkpt>      <trkpt lat="48.19022" lon="-3.80662"><ele>80</ele></trkpt>      <trkpt lat="48.19020" lon="-3.80641"><ele>81</ele></trkpt>      <trkpt lat="48.18997" lon="-3.80589"><ele>84</ele></trkpt>      <trkpt lat="48.18993" lon="-3.80550"><ele>86</ele></trkpt>      <trkpt lat="48.19030" lon="-3.80475"><ele>89</ele></trkpt>      <trkpt lat="48.19117" lon="-3.80332"><ele>97</ele></trkpt>      <trkpt lat="48.19163" lon="-3.80117"><ele>108</ele></trkpt>      <trkpt lat="48.19180" lon="-3.80082"><ele>110</ele></trkpt>      <trkpt lat="48.19211" lon="-3.80062"><ele>113</ele></trkpt>      <trkpt lat="48.19243" lon="-3.80070"><ele>117</ele></trkpt>      <trkpt lat="48.19261" lon="-3.80101"><ele>119</ele></trkpt>      <trkpt lat="48.19295" lon="-3.80203"><ele>119</ele></trkpt>      <trkpt lat="48.19337" lon="-3.80244"><ele>120</ele></trkpt>      <trkpt lat="48.19387" lon="-3.80263"><ele>121</ele></trkpt>      <trkpt lat="48.19505" lon="-3.80268"><ele>126</ele></trkpt>      <trkpt lat="48.19565" lon="-3.80258"><ele>129</ele></trkpt>      <trkpt lat="48.19666" lon="-3.80228"><ele>130</ele></trkpt>      <trkpt lat="48.19803" lon="-3.80202"><ele>134</ele></trkpt>      <trkpt lat="48.19892" lon="-3.80196"><ele>137</ele></trkpt>      <trkpt lat="48.20197" lon="-3.80233"><ele>127</ele></trkpt>      <trkpt lat="48.20218" lon="-3.80085"><ele>121</ele></trkpt>      <trkpt lat="48.20251" lon="-3.80002"><ele>116</ele></trkpt>      <trkpt lat="48.20271" lon="-3.79978"><ele>116</ele></trkpt>      <trkpt lat="48.20299" lon="-3.79974"><ele>117</ele></trkpt>      <trkpt lat="48.20442" lon="-3.80007"><ele>116</ele></trkpt>      <trkpt lat="48.20504" lon="-3.79996"><ele>114</ele></trkpt>      <trkpt lat="48.20537" lon="-3.79974"><ele>113</ele></trkpt>      <trkpt lat="48.20645" lon="-3.79773"><ele>115</ele></trkpt>      <trkpt lat="48.20652" lon="-3.79709"><ele>115</ele></trkpt>      <trkpt lat="48.20652" lon="-3.79514"><ele>115</ele></trkpt>      <trkpt lat="48.20698" lon="-3.79356"><ele>114</ele></trkpt>      <trkpt lat="48.20730" lon="-3.79295"><ele>113</ele></trkpt>      <trkpt lat="48.20837" lon="-3.79148"><ele>109</ele></trkpt>      <trkpt lat="48.20909" lon="-3.79070"><ele>107</ele></trkpt>      <trkpt lat="48.20986" lon="-3.79063"><ele>104</ele></trkpt>      <trkpt lat="48.21012" lon="-3.79079"><ele>103</ele></trkpt>      <trkpt lat="48.21090" lon="-3.79160"><ele>100</ele></trkpt>      <trkpt lat="48.21110" lon="-3.79170"><ele>100</ele></trkpt>      <trkpt lat="48.21132" lon="-3.79162"><ele>99</ele></trkpt>      <trkpt lat="48.21157" lon="-3.79115"><ele>99</ele></trkpt>      <trkpt lat="48.21182" lon="-3.79103"><ele>99</ele></trkpt>      <trkpt lat="48.21204" lon="-3.79114"><ele>100</ele></trkpt>      <trkpt lat="48.21258" lon="-3.79180"><ele>103</ele></trkpt>      <trkpt lat="48.21298" lon="-3.79267"><ele>106</ele></trkpt>      <trkpt lat="48.21336" lon="-3.79313"><ele>109</ele></trkpt>      <trkpt lat="48.21421" lon="-3.79306"><ele>115</ele></trkpt>      <trkpt lat="48.21439" lon="-3.79296"><ele>117</ele></trkpt>      <trkpt lat="48.21486" lon="-3.79242"><ele>121</ele></trkpt>      <trkpt lat="48.21635" lon="-3.79225"><ele>129</ele></trkpt>      <trkpt lat="48.21663" lon="-3.79204"><ele>130</ele></trkpt>      <trkpt lat="48.21719" lon="-3.79116"><ele>129</ele></trkpt>      <trkpt lat="48.21842" lon="-3.79009"><ele>126</ele></trkpt>      <trkpt lat="48.21886" lon="-3.78834"><ele>130</ele></trkpt>      <trkpt lat="48.21916" lon="-3.78691"><ele>133</ele></trkpt>      <trkpt lat="48.21979" lon="-3.78631"><ele>133</ele></trkpt>      <trkpt lat="48.22048" lon="-3.78523"><ele>136</ele></trkpt>      <trkpt lat="48.22075" lon="-3.78515"><ele>136</ele></trkpt>      <trkpt lat="48.22262" lon="-3.78533"><ele>133</ele></trkpt>      <trkpt lat="48.22345" lon="-3.78529"><ele>130</ele></trkpt>      <trkpt lat="48.22401" lon="-3.78514"><ele>130</ele></trkpt>      <trkpt lat="48.22566" lon="-3.78417"><ele>131</ele></trkpt>      <trkpt lat="48.22692" lon="-3.78270"><ele>138</ele></trkpt>      <trkpt lat="48.22720" lon="-3.78245"><ele>139</ele></trkpt>      <trkpt lat="48.22738" lon="-3.78247"><ele>139</ele></trkpt>      <trkpt lat="48.22816" lon="-3.78388"><ele>138</ele></trkpt>      <trkpt lat="48.22973" lon="-3.78592"><ele>137</ele></trkpt>      <trkpt lat="48.23098" lon="-3.78713"><ele>127</ele></trkpt>      <trkpt lat="48.23447" lon="-3.79223"><ele>133</ele></trkpt>      <trkpt lat="48.23536" lon="-3.79349"><ele>135</ele></trkpt>      <trkpt lat="48.23591" lon="-3.79381"><ele>136</ele></trkpt>      <trkpt lat="48.23837" lon="-3.79390"><ele>137</ele></trkpt>      <trkpt lat="48.24087" lon="-3.79364"><ele>129</ele></trkpt>      <trkpt lat="48.24129" lon="-3.79372"><ele>126</ele></trkpt>      <trkpt lat="48.24132" lon="-3.79488"><ele>127</ele></trkpt>      <trkpt lat="48.24148" lon="-3.79575"><ele>132</ele></trkpt>      <trkpt lat="48.24435" lon="-3.80339"><ele>153</ele></trkpt>      <trkpt lat="48.24475" lon="-3.80416"><ele>153</ele></trkpt>      <trkpt lat="48.24643" lon="-3.80637"><ele>152</ele></trkpt>      <trkpt lat="48.24709" lon="-3.80730"><ele>152</ele></trkpt>      <trkpt lat="48.24755" lon="-3.80844"><ele>151</ele></trkpt>      <trkpt lat="48.24893" lon="-3.81284"><ele>152</ele></trkpt>      <trkpt lat="48.24914" lon="-3.81365"><ele>152</ele></trkpt>      <trkpt lat="48.24935" lon="-3.81505"><ele>154</ele></trkpt>      <trkpt lat="48.24940" lon="-3.81826"><ele>157</ele></trkpt>      <trkpt lat="48.24959" lon="-3.81916"><ele>157</ele></trkpt>      <trkpt lat="48.24998" lon="-3.82026"><ele>157</ele></trkpt>      <trkpt lat="48.25108" lon="-3.82252"><ele>157</ele></trkpt>      <trkpt lat="48.25135" lon="-3.82290"><ele>157</ele></trkpt>      <trkpt lat="48.25210" lon="-3.82363"><ele>157</ele></trkpt>      <trkpt lat="48.25184" lon="-3.82468"><ele>156</ele></trkpt>      <trkpt lat="48.25250" lon="-3.82509"><ele>155</ele></trkpt>      <trkpt lat="48.25296" lon="-3.82540"><ele>155</ele></trkpt>      <trkpt lat="48.25433" lon="-3.82630"><ele>153</ele></trkpt>      <trkpt lat="48.25546" lon="-3.82673"><ele>152</ele></trkpt>      <trkpt lat="48.25554" lon="-3.82666"><ele>152</ele></trkpt>      <trkpt lat="48.25560" lon="-3.82682"><ele>152</ele></trkpt>      <trkpt lat="48.25615" lon="-3.82708"><ele>153</ele></trkpt>      <trkpt lat="48.25804" lon="-3.82732"><ele>155</ele></trkpt>      <trkpt lat="48.25922" lon="-3.82722"><ele>156</ele></trkpt>      <trkpt lat="48.26135" lon="-3.82809"><ele>157</ele></trkpt>      <trkpt lat="48.26199" lon="-3.82848"><ele>157</ele></trkpt>      <trkpt lat="48.26368" lon="-3.82877"><ele>158</ele></trkpt>      <trkpt lat="48.26642" lon="-3.82954"><ele>159</ele></trkpt>      <trkpt lat="48.26687" lon="-3.82991"><ele>156</ele></trkpt>      <trkpt lat="48.26811" lon="-3.83135"><ele>158</ele></trkpt>      <trkpt lat="48.26912" lon="-3.83296"><ele>151</ele></trkpt>      <trkpt lat="48.27017" lon="-3.83432"><ele>159</ele></trkpt>      <trkpt lat="48.27293" lon="-3.83890"><ele>162</ele></trkpt>      <trkpt lat="48.27325" lon="-3.83920"><ele>162</ele></trkpt>      <trkpt lat="48.27419" lon="-3.83966"><ele>161</ele></trkpt>      <trkpt lat="48.27488" lon="-3.84018"><ele>160</ele></trkpt>      <trkpt lat="48.27597" lon="-3.84192"><ele>157</ele></trkpt>      <trkpt lat="48.27635" lon="-3.84222"><ele>156</ele></trkpt>      <trkpt lat="48.27748" lon="-3.84257"><ele>155</ele></trkpt>      <trkpt lat="48.27841" lon="-3.84362"><ele>147</ele></trkpt>      <trkpt lat="48.27845" lon="-3.84394"><ele>145</ele></trkpt>      <trkpt lat="48.27838" lon="-3.84429"><ele>143</ele></trkpt>      <trkpt lat="48.27796" lon="-3.84583"><ele>135</ele></trkpt>      <trkpt lat="48.27760" lon="-3.84677"><ele>134</ele></trkpt>      <trkpt lat="48.27761" lon="-3.84714"><ele>133</ele></trkpt>      <trkpt lat="48.27768" lon="-3.84732"><ele>130</ele></trkpt>      <trkpt lat="48.27784" lon="-3.84747"><ele>127</ele></trkpt>      <trkpt lat="48.27800" lon="-3.84745"><ele>124</ele></trkpt>      <trkpt lat="48.27858" lon="-3.84659"><ele>120</ele></trkpt>      <trkpt lat="48.27880" lon="-3.84639"><ele>118</ele></trkpt>      <trkpt lat="48.27903" lon="-3.84638"><ele>116</ele></trkpt>      <trkpt lat="48.27968" lon="-3.84686"><ele>110</ele></trkpt>      <trkpt lat="48.28165" lon="-3.84818"><ele>119</ele></trkpt>      <trkpt lat="48.28299" lon="-3.84858"><ele>127</ele></trkpt>      <trkpt lat="48.28455" lon="-3.84979"><ele>136</ele></trkpt>      <trkpt lat="48.28551" lon="-3.85103"><ele>138</ele></trkpt>      <trkpt lat="48.28565" lon="-3.85133"><ele>138</ele></trkpt>      <trkpt lat="48.28558" lon="-3.85330"><ele>136</ele></trkpt>      <trkpt lat="48.28574" lon="-3.85370"><ele>138</ele></trkpt>      <trkpt lat="48.28588" lon="-3.85390"><ele>139</ele></trkpt>      <trkpt lat="48.28647" lon="-3.85420"><ele>142</ele></trkpt>      <trkpt lat="48.28753" lon="-3.85425"><ele>149</ele></trkpt>      <trkpt lat="48.28827" lon="-3.85462"><ele>150</ele></trkpt>      <trkpt lat="48.28898" lon="-3.85537"><ele>148</ele></trkpt>      <trkpt lat="48.28945" lon="-3.85662"><ele>148</ele></trkpt>      <trkpt lat="48.28964" lon="-3.85693"><ele>150</ele></trkpt>      <trkpt lat="48.29045" lon="-3.85749"><ele>158</ele></trkpt>      <trkpt lat="48.29090" lon="-3.85844"><ele>164</ele></trkpt>      <trkpt lat="48.29219" lon="-3.85966"><ele>164</ele></trkpt>      <trkpt lat="48.29422" lon="-3.85613"><ele>165</ele></trkpt>      <trkpt lat="48.29575" lon="-3.85042"><ele>181</ele></trkpt>      <trkpt lat="48.29777" lon="-3.85129"><ele>167</ele></trkpt>      <trkpt lat="48.29919" lon="-3.85212"><ele>161</ele></trkpt>      <trkpt lat="48.29984" lon="-3.85216"><ele>159</ele></trkpt>      <trkpt lat="48.30274" lon="-3.85324"><ele>170</ele></trkpt>      <trkpt lat="48.30349" lon="-3.85367"><ele>173</ele></trkpt>      <trkpt lat="48.30372" lon="-3.85398"><ele>174</ele></trkpt>      <trkpt lat="48.30480" lon="-3.85491"><ele>170</ele></trkpt>      <trkpt lat="48.30545" lon="-3.85530"><ele>165</ele></trkpt>      <trkpt lat="48.30609" lon="-3.85528"><ele>157</ele></trkpt>      <trkpt lat="48.30707" lon="-3.85589"><ele>153</ele></trkpt>      <trkpt lat="48.30760" lon="-3.85640"><ele>155</ele></trkpt>      <trkpt lat="48.30799" lon="-3.85662"><ele>157</ele></trkpt>      <trkpt lat="48.30838" lon="-3.85670"><ele>160</ele></trkpt>      <trkpt lat="48.30915" lon="-3.85638"><ele>166</ele></trkpt>      <trkpt lat="48.30977" lon="-3.85647"><ele>170</ele></trkpt>      <trkpt lat="48.31074" lon="-3.85623"><ele>176</ele></trkpt>      <trkpt lat="48.31344" lon="-3.85613"><ele>178</ele></trkpt>      <trkpt lat="48.31374" lon="-3.85623"><ele>179</ele></trkpt>      <trkpt lat="48.31512" lon="-3.85710"><ele>189</ele></trkpt>      <trkpt lat="48.31621" lon="-3.85751"><ele>200</ele></trkpt>      <trkpt lat="48.31652" lon="-3.85760"><ele>203</ele></trkpt>      <trkpt lat="48.31786" lon="-3.85763"><ele>213</ele></trkpt>      <trkpt lat="48.31927" lon="-3.85871"><ele>224</ele></trkpt>      <trkpt lat="48.31975" lon="-3.85878"><ele>228</ele></trkpt>      <trkpt lat="48.31983" lon="-3.85840"><ele>230</ele></trkpt>      <trkpt lat="48.32020" lon="-3.85841"><ele>233</ele></trkpt>      <trkpt lat="48.32049" lon="-3.85769"><ele>238</ele></trkpt>      <trkpt lat="48.32141" lon="-3.85734"><ele>250</ele></trkpt>      <trkpt lat="48.32216" lon="-3.85611"><ele>256</ele></trkpt>      <trkpt lat="48.32246" lon="-3.85578"><ele>257</ele></trkpt>      <trkpt lat="48.32356" lon="-3.85505"><ele>260</ele></trkpt>      <trkpt lat="48.32493" lon="-3.85320"><ele>264</ele></trkpt>      <trkpt lat="48.32588" lon="-3.85174"><ele>262</ele></trkpt>      <trkpt lat="48.32652" lon="-3.85097"><ele>260</ele></trkpt>      <trkpt lat="48.32683" lon="-3.85310"><ele>259</ele></trkpt>      <trkpt lat="48.32706" lon="-3.85365"><ele>259</ele></trkpt>      <trkpt lat="48.32729" lon="-3.85397"><ele>260</ele></trkpt>      <trkpt lat="48.32801" lon="-3.85431"><ele>260</ele></trkpt>      <trkpt lat="48.33222" lon="-3.85575"><ele>254</ele></trkpt>      <trkpt lat="48.33421" lon="-3.85605"><ele>249</ele></trkpt>      <trkpt lat="48.33742" lon="-3.85628"><ele>244</ele></trkpt>      <trkpt lat="48.34013" lon="-3.85571"><ele>241</ele></trkpt>      <trkpt lat="48.34088" lon="-3.85546"><ele>240</ele></trkpt>      <trkpt lat="48.34121" lon="-3.85516"><ele>240</ele></trkpt>      <trkpt lat="48.34136" lon="-3.85462"><ele>238</ele></trkpt>      <trkpt lat="48.34140" lon="-3.85378"><ele>234</ele></trkpt>      <trkpt lat="48.34133" lon="-3.85132"><ele>229</ele></trkpt>      <trkpt lat="48.34173" lon="-3.85009"><ele>226</ele></trkpt>      <trkpt lat="48.34201" lon="-3.84751"><ele>221</ele></trkpt>      <trkpt lat="48.34218" lon="-3.84682"><ele>220</ele></trkpt>      <trkpt lat="48.34557" lon="-3.84794"><ele>219</ele></trkpt>      <trkpt lat="48.34707" lon="-3.84820"><ele>221</ele></trkpt>      <trkpt lat="48.34759" lon="-3.84827"><ele>222</ele></trkpt>      <trkpt lat="48.34822" lon="-3.84802"><ele>223</ele></trkpt>      <trkpt lat="48.34855" lon="-3.84770"><ele>223</ele></trkpt>      <trkpt lat="48.34934" lon="-3.84692"><ele>224</ele></trkpt>      <trkpt lat="48.34967" lon="-3.84681"><ele>224</ele></trkpt>      <trkpt lat="48.35075" lon="-3.84686"><ele>225</ele></trkpt>      <trkpt lat="48.35106" lon="-3.84672"><ele>225</ele></trkpt>      <trkpt lat="48.35174" lon="-3.84606"><ele>226</ele></trkpt>      <trkpt lat="48.35220" lon="-3.84579"><ele>227</ele></trkpt>      <trkpt lat="48.35250" lon="-3.84573"><ele>228</ele></trkpt>      <trkpt lat="48.35322" lon="-3.84586"><ele>230</ele></trkpt>      <trkpt lat="48.35372" lon="-3.84614"><ele>231</ele></trkpt>      <trkpt lat="48.35448" lon="-3.84710"><ele>233</ele></trkpt>      <trkpt lat="48.35563" lon="-3.84770"><ele>236</ele></trkpt>      <trkpt lat="48.35650" lon="-3.84788"><ele>239</ele></trkpt>      <trkpt lat="48.35841" lon="-3.84781"><ele>244</ele></trkpt>      <trkpt lat="48.35891" lon="-3.84820"><ele>245</ele></trkpt>      <trkpt lat="48.36107" lon="-3.85040"><ele>252</ele></trkpt>      <trkpt lat="48.36276" lon="-3.85018"><ele>252</ele></trkpt>      <trkpt lat="48.36317" lon="-3.85030"><ele>252</ele></trkpt>      <trkpt lat="48.36373" lon="-3.85291"><ele>248</ele></trkpt>      <trkpt lat="48.36449" lon="-3.85562"><ele>242</ele></trkpt>      <trkpt lat="48.36473" lon="-3.85843"><ele>237</ele></trkpt>      <trkpt lat="48.36504" lon="-3.85958"><ele>237</ele></trkpt>      <trkpt lat="48.36574" lon="-3.85896"><ele>237</ele></trkpt>      <trkpt lat="48.36609" lon="-3.85902"><ele>237</ele></trkpt>      <trkpt lat="48.36651" lon="-3.85928"><ele>237</ele></trkpt>      <trkpt lat="48.36704" lon="-3.86094"><ele>235</ele></trkpt>      <trkpt lat="48.36731" lon="-3.86142"><ele>235</ele></trkpt>      <trkpt lat="48.36804" lon="-3.86223"><ele>238</ele></trkpt>      <trkpt lat="48.36842" lon="-3.86253"><ele>239</ele></trkpt>      <trkpt lat="48.36921" lon="-3.86279"><ele>237</ele></trkpt>      <trkpt lat="48.37099" lon="-3.86387"><ele>226</ele></trkpt>      <trkpt lat="48.37164" lon="-3.86409"><ele>228</ele></trkpt>      <trkpt lat="48.37201" lon="-3.86406"><ele>230</ele></trkpt>      <trkpt lat="48.37317" lon="-3.86363"><ele>239</ele></trkpt>      <trkpt lat="48.37461" lon="-3.86340"><ele>250</ele></trkpt>      <trkpt lat="48.37523" lon="-3.86328"><ele>254</ele></trkpt>      <trkpt lat="48.37652" lon="-3.86261"><ele>260</ele></trkpt>      <trkpt lat="48.37729" lon="-3.86232"><ele>259</ele></trkpt>      <trkpt lat="48.37847" lon="-3.86212"><ele>257</ele></trkpt>      <trkpt lat="48.38012" lon="-3.86219"><ele>253</ele></trkpt>      <trkpt lat="48.38090" lon="-3.86185"><ele>256</ele></trkpt>      <trkpt lat="48.38246" lon="-3.86089"><ele>257</ele></trkpt>      <trkpt lat="48.38287" lon="-3.86084"><ele>257</ele></trkpt>      <trkpt lat="48.38355" lon="-3.86097"><ele>256</ele></trkpt>      <trkpt lat="48.38376" lon="-3.86105"><ele>255</ele></trkpt>      <trkpt lat="48.38423" lon="-3.86159"><ele>252</ele></trkpt>      <trkpt lat="48.38528" lon="-3.86161"><ele>253</ele></trkpt>      <trkpt lat="48.38544" lon="-3.86143"><ele>253</ele></trkpt>      <trkpt lat="48.38573" lon="-3.86037"><ele>253</ele></trkpt>      <trkpt lat="48.38663" lon="-3.85817"><ele>253</ele></trkpt>      <trkpt lat="48.38716" lon="-3.85780"><ele>254</ele></trkpt>      <trkpt lat="48.38842" lon="-3.85749"><ele>257</ele></trkpt>      <trkpt lat="48.38864" lon="-3.85758"><ele>257</ele></trkpt>      <trkpt lat="48.38910" lon="-3.85828"><ele>255</ele></trkpt>      <trkpt lat="48.38931" lon="-3.85796"><ele>254</ele></trkpt>      <trkpt lat="48.39012" lon="-3.85701"><ele>258</ele></trkpt>      <trkpt lat="48.39091" lon="-3.85652"><ele>262</ele></trkpt>      <trkpt lat="48.39129" lon="-3.85601"><ele>264</ele></trkpt>      <trkpt lat="48.39181" lon="-3.85579"><ele>265</ele></trkpt>      <trkpt lat="48.39205" lon="-3.85551"><ele>264</ele></trkpt>      <trkpt lat="48.39295" lon="-3.85654"><ele>261</ele></trkpt>      <trkpt lat="48.39361" lon="-3.85679"><ele>258</ele></trkpt>      <trkpt lat="48.39485" lon="-3.85673"><ele>253</ele></trkpt>      <trkpt lat="48.39538" lon="-3.85684"><ele>252</ele></trkpt>      <trkpt lat="48.39808" lon="-3.85825"><ele>265</ele></trkpt>      <trkpt lat="48.39938" lon="-3.85881"><ele>270</ele></trkpt>      <trkpt lat="48.40004" lon="-3.85950"><ele>271</ele></trkpt>      <trkpt lat="48.40022" lon="-3.86008"><ele>272</ele></trkpt>      <trkpt lat="48.40121" lon="-3.86037"><ele>275</ele></trkpt>      <trkpt lat="48.40748" lon="-3.86190"><ele>305</ele></trkpt>      <trkpt lat="48.40806" lon="-3.86230"><ele>308</ele></trkpt>      <trkpt lat="48.40867" lon="-3.86301"><ele>314</ele></trkpt>      <trkpt lat="48.40906" lon="-3.86371"><ele>317</ele></trkpt>      <trkpt lat="48.40941" lon="-3.86469"><ele>318</ele></trkpt>      <trkpt lat="48.40959" lon="-3.86615"><ele>321</ele></trkpt>      <trkpt lat="48.40950" lon="-3.86927"><ele>327</ele></trkpt>      <trkpt lat="48.41057" lon="-3.87818"><ele>336</ele></trkpt>      <trkpt lat="48.41091" lon="-3.88102"><ele>341</ele></trkpt>      <trkpt lat="48.41159" lon="-3.89140"><ele>348</ele></trkpt>      <trkpt lat="48.41174" lon="-3.89276"><ele>348</ele></trkpt>      <trkpt lat="48.41193" lon="-3.89526"><ele>343</ele></trkpt>      <trkpt lat="48.41202" lon="-3.89531"><ele>343</ele></trkpt>      <trkpt lat="48.41342" lon="-3.89497"><ele>335</ele></trkpt>      <trkpt lat="48.41393" lon="-3.89466"><ele>332</ele></trkpt>      <trkpt lat="48.41420" lon="-3.89432"><ele>331</ele></trkpt>      <trkpt lat="48.41533" lon="-3.89229"><ele>325</ele></trkpt>      <trkpt lat="48.41638" lon="-3.89079"><ele>319</ele></trkpt>      <trkpt lat="48.41834" lon="-3.88871"><ele>309</ele></trkpt>      <trkpt lat="48.41955" lon="-3.88757"><ele>303</ele></trkpt>      <trkpt lat="48.42019" lon="-3.88691"><ele>300</ele></trkpt>      <trkpt lat="48.42115" lon="-3.88484"><ele>294</ele></trkpt>      <trkpt lat="48.42144" lon="-3.88438"><ele>291</ele></trkpt>      <trkpt lat="48.42178" lon="-3.88402"><ele>289</ele></trkpt>      <trkpt lat="48.42250" lon="-3.88361"><ele>286</ele></trkpt>      <trkpt lat="48.42335" lon="-3.88347"><ele>282</ele></trkpt>      <trkpt lat="48.42397" lon="-3.88360"><ele>280</ele></trkpt>      <trkpt lat="48.42733" lon="-3.88558"><ele>263</ele></trkpt>      <trkpt lat="48.42772" lon="-3.88570"><ele>261</ele></trkpt>      <trkpt lat="48.42841" lon="-3.88568"><ele>258</ele></trkpt>      <trkpt lat="48.42978" lon="-3.88517"><ele>251</ele></trkpt>      <trkpt lat="48.43028" lon="-3.88519"><ele>248</ele></trkpt>      <trkpt lat="48.43028" lon="-3.88542"><ele>248</ele></trkpt>      <trkpt lat="48.43031" lon="-3.88569"><ele>247</ele></trkpt>      <trkpt lat="48.43106" lon="-3.88576"><ele>243</ele></trkpt>      <trkpt lat="48.43221" lon="-3.88606"><ele>237</ele></trkpt>      <trkpt lat="48.43289" lon="-3.88667"><ele>234</ele></trkpt>      <trkpt lat="48.43402" lon="-3.88806"><ele>229</ele></trkpt>      <trkpt lat="48.43426" lon="-3.88823"><ele>228</ele></trkpt>      <trkpt lat="48.43556" lon="-3.88851"><ele>233</ele></trkpt>      <trkpt lat="48.43672" lon="-3.88940"><ele>244</ele></trkpt>      <trkpt lat="48.43756" lon="-3.89029"><ele>248</ele></trkpt>      <trkpt lat="48.43860" lon="-3.89097"><ele>249</ele></trkpt>      <trkpt lat="48.43884" lon="-3.89113"><ele>249</ele></trkpt>      <trkpt lat="48.43861" lon="-3.89198"><ele>246</ele></trkpt>      <trkpt lat="48.43839" lon="-3.89326"><ele>241</ele></trkpt>      <trkpt lat="48.43795" lon="-3.89483"><ele>237</ele></trkpt>      <trkpt lat="48.43775" lon="-3.89543"><ele>237</ele></trkpt>      <trkpt lat="48.43658" lon="-3.89811"><ele>236</ele></trkpt>      <trkpt lat="48.43606" lon="-3.90022"><ele>235</ele></trkpt>      <trkpt lat="48.43585" lon="-3.90181"><ele>233</ele></trkpt>      <trkpt lat="48.43533" lon="-3.90618"><ele>224</ele></trkpt>      <trkpt lat="48.43531" lon="-3.90706"><ele>223</ele></trkpt>      <trkpt lat="48.43541" lon="-3.90792"><ele>224</ele></trkpt>      <trkpt lat="48.43599" lon="-3.91032"><ele>226</ele></trkpt>      <trkpt lat="48.43624" lon="-3.91302"><ele>218</ele></trkpt>      <trkpt lat="48.43645" lon="-3.91433"><ele>216</ele></trkpt>      <trkpt lat="48.43691" lon="-3.91546"><ele>215</ele></trkpt>      <trkpt lat="48.43745" lon="-3.91638"><ele>215</ele></trkpt>      <trkpt lat="48.43834" lon="-3.91743"><ele>216</ele></trkpt>      <trkpt lat="48.43913" lon="-3.91896"><ele>217</ele></trkpt>      <trkpt lat="48.44089" lon="-3.92068"><ele>202</ele></trkpt>      <trkpt lat="48.44269" lon="-3.92415"><ele>186</ele></trkpt>      <trkpt lat="48.44300" lon="-3.92457"><ele>183</ele></trkpt>      <trkpt lat="48.44355" lon="-3.92503"><ele>181</ele></trkpt>      <trkpt lat="48.44403" lon="-3.92527"><ele>179</ele></trkpt>      <trkpt lat="48.44519" lon="-3.92549"><ele>171</ele></trkpt>      <trkpt lat="48.44589" lon="-3.92615"><ele>168</ele></trkpt>      <trkpt lat="48.44646" lon="-3.92716"><ele>166</ele></trkpt>      <trkpt lat="48.44679" lon="-3.92805"><ele>166</ele></trkpt>      <trkpt lat="48.44754" lon="-3.93174"><ele>164</ele></trkpt>      <trkpt lat="48.44770" lon="-3.93264"><ele>164</ele></trkpt>      <trkpt lat="48.44794" lon="-3.93551"><ele>163</ele></trkpt>      <trkpt lat="48.44814" lon="-3.93545"><ele>163</ele></trkpt>      <trkpt lat="48.44858" lon="-3.93482"><ele>161</ele></trkpt>      <trkpt lat="48.44945" lon="-3.93458"><ele>160</ele></trkpt>      <trkpt lat="48.44969" lon="-3.93443"><ele>161</ele></trkpt>      <trkpt lat="48.45053" lon="-3.93357"><ele>167</ele></trkpt>      <trkpt lat="48.45101" lon="-3.93280"><ele>169</ele></trkpt>      <trkpt lat="48.45125" lon="-3.93261"><ele>170</ele></trkpt>      <trkpt lat="48.45172" lon="-3.93279"><ele>171</ele></trkpt>      <trkpt lat="48.45265" lon="-3.93377"><ele>172</ele></trkpt>      <trkpt lat="48.45286" lon="-3.93363"><ele>171</ele></trkpt>      <trkpt lat="48.45407" lon="-3.93140"><ele>169</ele></trkpt>      <trkpt lat="48.45458" lon="-3.93114"><ele>169</ele></trkpt>      <trkpt lat="48.45602" lon="-3.93122"><ele>167</ele></trkpt>      <trkpt lat="48.45625" lon="-3.93103"><ele>167</ele></trkpt>      <trkpt lat="48.45664" lon="-3.93014"><ele>168</ele></trkpt>      <trkpt lat="48.45700" lon="-3.92978"><ele>169</ele></trkpt>      <trkpt lat="48.45726" lon="-3.92969"><ele>170</ele></trkpt>      <trkpt lat="48.45858" lon="-3.92971"><ele>167</ele></trkpt>      <trkpt lat="48.45994" lon="-3.92993"><ele>164</ele></trkpt>      <trkpt lat="48.46073" lon="-3.93020"><ele>158</ele></trkpt>      <trkpt lat="48.46176" lon="-3.93061"><ele>153</ele></trkpt>      <trkpt lat="48.46482" lon="-3.93360"><ele>159</ele></trkpt>      <trkpt lat="48.46732" lon="-3.93717"><ele>157</ele></trkpt>      <trkpt lat="48.46766" lon="-3.93784"><ele>155</ele></trkpt>      <trkpt lat="48.46791" lon="-3.93866"><ele>153</ele></trkpt>      <trkpt lat="48.46834" lon="-3.93949"><ele>151</ele></trkpt>      <trkpt lat="48.46867" lon="-3.93971"><ele>151</ele></trkpt>      <trkpt lat="48.46984" lon="-3.94010"><ele>152</ele></trkpt>      <trkpt lat="48.47095" lon="-3.94125"><ele>153</ele></trkpt>      <trkpt lat="48.47152" lon="-3.94163"><ele>152</ele></trkpt>      <trkpt lat="48.47201" lon="-3.94173"><ele>152</ele></trkpt>      <trkpt lat="48.47276" lon="-3.94164"><ele>151</ele></trkpt>      <trkpt lat="48.47480" lon="-3.94252"><ele>149</ele></trkpt>      <trkpt lat="48.47542" lon="-3.94270"><ele>148</ele></trkpt>      <trkpt lat="48.47644" lon="-3.94282"><ele>146</ele></trkpt>      <trkpt lat="48.47735" lon="-3.94303"><ele>144</ele></trkpt>      <trkpt lat="48.47824" lon="-3.94297"><ele>143</ele></trkpt>      <trkpt lat="48.48075" lon="-3.94213"><ele>138</ele></trkpt>      <trkpt lat="48.48205" lon="-3.94120"><ele>136</ele></trkpt>      <trkpt lat="48.48227" lon="-3.94127"><ele>136</ele></trkpt>      <trkpt lat="48.48271" lon="-3.94171"><ele>135</ele></trkpt>      <trkpt lat="48.48563" lon="-3.94264"><ele>127</ele></trkpt>      <trkpt lat="48.48617" lon="-3.94269"><ele>127</ele></trkpt>      <trkpt lat="48.48854" lon="-3.94247"><ele>133</ele></trkpt>      <trkpt lat="48.49044" lon="-3.94309"><ele>135</ele></trkpt>      <trkpt lat="48.49296" lon="-3.94258"><ele>133</ele></trkpt>      <trkpt lat="48.49433" lon="-3.94293"><ele>135</ele></trkpt>      <trkpt lat="48.49474" lon="-3.94286"><ele>134</ele></trkpt>      <trkpt lat="48.49551" lon="-3.94237"><ele>128</ele></trkpt>      <trkpt lat="48.49640" lon="-3.94219"><ele>124</ele></trkpt>      <trkpt lat="48.49655" lon="-3.94222"><ele>124</ele></trkpt>      <trkpt lat="48.49666" lon="-3.94236"><ele>125</ele></trkpt>      <trkpt lat="48.49649" lon="-3.94274"><ele>128</ele></trkpt>      <trkpt lat="48.49588" lon="-3.94333"><ele>133</ele></trkpt>      <trkpt lat="48.49587" lon="-3.94343"><ele>133</ele></trkpt>      <trkpt lat="48.49587" lon="-3.94367"><ele>133</ele></trkpt>      <trkpt lat="48.49597" lon="-3.94382"><ele>133</ele></trkpt>      <trkpt lat="48.49767" lon="-3.94307"><ele>129</ele></trkpt>      <trkpt lat="48.49830" lon="-3.94293"><ele>128</ele></trkpt>      <trkpt lat="48.49877" lon="-3.94298"><ele>128</ele></trkpt>      <trkpt lat="48.50054" lon="-3.94359"><ele>128</ele></trkpt>      <trkpt lat="48.50147" lon="-3.94380"><ele>128</ele></trkpt>      <trkpt lat="48.50145" lon="-3.94389"><ele>128</ele></trkpt>      <trkpt lat="48.50350" lon="-3.94357"><ele>128</ele></trkpt>      <trkpt lat="48.50732" lon="-3.94256"><ele>124</ele></trkpt>      <trkpt lat="48.50902" lon="-3.94250"><ele>123</ele></trkpt>      <trkpt lat="48.51080" lon="-3.94306"><ele>125</ele></trkpt>      <trkpt lat="48.51293" lon="-3.94334"><ele>124</ele></trkpt>      <trkpt lat="48.51364" lon="-3.94324"><ele>124</ele></trkpt>      <trkpt lat="48.51442" lon="-3.94294"><ele>124</ele></trkpt>      <trkpt lat="48.51481" lon="-3.94293"><ele>124</ele></trkpt>      <trkpt lat="48.51481" lon="-3.94275"><ele>124</ele></trkpt>      <trkpt lat="48.51487" lon="-3.94263"><ele>124</ele></trkpt>      <trkpt lat="48.51480" lon="-3.94245"><ele>124</ele></trkpt>      <trkpt lat="48.51481" lon="-3.94204"><ele>124</ele></trkpt>      <trkpt lat="48.51520" lon="-3.94099"><ele>124</ele></trkpt>      <trkpt lat="48.51650" lon="-3.93772"><ele>125</ele></trkpt>      <trkpt lat="48.51678" lon="-3.93727"><ele>125</ele></trkpt>      <trkpt lat="48.51762" lon="-3.93641"><ele>125</ele></trkpt>      <trkpt lat="48.51790" lon="-3.93620"><ele>125</ele></trkpt>      <trkpt lat="48.51800" lon="-3.93641"><ele>124</ele></trkpt>      <trkpt lat="48.51808" lon="-3.93642"><ele>124</ele></trkpt>      <trkpt lat="48.51828" lon="-3.93599"><ele>123</ele></trkpt>      <trkpt lat="48.51958" lon="-3.93578"><ele>119</ele></trkpt>      <trkpt lat="48.52120" lon="-3.93570"><ele>113</ele></trkpt>      <trkpt lat="48.52116" lon="-3.93552"><ele>113</ele></trkpt>      <trkpt lat="48.52126" lon="-3.93533"><ele>112</ele></trkpt>      <trkpt lat="48.52159" lon="-3.93550"><ele>111</ele></trkpt>      <trkpt lat="48.52276" lon="-3.93534"><ele>106</ele></trkpt>      <trkpt lat="48.52354" lon="-3.93539"><ele>105</ele></trkpt>      <trkpt lat="48.52538" lon="-3.93605"><ele>104</ele></trkpt>      <trkpt lat="48.52606" lon="-3.93654"><ele>104</ele></trkpt>      <trkpt lat="48.52654" lon="-3.93706"><ele>104</ele></trkpt>      <trkpt lat="48.52723" lon="-3.93636"><ele>104</ele></trkpt>      <trkpt lat="48.52766" lon="-3.93622"><ele>104</ele></trkpt>      <trkpt lat="48.52855" lon="-3.93615"><ele>104</ele></trkpt>      <trkpt lat="48.52920" lon="-3.93584"><ele>104</ele></trkpt>      <trkpt lat="48.52979" lon="-3.93621"><ele>103</ele></trkpt>      <trkpt lat="48.53032" lon="-3.93722"><ele>102</ele></trkpt>      <trkpt lat="48.53131" lon="-3.93834"><ele>102</ele></trkpt>      <trkpt lat="48.53479" lon="-3.92903"><ele>105</ele></trkpt>      <trkpt lat="48.53525" lon="-3.92825"><ele>104</ele></trkpt>      <trkpt lat="48.53651" lon="-3.92717"><ele>99</ele></trkpt>      <trkpt lat="48.53927" lon="-3.92498"><ele>103</ele></trkpt>      <trkpt lat="48.53962" lon="-3.92474"><ele>103</ele></trkpt>      <trkpt lat="48.54040" lon="-3.92468"><ele>102</ele></trkpt>      <trkpt lat="48.54217" lon="-3.92580"><ele>98</ele></trkpt>      <trkpt lat="48.54268" lon="-3.92599"><ele>98</ele></trkpt>      <trkpt lat="48.54363" lon="-3.92608"><ele>97</ele></trkpt>      <trkpt lat="48.54495" lon="-3.92643"><ele>96</ele></trkpt>      <trkpt lat="48.54654" lon="-3.92606"><ele>94</ele></trkpt>      <trkpt lat="48.54810" lon="-3.92503"><ele>91</ele></trkpt>      <trkpt lat="48.54843" lon="-3.92472"><ele>91</ele></trkpt>      <trkpt lat="48.54877" lon="-3.92365"><ele>91</ele></trkpt>      <trkpt lat="48.54920" lon="-3.92359"><ele>91</ele></trkpt>      <trkpt lat="48.55007" lon="-3.92382"><ele>90</ele></trkpt>      <trkpt lat="48.55277" lon="-3.92485"><ele>86</ele></trkpt>      <trkpt lat="48.55552" lon="-3.92614"><ele>79</ele></trkpt>      <trkpt lat="48.55633" lon="-3.92616"><ele>81</ele></trkpt>      <trkpt lat="48.55675" lon="-3.92606"><ele>81</ele></trkpt>      <trkpt lat="48.55745" lon="-3.92613"><ele>81</ele></trkpt>      <trkpt lat="48.55811" lon="-3.92649"><ele>80</ele></trkpt>      <trkpt lat="48.55920" lon="-3.92443"><ele>86</ele></trkpt>      <trkpt lat="48.55955" lon="-3.92334"><ele>86</ele></trkpt>      <trkpt lat="48.55974" lon="-3.92331"><ele>86</ele></trkpt>      <trkpt lat="48.56203" lon="-3.92387"><ele>81</ele></trkpt>      <trkpt lat="48.56633" lon="-3.92480"><ele>73</ele></trkpt>      <trkpt lat="48.56925" lon="-3.92444"><ele>66</ele></trkpt>      <trkpt lat="48.57112" lon="-3.92507"><ele>61</ele></trkpt>      <trkpt lat="48.57233" lon="-3.92529"><ele>57</ele></trkpt>      <trkpt lat="48.57370" lon="-3.92512"><ele>48</ele></trkpt>      <trkpt lat="48.57462" lon="-3.92451"><ele>41</ele></trkpt>      <trkpt lat="48.57522" lon="-3.92435"><ele>35</ele></trkpt>      <trkpt lat="48.57637" lon="-3.92433"><ele>28</ele></trkpt>      <trkpt lat="48.57735" lon="-3.92448"><ele>23</ele></trkpt>      <trkpt lat="48.57849" lon="-3.92449"><ele>16</ele></trkpt>      <trkpt lat="48.57874" lon="-3.92427"><ele>14</ele></trkpt>      <trkpt lat="48.57880" lon="-3.92336"><ele>10</ele></trkpt>      <trkpt lat="48.57891" lon="-3.92294"><ele>11</ele></trkpt>      <trkpt lat="48.57913" lon="-3.92279"><ele>11</ele></trkpt>      <trkpt lat="48.57951" lon="-3.92296"><ele>11</ele></trkpt>      <trkpt lat="48.58083" lon="-3.92395"><ele>12</ele></trkpt>      <trkpt lat="48.58220" lon="-3.92435"><ele>13</ele></trkpt>      <trkpt lat="48.58283" lon="-3.92416"><ele>12</ele></trkpt>      <trkpt lat="48.58436" lon="-3.92329"><ele>9</ele></trkpt>      <trkpt lat="48.58532" lon="-3.92296"><ele>9</ele></trkpt>      <trkpt lat="48.58618" lon="-3.92294"><ele>10</ele></trkpt>      <trkpt lat="48.58716" lon="-3.92261"><ele>10</ele></trkpt>      <trkpt lat="48.58772" lon="-3.92254"><ele>10</ele></trkpt>      <trkpt lat="48.58959" lon="-3.92307"><ele>11</ele></trkpt>      <trkpt lat="48.59040" lon="-3.92361"><ele>11</ele></trkpt>      <trkpt lat="48.59067" lon="-3.92389"><ele>11</ele></trkpt>      <trkpt lat="48.59097" lon="-3.92451"><ele>12</ele></trkpt>      <trkpt lat="48.59156" lon="-3.92515"><ele>13</ele></trkpt>      <trkpt lat="48.59298" lon="-3.92847"><ele>20</ele></trkpt>      <trkpt lat="48.59316" lon="-3.92881"><ele>21</ele></trkpt>      <trkpt lat="48.59347" lon="-3.92907"><ele>21</ele></trkpt>      <trkpt lat="48.59370" lon="-3.92930"><ele>21</ele></trkpt>      <trkpt lat="48.59383" lon="-3.92976"><ele>22</ele></trkpt>      <trkpt lat="48.59350" lon="-3.93004"><ele>22</ele></trkpt>      <trkpt lat="48.59341" lon="-3.93065"><ele>21</ele></trkpt>      <trkpt lat="48.59347" lon="-3.93098"><ele>21</ele></trkpt>      <trkpt lat="48.59403" lon="-3.93183"><ele>20</ele></trkpt>      <trkpt lat="48.59448" lon="-3.93232"><ele>18</ele></trkpt>      <trkpt lat="48.59624" lon="-3.93286"><ele>11</ele></trkpt>      <trkpt lat="48.59737" lon="-3.93367"><ele>8</ele></trkpt>      <trkpt lat="48.59770" lon="-3.93402"><ele>8</ele></trkpt>      <trkpt lat="48.59830" lon="-3.93535"><ele>8</ele></trkpt>      <trkpt lat="48.59899" lon="-3.93583"><ele>8</ele></trkpt>      <trkpt lat="48.59960" lon="-3.93660"><ele>8</ele></trkpt>      <trkpt lat="48.60040" lon="-3.93829"><ele>9</ele></trkpt>      <trkpt lat="48.60156" lon="-3.94008"><ele>9</ele></trkpt>      <trkpt lat="48.60328" lon="-3.94143"><ele>9</ele></trkpt>      <trkpt lat="48.60370" lon="-3.94163"><ele>9</ele></trkpt>      <trkpt lat="48.60487" lon="-3.94184"><ele>9</ele></trkpt>      <trkpt lat="48.60570" lon="-3.94150"><ele>9</ele></trkpt>      <trkpt lat="48.60648" lon="-3.94136"><ele>9</ele></trkpt>      <trkpt lat="48.60710" lon="-3.94133"><ele>9</ele></trkpt>      <trkpt lat="48.60788" lon="-3.94150"><ele>10</ele></trkpt>      <trkpt lat="48.60889" lon="-3.94235"><ele>10</ele></trkpt>      <trkpt lat="48.60974" lon="-3.94268"><ele>10</ele></trkpt>      <trkpt lat="48.61154" lon="-3.94430"><ele>10</ele></trkpt>      <trkpt lat="48.61239" lon="-3.94531"><ele>10</ele></trkpt>      <trkpt lat="48.61338" lon="-3.94622"><ele>10</ele></trkpt>      <trkpt lat="48.61444" lon="-3.94687"><ele>10</ele></trkpt>      <trkpt lat="48.61475" lon="-3.94719"><ele>10</ele></trkpt>      <trkpt lat="48.61572" lon="-3.94874"><ele>11</ele></trkpt>      <trkpt lat="48.61709" lon="-3.94980"><ele>11</ele></trkpt>      <trkpt lat="48.61734" lon="-3.95022"><ele>11</ele></trkpt>      <trkpt lat="48.61827" lon="-3.95268"><ele>11</ele></trkpt>      <trkpt lat="48.61865" lon="-3.95342"><ele>11</ele></trkpt>      <trkpt lat="48.61924" lon="-3.95377"><ele>11</ele></trkpt>      <trkpt lat="48.62062" lon="-3.95347"><ele>11</ele></trkpt>      <trkpt lat="48.62193" lon="-3.95355"><ele>11</ele></trkpt>      <trkpt lat="48.62227" lon="-3.95366"><ele>12</ele></trkpt>      <trkpt lat="48.62305" lon="-3.95413"><ele>12</ele></trkpt>      <trkpt lat="48.62561" lon="-3.95447"><ele>12</ele></trkpt>      <trkpt lat="48.62633" lon="-3.95472"><ele>12</ele></trkpt>      <trkpt lat="48.62653" lon="-3.95519"><ele>12</ele></trkpt>      <trkpt lat="48.62649" lon="-3.95640"><ele>12</ele></trkpt>      <trkpt lat="48.62662" lon="-3.95746"><ele>12</ele></trkpt>      <trkpt lat="48.62655" lon="-3.95840"><ele>12</ele></trkpt>      <trkpt lat="48.62673" lon="-3.95984"><ele>13</ele></trkpt>      <trkpt lat="48.62698" lon="-3.96102"><ele>13</ele></trkpt>      <trkpt lat="48.62713" lon="-3.96126"><ele>13</ele></trkpt>      <trkpt lat="48.62762" lon="-3.96161"><ele>13</ele></trkpt>      <trkpt lat="48.62836" lon="-3.96259"><ele>13</ele></trkpt>      <trkpt lat="48.62961" lon="-3.96359"><ele>18</ele></trkpt>      <trkpt lat="48.63072" lon="-3.96422"><ele>23</ele></trkpt>      <trkpt lat="48.63183" lon="-3.96540"><ele>26</ele></trkpt>      <trkpt lat="48.63600" lon="-3.96818"><ele>46</ele></trkpt>      <trkpt lat="48.63826" lon="-3.96949"><ele>57</ele></trkpt>      <trkpt lat="48.63853" lon="-3.96945"><ele>58</ele></trkpt>      <trkpt lat="48.63903" lon="-3.96898"><ele>59</ele></trkpt>      <trkpt lat="48.63951" lon="-3.96818"><ele>58</ele></trkpt>      <trkpt lat="48.64373" lon="-3.96218"><ele>47</ele></trkpt>      <trkpt lat="48.64356" lon="-3.96181"><ele>46</ele></trkpt>      <trkpt lat="48.64347" lon="-3.96102"><ele>44</ele></trkpt>      <trkpt lat="48.64343" lon="-3.96047"><ele>42</ele></trkpt>      <trkpt lat="48.64353" lon="-3.95994"><ele>39</ele></trkpt>      <trkpt lat="48.64433" lon="-3.95815"><ele>31</ele></trkpt>      <trkpt lat="48.64571" lon="-3.95644"><ele>14</ele></trkpt>      <trkpt lat="48.64573" lon="-3.95631"><ele>14</ele></trkpt>      <trkpt lat="48.64558" lon="-3.95607"><ele>14</ele></trkpt>      <trkpt lat="48.64534" lon="-3.95578"><ele>15</ele></trkpt>      <trkpt lat="48.64505" lon="-3.95516"><ele>14</ele></trkpt>      <trkpt lat="48.64490" lon="-3.95448"><ele>13</ele></trkpt>      <trkpt lat="48.64482" lon="-3.95389"><ele>13</ele></trkpt>      <trkpt lat="48.64486" lon="-3.95371"><ele>12</ele></trkpt>      <trkpt lat="48.64638" lon="-3.95607"><ele>8</ele></trkpt>      <trkpt lat="48.64662" lon="-3.95630"><ele>8</ele></trkpt>      <trkpt lat="48.64717" lon="-3.95638"><ele>8</ele></trkpt>      <trkpt lat="48.64760" lon="-3.95670"><ele>8</ele></trkpt>      <trkpt lat="48.64774" lon="-3.95695"><ele>8</ele></trkpt>      <trkpt lat="48.64789" lon="-3.95773"><ele>8</ele></trkpt>      <trkpt lat="48.64819" lon="-3.95791"><ele>8</ele></trkpt>      <trkpt lat="48.64880" lon="-3.95624"><ele>9</ele></trkpt>      <trkpt lat="48.64916" lon="-3.95643"><ele>9</ele></trkpt>      <trkpt lat="48.64954" lon="-3.95748"><ele>11</ele></trkpt>      <trkpt lat="48.65000" lon="-3.95783"><ele>12</ele></trkpt>      <trkpt lat="48.65037" lon="-3.95789"><ele>12</ele></trkpt>      <trkpt lat="48.65047" lon="-3.95781"><ele>12</ele></trkpt>      <trkpt lat="48.65087" lon="-3.95788"><ele>11</ele></trkpt>      <trkpt lat="48.65095" lon="-3.95759"><ele>10</ele></trkpt>      <trkpt lat="48.65144" lon="-3.95758"><ele>12</ele></trkpt>      <trkpt lat="48.65167" lon="-3.95872"><ele>16</ele></trkpt>      <trkpt lat="48.65530" lon="-3.95610"><ele>17</ele></trkpt>      <trkpt lat="48.65629" lon="-3.95594"><ele>19</ele></trkpt>      <trkpt lat="48.65750" lon="-3.95525"><ele>20</ele></trkpt>      <trkpt lat="48.65847" lon="-3.95430"><ele>18</ele></trkpt>      <trkpt lat="48.65933" lon="-3.95432"><ele>19</ele></trkpt>      <trkpt lat="48.66030" lon="-3.95491"><ele>21</ele></trkpt>      <trkpt lat="48.66085" lon="-3.95532"><ele>21</ele></trkpt>      <trkpt lat="48.66100" lon="-3.95626"><ele>24</ele></trkpt>      <trkpt lat="48.66116" lon="-3.95653"><ele>24</ele></trkpt>      <trkpt lat="48.66257" lon="-3.95774"><ele>21</ele></trkpt>      <trkpt lat="48.66352" lon="-3.95987"><ele>26</ele></trkpt>      <trkpt lat="48.66411" lon="-3.96147"><ele>30</ele></trkpt>      <trkpt lat="48.66482" lon="-3.96239"><ele>30</ele></trkpt>      <trkpt lat="48.66545" lon="-3.96269"><ele>29</ele></trkpt>      <trkpt lat="48.66587" lon="-3.96319"><ele>29</ele></trkpt>      <trkpt lat="48.66634" lon="-3.96358"><ele>30</ele></trkpt>      <trkpt lat="48.66675" lon="-3.96427"><ele>28</ele></trkpt>      <trkpt lat="48.66713" lon="-3.96492"><ele>26</ele></trkpt>      <trkpt lat="48.66784" lon="-3.96524"><ele>22</ele></trkpt>      <trkpt lat="48.66846" lon="-3.96615"><ele>18</ele></trkpt>      <trkpt lat="48.66863" lon="-3.96683"><ele>16</ele></trkpt>      <trkpt lat="48.66884" lon="-3.96720"><ele>15</ele></trkpt>      <trkpt lat="48.66940" lon="-3.96780"><ele>15</ele></trkpt>      <trkpt lat="48.67015" lon="-3.96806"><ele>15</ele></trkpt>      <trkpt lat="48.67097" lon="-3.97010"><ele>12</ele></trkpt>      <trkpt lat="48.67205" lon="-3.97311"><ele>6</ele></trkpt>      <trkpt lat="48.67232" lon="-3.97374"><ele>9</ele></trkpt>      <trkpt lat="48.67270" lon="-3.97421"><ele>11</ele></trkpt>      <trkpt lat="48.67469" lon="-3.97602"><ele>11</ele></trkpt>      <trkpt lat="48.67543" lon="-3.97722"><ele>11</ele></trkpt>      <trkpt lat="48.67632" lon="-3.97939"><ele>12</ele></trkpt>      <trkpt lat="48.67643" lon="-3.98010"><ele>13</ele></trkpt>      <trkpt lat="48.67641" lon="-3.98077"><ele>13</ele></trkpt>      <trkpt lat="48.67834" lon="-3.98124"><ele>18</ele></trkpt>      <trkpt lat="48.67962" lon="-3.98205"><ele>21</ele></trkpt>      <trkpt lat="48.68129" lon="-3.98371"><ele>25</ele></trkpt>      <trkpt lat="48.68184" lon="-3.98367"><ele>26</ele></trkpt>      <trkpt lat="48.68305" lon="-3.98698"><ele>32</ele></trkpt>      <trkpt lat="48.68439" lon="-3.98653"><ele>37</ele></trkpt>      <trkpt lat="48.68458" lon="-3.98654"><ele>37</ele></trkpt>      <trkpt lat="48.68474" lon="-3.98683"><ele>37</ele></trkpt>      <trkpt lat="48.68495" lon="-3.98729"><ele>38</ele></trkpt>      <trkpt lat="48.68499" lon="-3.98740"><ele>38</ele></trkpt>      <trkpt lat="48.68537" lon="-3.98750"><ele>39</ele></trkpt>      <trkpt lat="48.68563" lon="-3.98664"><ele>42</ele></trkpt>      <trkpt lat="48.68639" lon="-3.98670"><ele>46</ele></trkpt>      <trkpt lat="48.68728" lon="-3.98676"><ele>49</ele></trkpt>      <trkpt lat="48.68781" lon="-3.98656"><ele>51</ele></trkpt>      <trkpt lat="48.68828" lon="-3.98665"><ele>51</ele></trkpt>      <trkpt lat="48.68930" lon="-3.98766"><ele>51</ele></trkpt>      <trkpt lat="48.69000" lon="-3.98877"><ele>51</ele></trkpt>      <trkpt lat="48.69018" lon="-3.98878"><ele>51</ele></trkpt>      <trkpt lat="48.69030" lon="-3.98877"><ele>51</ele></trkpt>      <trkpt lat="48.69035" lon="-3.98893"><ele>51</ele></trkpt>      <trkpt lat="48.69025" lon="-3.98906"><ele>51</ele></trkpt>      <trkpt lat="48.69015" lon="-3.99033"><ele>51</ele></trkpt>      <trkpt lat="48.68987" lon="-3.99191"><ele>52</ele></trkpt>      <trkpt lat="48.69046" lon="-3.99245"><ele>52</ele></trkpt>      <trkpt lat="48.69082" lon="-3.99255"><ele>52</ele></trkpt>      <trkpt lat="48.69231" lon="-3.99404"><ele>53</ele></trkpt>      <trkpt lat="48.69315" lon="-3.99548"><ele>49</ele></trkpt>      <trkpt lat="48.69353" lon="-3.99668"><ele>46</ele></trkpt>      <trkpt lat="48.69376" lon="-3.99704"><ele>44</ele></trkpt>      <trkpt lat="48.69562" lon="-3.99692"><ele>41</ele></trkpt>      <trkpt lat="48.69589" lon="-3.99680"><ele>41</ele></trkpt>      <trkpt lat="48.69610" lon="-3.99649"><ele>40</ele></trkpt>      <trkpt lat="48.69628" lon="-3.99690"><ele>40</ele></trkpt>      <trkpt lat="48.69653" lon="-3.99714"><ele>38</ele></trkpt>      <trkpt lat="48.69758" lon="-3.99764"><ele>37</ele></trkpt>      <trkpt lat="48.69805" lon="-3.99776"><ele>37</ele></trkpt>      <trkpt lat="48.69882" lon="-3.99822"><ele>37</ele></trkpt>      <trkpt lat="48.69915" lon="-3.99829"><ele>36</ele></trkpt>      <trkpt lat="48.69946" lon="-3.99826"><ele>35</ele></trkpt>      <trkpt lat="48.70037" lon="-3.99781"><ele>32</ele></trkpt>      <trkpt lat="48.70112" lon="-3.99789"><ele>29</ele></trkpt>      <trkpt lat="48.70177" lon="-3.99767"><ele>28</ele></trkpt>      <trkpt lat="48.70300" lon="-3.99559"><ele>36</ele></trkpt>      <trkpt lat="48.70330" lon="-3.99615"><ele>38</ele></trkpt>      <trkpt lat="48.70350" lon="-3.99690"><ele>40</ele></trkpt>      <trkpt lat="48.70402" lon="-3.99751"><ele>40</ele></trkpt>      <trkpt lat="48.70492" lon="-4.00062"><ele>31</ele></trkpt>      <trkpt lat="48.70648" lon="-4.00346"><ele>15</ele></trkpt>      <trkpt lat="48.70753" lon="-4.00564"><ele>7</ele></trkpt>      <trkpt lat="48.70781" lon="-4.00539"><ele>7</ele></trkpt>      <trkpt lat="48.70864" lon="-4.00505"><ele>5</ele></trkpt>      <trkpt lat="48.70952" lon="-4.00474"><ele>4</ele></trkpt>      <trkpt lat="48.70986" lon="-4.00478"><ele>4</ele></trkpt>      <trkpt lat="48.71420" lon="-4.00752"><ele>3</ele></trkpt>      <trkpt lat="48.71451" lon="-4.00742"><ele>4</ele></trkpt>      <trkpt lat="48.71486" lon="-4.00707"><ele>4</ele></trkpt>      <trkpt lat="48.71532" lon="-4.00701"><ele>5</ele></trkpt>      <trkpt lat="48.71771" lon="-4.00876"><ele>6</ele></trkpt>      <trkpt lat="48.71817" lon="-4.00928"><ele>6</ele></trkpt>      <trkpt lat="48.71932" lon="-4.01035"><ele>7</ele></trkpt>      <trkpt lat="48.71958" lon="-4.01035"><ele>7</ele></trkpt>      <trkpt lat="48.71985" lon="-4.01012"><ele>7</ele></trkpt>      <trkpt lat="48.72079" lon="-4.00883"><ele>7</ele></trkpt>      <trkpt lat="48.72154" lon="-4.00826"><ele>7</ele></trkpt>      <trkpt lat="48.72220" lon="-4.00736"><ele>7</ele></trkpt>      <trkpt lat="48.72233" lon="-4.00685"><ele>7</ele></trkpt>      <trkpt lat="48.72233" lon="-4.00685"><ele>7</ele></trkpt>    </trkseg>  </trk></gpx>